region,number,location,address,village_neighborhood,google_maps_url,latitude,longitude
花蓮市,0001,民勤民德里聯合活動中心2樓,花蓮縣花蓮市民勤里4鄰府前路32號,民德里1-5鄰,http://maps.google.com.tw/maps?q=%E8%8A%B1%E8%93%AE%E7%B8%A3%E8%8A%B1%E8%93%AE%E5%B8%82%E6%B0%91%E5%8B%A4%E9%87%8C%E5%BA%9C%E5%89%8D%E8%B7%AF%EF%BC%93%EF%BC%92%E8%99%9F,23.9866702,121.6214686
花蓮市,0002,民勤民德里聯合活動中心,花蓮縣花蓮市民勤里4鄰府前路32號,民德里6-17鄰,http://maps.google.com.tw/maps?q=%E8%8A%B1%E8%93%AE%E7%B8%A3%E8%8A%B1%E8%93%AE%E5%B8%82%E6%B0%91%E5%8B%A4%E9%87%8C%E5%BA%9C%E5%89%8D%E8%B7%AF%EF%BC%93%EF%BC%92%E8%99%9F,23.9866702,121.6214686
花蓮市,0003,東華大學附設小學A104教室(永安街入口),花蓮縣花蓮市民勤里15鄰永安街100號,"民勤里1-8,14,18-19,22-23,37-38,42鄰",http://maps.google.com.tw/maps?q=%E8%8A%B1%E8%93%AE%E7%B8%A3%E8%8A%B1%E8%93%AE%E5%B8%82%E6%B0%91%E5%8B%A4%E9%87%8C%E6%B0%B8%E5%AE%89%E8%A1%97%EF%BC%91%EF%BC%90%EF%BC%90%E8%99%9F,23.9909971,121.6225698
花蓮市,0004,花蓮市衛生所,花蓮縣花蓮市民勤里28鄰新興路200號,"民勤里9,11,20-21,27-29,32-36,39-41,43-46鄰",http://maps.google.com.tw/maps?q=%E8%8A%B1%E8%93%AE%E7%B8%A3%E8%8A%B1%E8%93%AE%E5%B8%82%E6%B0%91%E5%8B%A4%E9%87%8C%E6%96%B0%E8%88%88%E8%B7%AF%EF%BC%92%EF%BC%90%EF%BC%90%E8%99%9F,23.9911467,121.6171649
花蓮市,0005,東華大學附設小學A101教室(永安街入口),花蓮縣花蓮市民勤里15鄰永安街100號,"民勤里10,12-13,15-17,24-26,30-31鄰",http://maps.google.com.tw/maps?q=%E8%8A%B1%E8%93%AE%E7%B8%A3%E8%8A%B1%E8%93%AE%E5%B8%82%E6%B0%91%E5%8B%A4%E9%87%8C%E6%B0%B8%E5%AE%89%E8%A1%97%EF%BC%91%EF%BC%90%EF%BC%90%E8%99%9F,23.9909971,121.6225698
花蓮市,0006,大陳二村活動中心,花蓮縣花蓮市民意里41鄰民光483之1號,"民意里36-43,45-47鄰",http://maps.google.com.tw/maps?q=%E8%8A%B1%E8%93%AE%E7%B8%A3%E8%8A%B1%E8%93%AE%E5%B8%82%E6%B0%91%E6%84%8F%E9%87%8C%E6%B0%91%E5%85%89%EF%BC%94%EF%BC%98%EF%BC%93%E4%B9%8B%EF%BC%91%E8%99%9F,24.0037589,121.6171885
花蓮市,0007,花蓮高工資訊科資二甲教室,花蓮縣花蓮市民意里42鄰府前路27號,"民意里1,32,44,48-49鄰",http://maps.google.com.tw/maps?q=%E8%8A%B1%E8%93%AE%E7%B8%A3%E8%8A%B1%E8%93%AE%E5%B8%82%E6%B0%91%E6%84%8F%E9%87%8C%E5%BA%9C%E5%89%8D%E8%B7%AF%EF%BC%92%EF%BC%97%E8%99%9F,23.9988237,121.6193961
花蓮市,0008,民意里辦公處(原托兒所),花蓮縣花蓮市民意里7鄰民光71之1號,"民意里2-31,33-35鄰",http://maps.google.com.tw/maps?q=%E8%8A%B1%E8%93%AE%E7%B8%A3%E8%8A%B1%E8%93%AE%E5%B8%82%E6%B0%91%E6%84%8F%E9%87%8C%E6%B0%91%E5%85%89%EF%BC%97%EF%BC%91%E4%B9%8B%EF%BC%91%E8%99%9F,24.004471,121.61718
花蓮市,0009,復興國小A1教室,花蓮縣花蓮市民心里1鄰府前路682號,民心里,http://maps.google.com.tw/maps?q=%E8%8A%B1%E8%93%AE%E7%B8%A3%E8%8A%B1%E8%93%AE%E5%B8%82%E6%B0%91%E5%BF%83%E9%87%8C%E5%BA%9C%E5%89%8D%E8%B7%AF%EF%BC%96%EF%BC%98%EF%BC%92%E8%99%9F,24.0070781,121.6188613
花蓮市,0010,復興國小A2教室,花蓮縣花蓮市民心里1鄰府前路682號,"民享里14-18,20鄰",http://maps.google.com.tw/maps?q=%E8%8A%B1%E8%93%AE%E7%B8%A3%E8%8A%B1%E8%93%AE%E5%B8%82%E6%B0%91%E5%BF%83%E9%87%8C%E5%BA%9C%E5%89%8D%E8%B7%AF%EF%BC%96%EF%BC%98%EF%BC%92%E8%99%9F,24.0070781,121.6188613
花蓮市,0011,復興國小風雨教室(大禮堂東側),花蓮縣花蓮市民心里1鄰府前路682號,"民享里1-7,21-22鄰",http://maps.google.com.tw/maps?q=%E8%8A%B1%E8%93%AE%E7%B8%A3%E8%8A%B1%E8%93%AE%E5%B8%82%E6%B0%91%E5%BF%83%E9%87%8C%E5%BA%9C%E5%89%8D%E8%B7%AF%EF%BC%96%EF%BC%98%EF%BC%92%E8%99%9F,24.0070781,121.6188613
花蓮市,0012,復興國小風雨教室(大禮堂西側),花蓮縣花蓮市民心里1鄰府前路682號,"民享里8-13,19鄰",http://maps.google.com.tw/maps?q=%E8%8A%B1%E8%93%AE%E7%B8%A3%E8%8A%B1%E8%93%AE%E5%B8%82%E6%B0%91%E5%BF%83%E9%87%8C%E5%BA%9C%E5%89%8D%E8%B7%AF%EF%BC%96%EF%BC%98%EF%BC%92%E8%99%9F,24.0070781,121.6188613
花蓮市,0013,美崙國中教室,花蓮縣花蓮市民孝里1鄰化道路40巷1號,民孝里1-9鄰,http://maps.google.com.tw/maps?q=%E8%8A%B1%E8%93%AE%E7%B8%A3%E8%8A%B1%E8%93%AE%E5%B8%82%E6%B0%91%E5%AD%9D%E9%87%8C%E5%8C%96%E9%81%93%E8%B7%AF%EF%BC%94%EF%BC%90%E5%B7%B7%EF%BC%91%E8%99%9F,23.9980304,121.6286664
花蓮市,0014,民孝里活動中心,花蓮縣花蓮市民孝里17鄰林園一街16號,民孝里10-18鄰,http://maps.google.com.tw/maps?q=%E8%8A%B1%E8%93%AE%E7%B8%A3%E8%8A%B1%E8%93%AE%E5%B8%82%E6%B0%91%E5%AD%9D%E9%87%8C%E6%9E%97%E5%9C%92%E4%B8%80%E8%A1%97%EF%BC%91%EF%BC%96%E8%99%9F,24.0021762,121.6309785
花蓮市,0015,民意甲社區活動中心,花蓮縣花蓮市民孝里21鄰東興二街147號,民孝里19-32鄰,http://maps.google.com.tw/maps?q=%E8%8A%B1%E8%93%AE%E7%B8%A3%E8%8A%B1%E8%93%AE%E5%B8%82%E6%B0%91%E5%AD%9D%E9%87%8C%E6%9D%B1%E8%88%88%E4%BA%8C%E8%A1%97%EF%BC%91%EF%BC%94%EF%BC%97%E8%99%9F,24.0036195,121.6299086
花蓮市,0016,花蓮市老人會館桌球室,花蓮縣花蓮市民樂里16鄰中興路31號,"民運里1-4,31-43,46-49鄰",http://maps.google.com.tw/maps?q=%E8%8A%B1%E8%93%AE%E7%B8%A3%E8%8A%B1%E8%93%AE%E5%B8%82%E6%B0%91%E6%A8%82%E9%87%8C%E4%B8%AD%E8%88%88%E8%B7%AF%EF%BC%93%EF%BC%91%E8%99%9F,23.9922278,121.6322265
花蓮市,0017,家扶中心體育室,花蓮縣花蓮市民立里8鄰中興路75號,"民運里5-30,44-45鄰",http://maps.google.com.tw/maps?q=%E8%8A%B1%E8%93%AE%E7%B8%A3%E8%8A%B1%E8%93%AE%E5%B8%82%E6%B0%91%E7%AB%8B%E9%87%8C%E4%B8%AD%E8%88%88%E8%B7%AF%EF%BC%97%EF%BC%95%E8%99%9F,23.9930162,121.629502
花蓮市,0018,鑄強國小教室東大樓教室A,花蓮縣花蓮市民政里1鄰永興路20號,"民政里1,32-36鄰",http://maps.google.com.tw/maps?q=%E8%8A%B1%E8%93%AE%E7%B8%A3%E8%8A%B1%E8%93%AE%E5%B8%82%E6%B0%91%E6%94%BF%E9%87%8C%E6%B0%B8%E8%88%88%E8%B7%AF%EF%BC%92%EF%BC%90%E8%99%9F,23.9926142,121.6253867
花蓮市,0019,鑄強國小教室東大樓教室B,花蓮縣花蓮市民政里1鄰永興路20號,"民政里2-11,17-19,28-30,鄰",http://maps.google.com.tw/maps?q=%E8%8A%B1%E8%93%AE%E7%B8%A3%E8%8A%B1%E8%93%AE%E5%B8%82%E6%B0%91%E6%94%BF%E9%87%8C%E6%B0%B8%E8%88%88%E8%B7%AF%EF%BC%92%EF%BC%90%E8%99%9F,23.9926142,121.6253867
花蓮市,0020,鑄強國小教室東大樓教室C,花蓮縣花蓮市民政里1鄰永興路20號,"民政里12-16,21-24鄰",http://maps.google.com.tw/maps?q=%E8%8A%B1%E8%93%AE%E7%B8%A3%E8%8A%B1%E8%93%AE%E5%B8%82%E6%B0%91%E6%94%BF%E9%87%8C%E6%B0%B8%E8%88%88%E8%B7%AF%EF%BC%92%EF%BC%90%E8%99%9F,23.9926142,121.6253867
花蓮市,0021,鑄強國小教室東大樓教室D,花蓮縣花蓮市民政里1鄰永興路20號,"民政里20,25-27,31鄰",http://maps.google.com.tw/maps?q=%E8%8A%B1%E8%93%AE%E7%B8%A3%E8%8A%B1%E8%93%AE%E5%B8%82%E6%B0%91%E6%94%BF%E9%87%8C%E6%B0%B8%E8%88%88%E8%B7%AF%EF%BC%92%EF%BC%90%E8%99%9F,23.9926142,121.6253867
花蓮市,0022,花蓮高中信義樓1年2班教室,花蓮縣花蓮市民立里6鄰民權路42號,民立里7-14鄰,http://maps.google.com.tw/maps?q=%E8%8A%B1%E8%93%AE%E7%B8%A3%E8%8A%B1%E8%93%AE%E5%B8%82%E6%B0%91%E7%AB%8B%E9%87%8C%E6%B0%91%E6%AC%8A%E8%B7%AF%EF%BC%94%EF%BC%92%E8%99%9F,23.98687,121.6253572
花蓮市,0023,花蓮高中信義樓1年1班教室,花蓮縣花蓮市民立里6鄰民權路42號,民立里1-6鄰,http://maps.google.com.tw/maps?q=%E8%8A%B1%E8%93%AE%E7%B8%A3%E8%8A%B1%E8%93%AE%E5%B8%82%E6%B0%91%E7%AB%8B%E9%87%8C%E6%B0%91%E6%AC%8A%E8%B7%AF%EF%BC%94%EF%BC%92%E8%99%9F,23.98687,121.6253572
花蓮市,0024,明恥國小學生活動中心,花蓮縣花蓮市民立里9鄰中興路41號,民樂里,http://maps.google.com.tw/maps?q=%E8%8A%B1%E8%93%AE%E7%B8%A3%E8%8A%B1%E8%93%AE%E5%B8%82%E6%B0%91%E7%AB%8B%E9%87%8C%E4%B8%AD%E8%88%88%E8%B7%AF%EF%BC%94%EF%BC%91%E8%99%9F,23.99136,121.6309838
花蓮市,0025,北濱社區活動中心,花蓮縣花蓮市民有里1鄰海濱街57號,民有里,http://maps.google.com.tw/maps?q=%E8%8A%B1%E8%93%AE%E7%B8%A3%E8%8A%B1%E8%93%AE%E5%B8%82%E6%B0%91%E6%9C%89%E9%87%8C%E6%B5%B7%E6%BF%B1%E8%A1%97%EF%BC%95%EF%BC%97%E8%99%9F,23.9739689,121.6152697
花蓮市,0026,北濱天主堂(原德蕾幼兒園),花蓮縣花蓮市民主里9鄰北濱街4號,民主里,http://maps.google.com.tw/maps?q=%E8%8A%B1%E8%93%AE%E7%B8%A3%E8%8A%B1%E8%93%AE%E5%B8%82%E6%B0%91%E4%B8%BB%E9%87%8C%E5%8C%97%E6%BF%B1%E8%A1%97%EF%BC%94%E8%99%9F,23.9726683,121.6131903
花蓮市,0027,花蓮女中2年9班教室,花蓮縣花蓮市民權里1鄰菁華街2號,民族里,http://maps.google.com.tw/maps?q=%E8%8A%B1%E8%93%AE%E7%B8%A3%E8%8A%B1%E8%93%AE%E5%B8%82%E6%B0%91%E6%AC%8A%E9%87%8C%E8%8F%81%E8%8F%AF%E8%A1%97%EF%BC%92%E8%99%9F,23.9790594,121.6158304
花蓮市,0028,花蓮女中1年9班教室,花蓮縣花蓮市民權里1鄰菁華街2號,民生里,http://maps.google.com.tw/maps?q=%E8%8A%B1%E8%93%AE%E7%B8%A3%E8%8A%B1%E8%93%AE%E5%B8%82%E6%B0%91%E6%AC%8A%E9%87%8C%E8%8F%81%E8%8F%AF%E8%A1%97%EF%BC%92%E8%99%9F,23.9790594,121.6158304
花蓮市,0029,花蓮女中2年10班教室,花蓮縣花蓮市民權里1鄰菁華街2號,民權里,http://maps.google.com.tw/maps?q=%E8%8A%B1%E8%93%AE%E7%B8%A3%E8%8A%B1%E8%93%AE%E5%B8%82%E6%B0%91%E6%AC%8A%E9%87%8C%E8%8F%81%E8%8F%AF%E8%A1%97%EF%BC%92%E8%99%9F,23.9790594,121.6158304
花蓮市,0030,明義國小林森樓教室A,花蓮縣花蓮市國風里2鄰明義街107號,主商里,http://maps.google.com.tw/maps?q=%E8%8A%B1%E8%93%AE%E7%B8%A3%E8%8A%B1%E8%93%AE%E5%B8%82%E5%9C%8B%E9%A2%A8%E9%87%8C%E6%98%8E%E7%BE%A9%E8%A1%97%EF%BC%91%EF%BC%90%EF%BC%97%E8%99%9F,23.9787988,121.6031714
花蓮市,0031,明義國小林森樓教室B,花蓮縣花蓮市國風里2鄰明義街107號,主勤里,http://maps.google.com.tw/maps?q=%E8%8A%B1%E8%93%AE%E7%B8%A3%E8%8A%B1%E8%93%AE%E5%B8%82%E5%9C%8B%E9%A2%A8%E9%87%8C%E6%98%8E%E7%BE%A9%E8%A1%97%EF%BC%91%EF%BC%90%EF%BC%97%E8%99%9F,23.9787988,121.6031714
花蓮市,0032,明義國小藝才樓教室,花蓮縣花蓮市國風里2鄰明義街107號,主工里,http://maps.google.com.tw/maps?q=%E8%8A%B1%E8%93%AE%E7%B8%A3%E8%8A%B1%E8%93%AE%E5%B8%82%E5%9C%8B%E9%A2%A8%E9%87%8C%E6%98%8E%E7%BE%A9%E8%A1%97%EF%BC%91%EF%BC%90%EF%BC%97%E8%99%9F,23.9787988,121.6031714
花蓮市,0033,慈天宮(媽祖廟),花蓮縣花蓮市主信里11鄰忠孝街81號,主信里,http://maps.google.com.tw/maps?q=%E8%8A%B1%E8%93%AE%E7%B8%A3%E8%8A%B1%E8%93%AE%E5%B8%82%E4%B8%BB%E4%BF%A1%E9%87%8C%E5%BF%A0%E5%AD%9D%E8%A1%97%EF%BC%98%EF%BC%91%E8%99%9F,23.9751176,121.6055272
花蓮市,0034,第三聯合里辦公處,花蓮縣花蓮市主計里12鄰成功街212號,主義里,http://maps.google.com.tw/maps?q=%E8%8A%B1%E8%93%AE%E7%B8%A3%E8%8A%B1%E8%93%AE%E5%B8%82%E4%B8%BB%E8%A8%88%E9%87%8C%E6%88%90%E5%8A%9F%E8%A1%97%EF%BC%92%EF%BC%91%EF%BC%92%E8%99%9F,23.9730693,121.6059429
花蓮市,0035,信義國小1年信班教室,花蓮縣花蓮市主計里14鄰信義街1號,主睦里,http://maps.google.com.tw/maps?q=%E8%8A%B1%E8%93%AE%E7%B8%A3%E8%8A%B1%E8%93%AE%E5%B8%82%E4%B8%BB%E8%A8%88%E9%87%8C%E4%BF%A1%E7%BE%A9%E8%A1%97%EF%BC%91%E8%99%9F,23.9711977,121.6062917
花蓮市,0036,信義國小2年信班教室,花蓮縣花蓮市主計里14鄰信義街1號,主計里,http://maps.google.com.tw/maps?q=%E8%8A%B1%E8%93%AE%E7%B8%A3%E8%8A%B1%E8%93%AE%E5%B8%82%E4%B8%BB%E8%A8%88%E9%87%8C%E4%BF%A1%E7%BE%A9%E8%A1%97%EF%BC%91%E8%99%9F,23.9711977,121.6062917
花蓮市,0037,主和社區活動中心,花蓮縣花蓮市主和里1鄰廣東街146號,"主和里1-4,11-22鄰",http://maps.google.com.tw/maps?q=%E8%8A%B1%E8%93%AE%E7%B8%A3%E8%8A%B1%E8%93%AE%E5%B8%82%E4%B8%BB%E5%92%8C%E9%87%8C%E5%BB%A3%E6%9D%B1%E8%A1%97%EF%BC%91%EF%BC%94%EF%BC%96%E8%99%9F,23.9707771,121.6051366
花蓮市,0038,中正國小中和樓N105教室,花蓮縣花蓮市主學里17鄰中正路210號,"主和里23-24,29-32,37-46鄰",http://maps.google.com.tw/maps?q=%E8%8A%B1%E8%93%AE%E7%B8%A3%E8%8A%B1%E8%93%AE%E5%B8%82%E4%B8%BB%E5%AD%B8%E9%87%8C%E4%B8%AD%E6%AD%A3%E8%B7%AF%EF%BC%92%EF%BC%91%EF%BC%90%E8%99%9F,23.9710697,121.600675
花蓮市,0039,中正國小中和樓N106教室,花蓮縣花蓮市主學里17鄰中正路210號,"主和里5-10,25-28,33-36鄰",http://maps.google.com.tw/maps?q=%E8%8A%B1%E8%93%AE%E7%B8%A3%E8%8A%B1%E8%93%AE%E5%B8%82%E4%B8%BB%E5%AD%B8%E9%87%8C%E4%B8%AD%E6%AD%A3%E8%B7%AF%EF%BC%92%EF%BC%91%EF%BC%90%E8%99%9F,23.9710697,121.600675
花蓮市,0040,中正國小中和樓N108教室,花蓮縣花蓮市主學里17鄰中正路210號,主學里1-13鄰,http://maps.google.com.tw/maps?q=%E8%8A%B1%E8%93%AE%E7%B8%A3%E8%8A%B1%E8%93%AE%E5%B8%82%E4%B8%BB%E5%AD%B8%E9%87%8C%E4%B8%AD%E6%AD%A3%E8%B7%AF%EF%BC%92%EF%BC%91%EF%BC%90%E8%99%9F,23.9710697,121.600675
花蓮市,0041,中正國小中和樓N109教室,花蓮縣花蓮市主學里17鄰中正路210號,主學里14-20鄰,http://maps.google.com.tw/maps?q=%E8%8A%B1%E8%93%AE%E7%B8%A3%E8%8A%B1%E8%93%AE%E5%B8%82%E4%B8%BB%E5%AD%B8%E9%87%8C%E4%B8%AD%E6%AD%A3%E8%B7%AF%EF%BC%92%EF%BC%91%EF%BC%90%E8%99%9F,23.9710697,121.600675
花蓮市,0042,福建街福德宮,花蓮縣花蓮市主農里5鄰福建街84號,主農里1-6鄰,http://maps.google.com.tw/maps?q=%E8%8A%B1%E8%93%AE%E7%B8%A3%E8%8A%B1%E8%93%AE%E5%B8%82%E4%B8%BB%E8%BE%B2%E9%87%8C%E7%A6%8F%E5%BB%BA%E8%A1%97%EF%BC%98%EF%BC%94%E8%99%9F,23.967822,121.59936
花蓮市,0043,主農里新社區活動中心(右)(長春街入口),花蓮縣花蓮市主農里11鄰中順街77號,主農里7-12鄰,http://maps.google.com.tw/maps?q=%E8%8A%B1%E8%93%AE%E7%B8%A3%E8%8A%B1%E8%93%AE%E5%B8%82%E4%B8%BB%E8%BE%B2%E9%87%8C%E4%B8%AD%E9%A0%86%E8%A1%97%EF%BC%97%EF%BC%97%E8%99%9F,23.9687802,121.596797
花蓮市,0044,主農里新社區活動中心(左)(中順街公園入口),花蓮縣花蓮市主農里11鄰中順街77號,"主農里13-14,16-18鄰",http://maps.google.com.tw/maps?q=%E8%8A%B1%E8%93%AE%E7%B8%A3%E8%8A%B1%E8%93%AE%E5%B8%82%E4%B8%BB%E8%BE%B2%E9%87%8C%E4%B8%AD%E9%A0%86%E8%A1%97%EF%BC%97%EF%BC%97%E8%99%9F,23.9687802,121.596797
花蓮市,0045,中原國小2年2班教室,花蓮縣花蓮市主權里11鄰中原路531號,"主農里15,19-24鄰",http://maps.google.com.tw/maps?q=%E8%8A%B1%E8%93%AE%E7%B8%A3%E8%8A%B1%E8%93%AE%E5%B8%82%E4%B8%BB%E6%AC%8A%E9%87%8C%E4%B8%AD%E5%8E%9F%E8%B7%AF%EF%BC%95%EF%BC%93%EF%BC%91%E8%99%9F,23.9720404,121.596435
花蓮市,0046,中正國小中強樓S103教室,花蓮縣花蓮市主學里17鄰中正路210號,主安里1-9鄰,http://maps.google.com.tw/maps?q=%E8%8A%B1%E8%93%AE%E7%B8%A3%E8%8A%B1%E8%93%AE%E5%B8%82%E4%B8%BB%E5%AD%B8%E9%87%8C%E4%B8%AD%E6%AD%A3%E8%B7%AF%EF%BC%92%EF%BC%91%EF%BC%90%E8%99%9F,23.9710697,121.600675
花蓮市,0047,中正國小中強樓S104教室,花蓮縣花蓮市主學里17鄰中正路210號,主安里10-19鄰,http://maps.google.com.tw/maps?q=%E8%8A%B1%E8%93%AE%E7%B8%A3%E8%8A%B1%E8%93%AE%E5%B8%82%E4%B8%BB%E5%AD%B8%E9%87%8C%E4%B8%AD%E6%AD%A3%E8%B7%AF%EF%BC%92%EF%BC%91%EF%BC%90%E8%99%9F,23.9710697,121.600675
花蓮市,0048,中原國小1年2班教室,花蓮縣花蓮市主權里11鄰中原路531號,"主權里9,11,17,19,27-28鄰",http://maps.google.com.tw/maps?q=%E8%8A%B1%E8%93%AE%E7%B8%A3%E8%8A%B1%E8%93%AE%E5%B8%82%E4%B8%BB%E6%AC%8A%E9%87%8C%E4%B8%AD%E5%8E%9F%E8%B7%AF%EF%BC%95%EF%BC%93%EF%BC%91%E8%99%9F,23.9720404,121.596435
花蓮市,0049,中原國小1年1班教室,花蓮縣花蓮市主權里11鄰中原路531號,"主權里12-14,18,21,25鄰",http://maps.google.com.tw/maps?q=%E8%8A%B1%E8%93%AE%E7%B8%A3%E8%8A%B1%E8%93%AE%E5%B8%82%E4%B8%BB%E6%AC%8A%E9%87%8C%E4%B8%AD%E5%8E%9F%E8%B7%AF%EF%BC%95%EF%BC%93%EF%BC%91%E8%99%9F,23.9720404,121.596435
花蓮市,0050,中原國小英語教室,花蓮縣花蓮市主權里11鄰中原路531號,"主權里15-16,20鄰",http://maps.google.com.tw/maps?q=%E8%8A%B1%E8%93%AE%E7%B8%A3%E8%8A%B1%E8%93%AE%E5%B8%82%E4%B8%BB%E6%AC%8A%E9%87%8C%E4%B8%AD%E5%8E%9F%E8%B7%AF%EF%BC%95%EF%BC%93%EF%BC%91%E8%99%9F,23.9720404,121.596435
花蓮市,0051,農業部農糧署東區分署會議室,花蓮縣花蓮市主權里3鄰中華路512號,"主權里1-3,5,26鄰",http://maps.google.com.tw/maps?q=%E8%8A%B1%E8%93%AE%E7%B8%A3%E8%8A%B1%E8%93%AE%E5%B8%82%E4%B8%BB%E6%AC%8A%E9%87%8C%E4%B8%AD%E8%8F%AF%E8%B7%AF%EF%BC%95%EF%BC%91%EF%BC%92%E8%99%9F,23.974483,121.5904197
花蓮市,0052,主權公園管理室,花蓮縣花蓮市主權里6鄰中原路666號,"主權里4,6-8,10,22-24鄰",http://maps.google.com.tw/maps?q=%E8%8A%B1%E8%93%AE%E7%B8%A3%E8%8A%B1%E8%93%AE%E5%B8%82%E4%B8%BB%E6%AC%8A%E9%87%8C%E4%B8%AD%E5%8E%9F%E8%B7%AF%EF%BC%96%EF%BC%96%EF%BC%96%E8%99%9F,23.9756658,121.593681
花蓮市,0053,忠孝國小思源樓1年孝班教室,花蓮縣花蓮市主力里6鄰中華路298號,主力里22-32鄰,http://maps.google.com.tw/maps?q=%E8%8A%B1%E8%93%AE%E7%B8%A3%E8%8A%B1%E8%93%AE%E5%B8%82%E4%B8%BB%E5%8A%9B%E9%87%8C%E4%B8%AD%E8%8F%AF%E8%B7%AF%EF%BC%92%EF%BC%99%EF%BC%98%E8%99%9F,23.9758742,121.5985353
花蓮市,0054,忠孝國小思源樓1年忠班教室,花蓮縣花蓮市主力里6鄰中華路298號,主力里1-15鄰,http://maps.google.com.tw/maps?q=%E8%8A%B1%E8%93%AE%E7%B8%A3%E8%8A%B1%E8%93%AE%E5%B8%82%E4%B8%BB%E5%8A%9B%E9%87%8C%E4%B8%AD%E8%8F%AF%E8%B7%AF%EF%BC%92%EF%BC%99%EF%BC%98%E8%99%9F,23.9758742,121.5985353
花蓮市,0055,忠孝國小思源樓潛能開發教室,花蓮縣花蓮市主力里6鄰中華路298號,主力里16-21鄰,http://maps.google.com.tw/maps?q=%E8%8A%B1%E8%93%AE%E7%B8%A3%E8%8A%B1%E8%93%AE%E5%B8%82%E4%B8%BB%E5%8A%9B%E9%87%8C%E4%B8%AD%E8%8F%AF%E8%B7%AF%EF%BC%92%EF%BC%99%EF%BC%98%E8%99%9F,23.9758742,121.5985353
花蓮市,0056,國風里活動中心,花蓮縣花蓮市國風里9鄰林榮街45號,國風里8-13鄰,http://maps.google.com.tw/maps?q=%E8%8A%B1%E8%93%AE%E7%B8%A3%E8%8A%B1%E8%93%AE%E5%B8%82%E5%9C%8B%E9%A2%A8%E9%87%8C%E6%9E%97%E6%A6%AE%E8%A1%97%EF%BC%94%EF%BC%95%E8%99%9F,23.9785468,121.5973633
花蓮市,0057,明義國小仁愛樓教室A,花蓮縣花蓮市國風里2鄰明義街107號,"國風里1-5,19-24鄰",http://maps.google.com.tw/maps?q=%E8%8A%B1%E8%93%AE%E7%B8%A3%E8%8A%B1%E8%93%AE%E5%B8%82%E5%9C%8B%E9%A2%A8%E9%87%8C%E6%98%8E%E7%BE%A9%E8%A1%97%EF%BC%91%EF%BC%90%EF%BC%97%E8%99%9F,23.9787988,121.6031714
花蓮市,0058,國風國中(北側)特教班教室,花蓮縣花蓮市國風里6鄰林政街7號,"國風里6-7,14-18,25鄰",http://maps.google.com.tw/maps?q=%E8%8A%B1%E8%93%AE%E7%B8%A3%E8%8A%B1%E8%93%AE%E5%B8%82%E5%9C%8B%E9%A2%A8%E9%87%8C%E6%9E%97%E6%94%BF%E8%A1%97%EF%BC%97%E8%99%9F,23.9781451,121.5957218
花蓮市,0059,明禮國小多功能教室,花蓮縣花蓮市國治里1鄰明禮路6號,"國威里6-15,19-29鄰",http://maps.google.com.tw/maps?q=%E8%8A%B1%E8%93%AE%E7%B8%A3%E8%8A%B1%E8%93%AE%E5%B8%82%E5%9C%8B%E6%B2%BB%E9%87%8C%E6%98%8E%E7%A6%AE%E8%B7%AF%EF%BC%96%E8%99%9F,23.9806485,121.6104233
花蓮市,0060,明義國小林森樓教室C,花蓮縣花蓮市國風里2鄰明義街107號,"國威里1-5,16-18,30-35鄰",http://maps.google.com.tw/maps?q=%E8%8A%B1%E8%93%AE%E7%B8%A3%E8%8A%B1%E8%93%AE%E5%B8%82%E5%9C%8B%E9%A2%A8%E9%87%8C%E6%98%8E%E7%BE%A9%E8%A1%97%EF%BC%91%EF%BC%90%EF%BC%97%E8%99%9F,23.9787988,121.6031714
花蓮市,0061,明禮國小會議室,花蓮縣花蓮市國治里1鄰明禮路6號,國治里,http://maps.google.com.tw/maps?q=%E8%8A%B1%E8%93%AE%E7%B8%A3%E8%8A%B1%E8%93%AE%E5%B8%82%E5%9C%8B%E6%B2%BB%E9%87%8C%E6%98%8E%E7%A6%AE%E8%B7%AF%EF%BC%96%E8%99%9F,23.9806485,121.6104233
花蓮市,0062,花蓮高商行政教學大樓後排教室A,花蓮縣花蓮市國安里15鄰中山路418號,國安里,http://maps.google.com.tw/maps?q=%E8%8A%B1%E8%93%AE%E7%B8%A3%E8%8A%B1%E8%93%AE%E5%B8%82%E5%9C%8B%E5%AE%89%E9%87%8C%E4%B8%AD%E5%B1%B1%E8%B7%AF%EF%BC%94%EF%BC%91%EF%BC%98%E8%99%9F,23.9871418,121.6037063
花蓮市,0063,國光里活動中心,花蓮縣花蓮市國光里13鄰林森路437號,國光里,http://maps.google.com.tw/maps?q=%E8%8A%B1%E8%93%AE%E7%B8%A3%E8%8A%B1%E8%93%AE%E5%B8%82%E5%9C%8B%E5%85%89%E9%87%8C%E6%9E%97%E6%A3%AE%E8%B7%AF%EF%BC%94%EF%BC%93%EF%BC%97%E8%99%9F,23.9830948,121.6077089
花蓮市,0064,進豐園區大禮堂,花蓮縣花蓮市國防里10鄰進豐街115號,國防里,http://maps.google.com.tw/maps?q=%E8%8A%B1%E8%93%AE%E7%B8%A3%E8%8A%B1%E8%93%AE%E5%B8%82%E5%9C%8B%E9%98%B2%E9%87%8C%E9%80%B2%E8%B1%90%E8%A1%97%EF%BC%91%EF%BC%91%EF%BC%95%E8%99%9F,23.9875515,121.6054084
花蓮市,0065,明義國小仁愛樓教室B,花蓮縣花蓮市國風里2鄰明義街107號,"國華里1-7,9-15,17鄰",http://maps.google.com.tw/maps?q=%E8%8A%B1%E8%93%AE%E7%B8%A3%E8%8A%B1%E8%93%AE%E5%B8%82%E5%9C%8B%E9%A2%A8%E9%87%8C%E6%98%8E%E7%BE%A9%E8%A1%97%EF%BC%91%EF%BC%90%EF%BC%97%E8%99%9F,23.9787988,121.6031714
花蓮市,0066,花蓮高農舊教室大樓1101教室,花蓮縣花蓮市國魂里15鄰建國路161號,"國華里8,16,18-24鄰",http://maps.google.com.tw/maps?q=%E8%8A%B1%E8%93%AE%E7%B8%A3%E8%8A%B1%E8%93%AE%E5%B8%82%E5%9C%8B%E9%AD%82%E9%87%8C%E5%BB%BA%E5%9C%8B%E8%B7%AF%EF%BC%91%EF%BC%96%EF%BC%91%E8%99%9F,23.9828835,121.5976437
花蓮市,0067,花蓮高商行政教學大樓後排教室B,花蓮縣花蓮市國安里15鄰中山路418號,國魂里2-12鄰,http://maps.google.com.tw/maps?q=%E8%8A%B1%E8%93%AE%E7%B8%A3%E8%8A%B1%E8%93%AE%E5%B8%82%E5%9C%8B%E5%AE%89%E9%87%8C%E4%B8%AD%E5%B1%B1%E8%B7%AF%EF%BC%94%EF%BC%91%EF%BC%98%E8%99%9F,23.9871418,121.6037063
花蓮市,0068,花蓮高農舊教室大樓1105教室,花蓮縣花蓮市國魂里15鄰建國路161號,"國魂里1,13-21鄰",http://maps.google.com.tw/maps?q=%E8%8A%B1%E8%93%AE%E7%B8%A3%E8%8A%B1%E8%93%AE%E5%B8%82%E5%9C%8B%E9%AD%82%E9%87%8C%E5%BB%BA%E5%9C%8B%E8%B7%AF%EF%BC%91%EF%BC%96%EF%BC%91%E8%99%9F,23.9828835,121.5976437
花蓮市,0069,中華國小103教室,花蓮縣花蓮市國盛里21鄰國盛二街22號,"國聯里18,26-34鄰",http://maps.google.com.tw/maps?q=%E8%8A%B1%E8%93%AE%E7%B8%A3%E8%8A%B1%E8%93%AE%E5%B8%82%E5%9C%8B%E7%9B%9B%E9%87%8C%E5%9C%8B%E7%9B%9B%E4%BA%8C%E8%A1%97%EF%BC%92%EF%BC%92%E8%99%9F,23.9923019,121.6072723
花蓮市,0070,國聯社區老人會館,花蓮縣花蓮市國聯里12鄰國興五街167號,"國聯里1-2,4-9,12,17鄰",http://maps.google.com.tw/maps?q=%E8%8A%B1%E8%93%AE%E7%B8%A3%E8%8A%B1%E8%93%AE%E5%B8%82%E5%9C%8B%E8%81%AF%E9%87%8C%E5%9C%8B%E8%88%88%E4%BA%94%E8%A1%97%EF%BC%91%EF%BC%96%EF%BC%97%E8%99%9F,23.987716,121.6020205
花蓮市,0071,花蓮高商行政教學大樓後排教室C,花蓮縣花蓮市國安里15鄰中山路418號,"國聯里3,10-11,13-16,19-25,35鄰",http://maps.google.com.tw/maps?q=%E8%8A%B1%E8%93%AE%E7%B8%A3%E8%8A%B1%E8%93%AE%E5%B8%82%E5%9C%8B%E5%AE%89%E9%87%8C%E4%B8%AD%E5%B1%B1%E8%B7%AF%EF%BC%94%EF%BC%91%EF%BC%98%E8%99%9F,23.9871418,121.6037063
花蓮市,0072,中華國小活動中心(左),花蓮縣花蓮市國盛里21鄰國盛二街22號,"國盛里11-13,22,32鄰",http://maps.google.com.tw/maps?q=%E8%8A%B1%E8%93%AE%E7%B8%A3%E8%8A%B1%E8%93%AE%E5%B8%82%E5%9C%8B%E7%9B%9B%E9%87%8C%E5%9C%8B%E7%9B%9B%E4%BA%8C%E8%A1%97%EF%BC%92%EF%BC%92%E8%99%9F,23.9923019,121.6072723
花蓮市,0073,中華國小102教室,花蓮縣花蓮市國盛里21鄰國盛二街22號,國盛里1-9鄰,http://maps.google.com.tw/maps?q=%E8%8A%B1%E8%93%AE%E7%B8%A3%E8%8A%B1%E8%93%AE%E5%B8%82%E5%9C%8B%E7%9B%9B%E9%87%8C%E5%9C%8B%E7%9B%9B%E4%BA%8C%E8%A1%97%EF%BC%92%EF%BC%92%E8%99%9F,23.9923019,121.6072723
花蓮市,0074,中華國小活動中心(右),花蓮縣花蓮市國盛里21鄰國盛二街22號,"國盛里10,14-21,23鄰",http://maps.google.com.tw/maps?q=%E8%8A%B1%E8%93%AE%E7%B8%A3%E8%8A%B1%E8%93%AE%E5%B8%82%E5%9C%8B%E7%9B%9B%E9%87%8C%E5%9C%8B%E7%9B%9B%E4%BA%8C%E8%A1%97%EF%BC%92%EF%BC%92%E8%99%9F,23.9923019,121.6072723
花蓮市,0075,中華國小101教室,花蓮縣花蓮市國盛里21鄰國盛二街22號,國盛里24-31鄰,http://maps.google.com.tw/maps?q=%E8%8A%B1%E8%93%AE%E7%B8%A3%E8%8A%B1%E8%93%AE%E5%B8%82%E5%9C%8B%E7%9B%9B%E9%87%8C%E5%9C%8B%E7%9B%9B%E4%BA%8C%E8%A1%97%EF%BC%92%EF%BC%92%E8%99%9F,23.9923019,121.6072723
花蓮市,0076,自強國中教室A,花蓮縣花蓮市國裕里27鄰裕祥路89號,"國強里1-3,5,12-13鄰",http://maps.google.com.tw/maps?q=%E8%8A%B1%E8%93%AE%E7%B8%A3%E8%8A%B1%E8%93%AE%E5%B8%82%E5%9C%8B%E8%A3%95%E9%87%8C%E8%A3%95%E7%A5%A5%E8%B7%AF%EF%BC%98%EF%BC%99%E8%99%9F,23.9974094,121.5993702
花蓮市,0077,國強里活動中心,花蓮縣花蓮市國強里6鄰豐村78之2號,"國強里4,6-11鄰",http://maps.google.com.tw/maps?q=%E8%8A%B1%E8%93%AE%E7%B8%A3%E8%8A%B1%E8%93%AE%E5%B8%82%E5%9C%8B%E5%BC%B7%E9%87%8C%E8%B1%90%E6%9D%91%EF%BC%97%EF%BC%98%E4%B9%8B%EF%BC%92%E8%99%9F,24.0115711,121.6062192
花蓮市,0078,明廉國小禮堂(前),花蓮縣花蓮市國富里41鄰中山路903號,"國富里1,30-31,43-47鄰",http://maps.google.com.tw/maps?q=%E8%8A%B1%E8%93%AE%E7%B8%A3%E8%8A%B1%E8%93%AE%E5%B8%82%E5%9C%8B%E5%AF%8C%E9%87%8C%E4%B8%AD%E5%B1%B1%E8%B7%AF%EF%BC%99%EF%BC%90%EF%BC%93%E8%99%9F,23.9950295,121.5946123
花蓮市,0079,明廉國小新大樓B101教室,花蓮縣花蓮市國富里41鄰中山路903號,國富里2-10鄰,http://maps.google.com.tw/maps?q=%E8%8A%B1%E8%93%AE%E7%B8%A3%E8%8A%B1%E8%93%AE%E5%B8%82%E5%9C%8B%E5%AF%8C%E9%87%8C%E4%B8%AD%E5%B1%B1%E8%B7%AF%EF%BC%99%EF%BC%90%EF%BC%93%E8%99%9F,23.9950295,121.5946123
花蓮市,0080,國富里活動中心,花蓮縣花蓮市國富里40鄰富祥街12號,國富里21-29鄰,http://maps.google.com.tw/maps?q=%E8%8A%B1%E8%93%AE%E7%B8%A3%E8%8A%B1%E8%93%AE%E5%B8%82%E5%9C%8B%E5%AF%8C%E9%87%8C%E5%AF%8C%E7%A5%A5%E8%A1%97%EF%BC%91%EF%BC%92%E8%99%9F,23.9938555,121.5942471
花蓮市,0081,明廉國小禮堂(後),花蓮縣花蓮市國富里41鄰中山路903號,國富里32-42鄰,http://maps.google.com.tw/maps?q=%E8%8A%B1%E8%93%AE%E7%B8%A3%E8%8A%B1%E8%93%AE%E5%B8%82%E5%9C%8B%E5%AF%8C%E9%87%8C%E4%B8%AD%E5%B1%B1%E8%B7%AF%EF%BC%99%EF%BC%90%EF%BC%93%E8%99%9F,23.9950295,121.5946123
花蓮市,0082,明廉國小新大樓B106教室,花蓮縣花蓮市國富里41鄰中山路903號,國富里11-20鄰,http://maps.google.com.tw/maps?q=%E8%8A%B1%E8%93%AE%E7%B8%A3%E8%8A%B1%E8%93%AE%E5%B8%82%E5%9C%8B%E5%AF%8C%E9%87%8C%E4%B8%AD%E5%B1%B1%E8%B7%AF%EF%BC%99%EF%BC%90%EF%BC%93%E8%99%9F,23.9950295,121.5946123
花蓮市,0083,自強國中教室B,花蓮縣花蓮市國裕里27鄰裕祥路89號,國裕里1-6鄰,http://maps.google.com.tw/maps?q=%E8%8A%B1%E8%93%AE%E7%B8%A3%E8%8A%B1%E8%93%AE%E5%B8%82%E5%9C%8B%E8%A3%95%E9%87%8C%E8%A3%95%E7%A5%A5%E8%B7%AF%EF%BC%98%EF%BC%99%E8%99%9F,23.9974094,121.5993702
花蓮市,0084,自強國中教室C,花蓮縣花蓮市國裕里27鄰裕祥路89號,國裕里7-18鄰,http://maps.google.com.tw/maps?q=%E8%8A%B1%E8%93%AE%E7%B8%A3%E8%8A%B1%E8%93%AE%E5%B8%82%E5%9C%8B%E8%A3%95%E9%87%8C%E8%A3%95%E7%A5%A5%E8%B7%AF%EF%BC%98%EF%BC%99%E8%99%9F,23.9974094,121.5993702
花蓮市,0085,自強國中教室D,花蓮縣花蓮市國裕里27鄰裕祥路89號,國裕里19-26鄰,http://maps.google.com.tw/maps?q=%E8%8A%B1%E8%93%AE%E7%B8%A3%E8%8A%B1%E8%93%AE%E5%B8%82%E5%9C%8B%E8%A3%95%E9%87%8C%E8%A3%95%E7%A5%A5%E8%B7%AF%EF%BC%98%EF%BC%99%E8%99%9F,23.9974094,121.5993702
花蓮市,0086,自強國中教室E,花蓮縣花蓮市國裕里27鄰裕祥路89號,國裕里27-35鄰,http://maps.google.com.tw/maps?q=%E8%8A%B1%E8%93%AE%E7%B8%A3%E8%8A%B1%E8%93%AE%E5%B8%82%E5%9C%8B%E8%A3%95%E9%87%8C%E8%A3%95%E7%A5%A5%E8%B7%AF%EF%BC%98%EF%BC%99%E8%99%9F,23.9974094,121.5993702
花蓮市,0087,保民宮,花蓮縣花蓮市國慶里10鄰中山路一段25號,國慶里,http://maps.google.com.tw/maps?q=%E8%8A%B1%E8%93%AE%E7%B8%A3%E8%8A%B1%E8%93%AE%E5%B8%82%E5%9C%8B%E6%85%B6%E9%87%8C%E4%B8%AD%E5%B1%B1%E8%B7%AF%E4%B8%80%E6%AE%B5%EF%BC%92%EF%BC%95%E8%99%9F,23.9972671,121.5932192
花蓮市,0088,慈濟大學介仁校區立心樓2C107教室,花蓮縣花蓮市國興里17鄰介仁街67號,國興里20-25鄰,http://maps.google.com.tw/maps?q=%E8%8A%B1%E8%93%AE%E7%B8%A3%E8%8A%B1%E8%93%AE%E5%B8%82%E5%9C%8B%E8%88%88%E9%87%8C%E4%BB%8B%E4%BB%81%E8%A1%97%EF%BC%96%EF%BC%97%E8%99%9F,23.999373,121.5719634
花蓮市,0089,國興里活動中心,花蓮縣花蓮市國興里17鄰介禮街46號,國興里1-6鄰,http://maps.google.com.tw/maps?q=%E8%8A%B1%E8%93%AE%E7%B8%A3%E8%8A%B1%E8%93%AE%E5%B8%82%E5%9C%8B%E8%88%88%E9%87%8C%E4%BB%8B%E7%A6%AE%E8%A1%97%EF%BC%94%EF%BC%96%E8%99%9F,23.99748,121.5730676
花蓮市,0090,慈濟大學介仁校區立心樓2C108教室,花蓮縣花蓮市國興里17鄰介仁街67號,國興里7-11鄰,http://maps.google.com.tw/maps?q=%E8%8A%B1%E8%93%AE%E7%B8%A3%E8%8A%B1%E8%93%AE%E5%B8%82%E5%9C%8B%E8%88%88%E9%87%8C%E4%BB%8B%E4%BB%81%E8%A1%97%EF%BC%96%EF%BC%97%E8%99%9F,23.999373,121.5719634
花蓮市,0091,慈濟大學介仁校區立心樓2C112教室,花蓮縣花蓮市國興里17鄰介仁街67號,"國興里12-19,26鄰",http://maps.google.com.tw/maps?q=%E8%8A%B1%E8%93%AE%E7%B8%A3%E8%8A%B1%E8%93%AE%E5%B8%82%E5%9C%8B%E8%88%88%E9%87%8C%E4%BB%8B%E4%BB%81%E8%A1%97%EF%BC%96%EF%BC%97%E8%99%9F,23.999373,121.5719634
花蓮市,0092,花蓮市農會供銷部農業體驗館,花蓮縣花蓮市國福里6鄰中山路二段1號,"國福里1,9-13鄰",http://maps.google.com.tw/maps?q=%E8%8A%B1%E8%93%AE%E7%B8%A3%E8%8A%B1%E8%93%AE%E5%B8%82%E5%9C%8B%E7%A6%8F%E9%87%8C%E4%B8%AD%E5%B1%B1%E8%B7%AF%E4%BA%8C%E6%AE%B5%EF%BC%91%E8%99%9F,24.0101137,121.5830127
花蓮市,0093,國福里社區活動中心,花蓮縣花蓮市國福里6鄰沙基拉雅街111號,國福里2-8鄰,http://maps.google.com.tw/maps?q=%E8%8A%B1%E8%93%AE%E7%B8%A3%E8%8A%B1%E8%93%AE%E5%B8%82%E5%9C%8B%E7%A6%8F%E9%87%8C%E6%B2%99%E5%9F%BA%E6%8B%89%E9%9B%85%E8%A1%97%EF%BC%91%EF%BC%91%EF%BC%91%E8%99%9F,24.0103762,121.581827
鳳林鎮,0229,鳳仁社區活動中心,花蓮縣鳳林鎮鳳仁里3鄰公園路70號,鳳仁里,http://maps.google.com.tw/maps?q=%E8%8A%B1%E8%93%AE%E7%B8%A3%E9%B3%B3%E6%9E%97%E9%8E%AE%E9%B3%B3%E4%BB%81%E9%87%8C%E5%85%AC%E5%9C%92%E8%B7%AF%EF%BC%97%EF%BC%90%E8%99%9F,23.9774988,121.6123404
鳳林鎮,0230,鳳義社區活動中心,花蓮縣鳳林鎮鳳義里6鄰水源路36號,鳳義里,http://maps.google.com.tw/maps?q=%E8%8A%B1%E8%93%AE%E7%B8%A3%E9%B3%B3%E6%9E%97%E9%8E%AE%E9%B3%B3%E7%BE%A9%E9%87%8C%E6%B0%B4%E6%BA%90%E8%B7%AF%EF%BC%93%EF%BC%96%E8%99%9F,23.7481414,121.4412634
鳳林鎮,0231,鳳禮里鳳智里民眾活動中心,花蓮縣鳳林鎮鳳智里1鄰大同街7號之1,鳳禮里,http://maps.google.com.tw/maps?q=%E8%8A%B1%E8%93%AE%E7%B8%A3%E9%B3%B3%E6%9E%97%E9%8E%AE%E9%B3%B3%E6%99%BA%E9%87%8C%E5%A4%A7%E5%90%8C%E8%A1%97%EF%BC%97%E8%99%9F%E4%B9%8B%EF%BC%91,23.7458539,121.4514096
鳳林鎮,0232,鳳林鎮立幼兒園,花蓮縣鳳林鎮鳳智里1鄰公正街8號,鳳智里,http://maps.google.com.tw/maps?q=%E8%8A%B1%E8%93%AE%E7%B8%A3%E9%B3%B3%E6%9E%97%E9%8E%AE%E9%B3%B3%E6%99%BA%E9%87%8C%E5%85%AC%E6%AD%A3%E8%A1%97%EF%BC%98%E8%99%9F,23.7451529,121.4520679
鳳林鎮,0233,鳳信社區活動中心,花蓮縣鳳林鎮鳳信里2鄰中正路一段120巷24號,"鳳信里1-3,8-21鄰",http://maps.google.com.tw/maps?q=%E8%8A%B1%E8%93%AE%E7%B8%A3%E9%B3%B3%E6%9E%97%E9%8E%AE%E9%B3%B3%E4%BF%A1%E9%87%8C%E4%B8%AD%E6%AD%A3%E8%B7%AF%E4%B8%80%E6%AE%B5%EF%BC%91%EF%BC%92%EF%BC%90%E5%B7%B7%EF%BC%92%EF%BC%94%E8%99%9F,23.7274545,121.4387364
鳳林鎮,0234,鳳林國小活動中心,花蓮縣鳳林鎮鳳智里25鄰中正路二段1號,"鳳信里4-7,22-23鄰",http://maps.google.com.tw/maps?q=%E8%8A%B1%E8%93%AE%E7%B8%A3%E9%B3%B3%E6%9E%97%E9%8E%AE%E9%B3%B3%E6%99%BA%E9%87%8C%E4%B8%AD%E6%AD%A3%E8%B7%AF%E4%BA%8C%E6%AE%B5%EF%BC%91%E8%99%9F,23.7430618,121.4466892
鳳林鎮,0235,山興社區活動中心,花蓮縣鳳林鎮山興里6鄰山文路5號,"山興里1-10,16-17鄰",http://maps.google.com.tw/maps?q=%E8%8A%B1%E8%93%AE%E7%B8%A3%E9%B3%B3%E6%9E%97%E9%8E%AE%E5%B1%B1%E8%88%88%E9%87%8C%E5%B1%B1%E6%96%87%E8%B7%AF%EF%BC%95%E8%99%9F,23.9871589,121.6015714
鳳林鎮,0236,中興社區活動中心,花蓮縣鳳林鎮山興里15鄰中興路82號,山興里11-15鄰,http://maps.google.com.tw/maps?q=%E8%8A%B1%E8%93%AE%E7%B8%A3%E9%B3%B3%E6%9E%97%E9%8E%AE%E5%B1%B1%E8%88%88%E9%87%8C%E4%B8%AD%E8%88%88%E8%B7%AF%EF%BC%98%EF%BC%92%E8%99%9F,23.9871589,121.6015714
鳳林鎮,0237,大榮二村社區活動中心,花蓮縣鳳林鎮大榮里10鄰復興路69號,大榮里1-12鄰,http://maps.google.com.tw/maps?q=%E8%8A%B1%E8%93%AE%E7%B8%A3%E9%B3%B3%E6%9E%97%E9%8E%AE%E5%A4%A7%E6%A6%AE%E9%87%8C%E5%BE%A9%E8%88%88%E8%B7%AF%EF%BC%96%EF%BC%99%E8%99%9F,23.7523647,121.467772
鳳林鎮,0238,大榮一村社區活動中心,花蓮縣鳳林鎮大榮里18鄰大榮二路44號,大榮里13-21鄰,http://maps.google.com.tw/maps?q=%E8%8A%B1%E8%93%AE%E7%B8%A3%E9%B3%B3%E6%9E%97%E9%8E%AE%E5%A4%A7%E6%A6%AE%E9%87%8C%E5%A4%A7%E6%A6%AE%E4%BA%8C%E8%B7%AF%EF%BC%94%EF%BC%94%E8%99%9F,23.7454419,121.4572652
鳳林鎮,0239,北林里辦公室,花蓮縣鳳林鎮北林里6鄰民和路1號,北林里,http://maps.google.com.tw/maps?q=%E8%8A%B1%E8%93%AE%E7%B8%A3%E9%B3%B3%E6%9E%97%E9%8E%AE%E5%8C%97%E6%9E%97%E9%87%8C%E6%B0%91%E5%92%8C%E8%B7%AF%EF%BC%91%E8%99%9F,23.7672373,121.4710203
鳳林鎮,0240,南平社區活動中心,花蓮縣鳳林鎮南平里7鄰自強路368之1號,南平里,http://maps.google.com.tw/maps?q=%E8%8A%B1%E8%93%AE%E7%B8%A3%E9%B3%B3%E6%9E%97%E9%8E%AE%E5%8D%97%E5%B9%B3%E9%87%8C%E8%87%AA%E5%BC%B7%E8%B7%AF%EF%BC%93%EF%BC%96%EF%BC%98%E4%B9%8B%EF%BC%91%E8%99%9F,23.7823136,121.4589597
鳳林鎮,0241,林榮社區活動中心,花蓮縣鳳林鎮林榮里10鄰永康路10號,林榮里,http://maps.google.com.tw/maps?q=%E8%8A%B1%E8%93%AE%E7%B8%A3%E9%B3%B3%E6%9E%97%E9%8E%AE%E6%9E%97%E6%A6%AE%E9%87%8C%E6%B0%B8%E5%BA%B7%E8%B7%AF%EF%BC%91%EF%BC%90%E8%99%9F,23.8024055,121.4520922
鳳林鎮,0242,長橋社區活動中心,花蓮縣鳳林鎮長橋里14鄰長橋路6號,長橋里,http://maps.google.com.tw/maps?q=%E8%8A%B1%E8%93%AE%E7%B8%A3%E9%B3%B3%E6%9E%97%E9%8E%AE%E9%95%B7%E6%A9%8B%E9%87%8C%E9%95%B7%E6%A9%8B%E8%B7%AF%EF%BC%96%E8%99%9F,23.7098607,121.4195614
鳳林鎮,0243,林田山林業文化園區交誼廳,花蓮縣鳳林鎮森榮里7鄰林森路99巷98號,森榮里,http://maps.google.com.tw/maps?q=%E8%8A%B1%E8%93%AE%E7%B8%A3%E9%B3%B3%E6%9E%97%E9%8E%AE%E6%A3%AE%E6%A6%AE%E9%87%8C%E6%9E%97%E6%A3%AE%E8%B7%AF%EF%BC%99%EF%BC%99%E5%B7%B7%EF%BC%99%EF%BC%98%E8%99%9F,23.7180886,121.3989548
玉里鎮,0288,中城國小桌球練習室(二),花蓮縣玉里鎮中城里11鄰中山路一段1號,中城里1-2鄰,http://maps.google.com.tw/maps?q=%E8%8A%B1%E8%93%AE%E7%B8%A3%E7%8E%89%E9%87%8C%E9%8E%AE%E4%B8%AD%E5%9F%8E%E9%87%8C%E4%B8%AD%E5%B1%B1%E8%B7%AF%E4%B8%80%E6%AE%B5%EF%BC%91%E8%99%9F,23.3247225,121.3171679
玉里鎮,0289,玉里鎮老人館,花蓮縣玉里鎮中城里4鄰忠智路72號,中城里3-5鄰,http://maps.google.com.tw/maps?q=%E8%8A%B1%E8%93%AE%E7%B8%A3%E7%8E%89%E9%87%8C%E9%8E%AE%E4%B8%AD%E5%9F%8E%E9%87%8C%E5%BF%A0%E6%99%BA%E8%B7%AF%EF%BC%97%EF%BC%92%E8%99%9F,23.3286375,121.3199118
玉里鎮,0290,玉里國小玩具圖書館,花蓮縣玉里鎮中城里4鄰忠智路43號,中城里6-7鄰,http://maps.google.com.tw/maps?q=%E8%8A%B1%E8%93%AE%E7%B8%A3%E7%8E%89%E9%87%8C%E9%8E%AE%E4%B8%AD%E5%9F%8E%E9%87%8C%E5%BF%A0%E6%99%BA%E8%B7%AF%EF%BC%94%EF%BC%93%E8%99%9F,23.3289912,121.3194064
玉里鎮,0291,玉里國小4年3班,花蓮縣玉里鎮中城里4鄰忠智路43號,中城里8-10鄰,http://maps.google.com.tw/maps?q=%E8%8A%B1%E8%93%AE%E7%B8%A3%E7%8E%89%E9%87%8C%E9%8E%AE%E4%B8%AD%E5%9F%8E%E9%87%8C%E5%BF%A0%E6%99%BA%E8%B7%AF%EF%BC%94%EF%BC%93%E8%99%9F,23.3289912,121.3194064
玉里鎮,0292,中城國小桌球練習室(一),花蓮縣玉里鎮中城里11鄰中山路一段1號,中城里11-13鄰,http://maps.google.com.tw/maps?q=%E8%8A%B1%E8%93%AE%E7%B8%A3%E7%8E%89%E9%87%8C%E9%8E%AE%E4%B8%AD%E5%9F%8E%E9%87%8C%E4%B8%AD%E5%B1%B1%E8%B7%AF%E4%B8%80%E6%AE%B5%EF%BC%91%E8%99%9F,23.3247225,121.3171679
玉里鎮,0293,中城國小一年孝班,花蓮縣玉里鎮中城里11鄰中山路一段1號,中城里14-18鄰,http://maps.google.com.tw/maps?q=%E8%8A%B1%E8%93%AE%E7%B8%A3%E7%8E%89%E9%87%8C%E9%8E%AE%E4%B8%AD%E5%9F%8E%E9%87%8C%E4%B8%AD%E5%B1%B1%E8%B7%AF%E4%B8%80%E6%AE%B5%EF%BC%91%E8%99%9F,23.3247225,121.3171679
玉里鎮,0294,舊中城里辦公處,花蓮縣玉里鎮中城里11鄰大同路2號,中城里19-35鄰,http://maps.google.com.tw/maps?q=%E8%8A%B1%E8%93%AE%E7%B8%A3%E7%8E%89%E9%87%8C%E9%8E%AE%E4%B8%AD%E5%9F%8E%E9%87%8C%E5%A4%A7%E5%90%8C%E8%B7%AF%EF%BC%92%E8%99%9F,23.325401,121.317182
玉里鎮,0295,玉里鎮藝文中心,花蓮縣玉里鎮啟模里27鄰民權街50號,國武里1-14鄰,http://maps.google.com.tw/maps?q=%E8%8A%B1%E8%93%AE%E7%B8%A3%E7%8E%89%E9%87%8C%E9%8E%AE%E5%95%9F%E6%A8%A1%E9%87%8C%E6%B0%91%E6%AC%8A%E8%A1%97%EF%BC%95%EF%BC%90%E8%99%9F,23.3356307,121.316061
玉里鎮,0296,玉里鎮中正堂,花蓮縣玉里鎮泰昌里1鄰中正路144號,國武里15-24鄰,http://maps.google.com.tw/maps?q=%E8%8A%B1%E8%93%AE%E7%B8%A3%E7%8E%89%E9%87%8C%E9%8E%AE%E6%B3%B0%E6%98%8C%E9%87%8C%E4%B8%AD%E6%AD%A3%E8%B7%AF%EF%BC%91%EF%BC%94%EF%BC%94%E8%99%9F,23.3374623,121.3069787
玉里鎮,0297,啟模社區活動中心,花蓮縣玉里鎮啟模里27鄰五權街1號,啟模里1-15鄰,http://maps.google.com.tw/maps?q=%E8%8A%B1%E8%93%AE%E7%B8%A3%E7%8E%89%E9%87%8C%E9%8E%AE%E5%95%9F%E6%A8%A1%E9%87%8C%E4%BA%94%E6%AC%8A%E8%A1%97%EF%BC%91%E8%99%9F,23.3362869,121.3160651
玉里鎮,0298,玉里鎮民族樓(大教室),花蓮縣玉里鎮啟模里27鄰民權街50號,啟模里16-27鄰,http://maps.google.com.tw/maps?q=%E8%8A%B1%E8%93%AE%E7%B8%A3%E7%8E%89%E9%87%8C%E9%8E%AE%E5%95%9F%E6%A8%A1%E9%87%8C%E6%B0%91%E6%AC%8A%E8%A1%97%EF%BC%95%EF%BC%90%E8%99%9F,23.3356307,121.316061
玉里鎮,0299,玉里國中801班教室,花蓮縣玉里鎮泰昌里7鄰民族街30號,"泰昌里1-10,14鄰",http://maps.google.com.tw/maps?q=%E8%8A%B1%E8%93%AE%E7%B8%A3%E7%8E%89%E9%87%8C%E9%8E%AE%E6%B3%B0%E6%98%8C%E9%87%8C%E6%B0%91%E6%97%8F%E8%A1%97%EF%BC%93%EF%BC%90%E8%99%9F,23.3353266,121.3129105
玉里鎮,0300,玉里國中804班教室,花蓮縣玉里鎮泰昌里7鄰民族街30號,泰昌里11-20鄰,http://maps.google.com.tw/maps?q=%E8%8A%B1%E8%93%AE%E7%B8%A3%E7%8E%89%E9%87%8C%E9%8E%AE%E6%B3%B0%E6%98%8C%E9%87%8C%E6%B0%91%E6%97%8F%E8%A1%97%EF%BC%93%EF%BC%90%E8%99%9F,23.3353266,121.3129105
玉里鎮,0301,玉里地政事務所,花蓮縣玉里鎮永昌里11鄰莊敬路18號,永昌里1-8鄰,http://maps.google.com.tw/maps?q=%E8%8A%B1%E8%93%AE%E7%B8%A3%E7%8E%89%E9%87%8C%E9%8E%AE%E6%B0%B8%E6%98%8C%E9%87%8C%E8%8E%8A%E6%95%AC%E8%B7%AF%EF%BC%91%EF%BC%98%E8%99%9F,23.3414731,121.3182377
玉里鎮,0302,國立玉里高中學生活動中心(體育館),花蓮縣玉里鎮永昌里13鄰中華路424號,永昌里9-15鄰,http://maps.google.com.tw/maps?q=%E8%8A%B1%E8%93%AE%E7%B8%A3%E7%8E%89%E9%87%8C%E9%8E%AE%E6%B0%B8%E6%98%8C%E9%87%8C%E4%B8%AD%E8%8F%AF%E8%B7%AF%EF%BC%94%EF%BC%92%EF%BC%94%E8%99%9F,23.3459632,121.3189553
玉里鎮,0303,純柑活動中心,花蓮縣玉里鎮大禹里4鄰酸柑88之1號,大禹里1-8鄰,http://maps.google.com.tw/maps?q=%E8%8A%B1%E8%93%AE%E7%B8%A3%E7%8E%89%E9%87%8C%E9%8E%AE%E5%A4%A7%E7%A6%B9%E9%87%8C%E9%85%B8%E6%9F%91%EF%BC%98%EF%BC%98%E4%B9%8B%EF%BC%91%E8%99%9F,23.363609,121.324116
玉里鎮,0304,大禹社區活動中心,花蓮縣玉里鎮大禹里21鄰大禹226號,大禹里9-22鄰,http://maps.google.com.tw/maps?q=%E8%8A%B1%E8%93%AE%E7%B8%A3%E7%8E%89%E9%87%8C%E9%8E%AE%E5%A4%A7%E7%A6%B9%E9%87%8C%E5%A4%A7%E7%A6%B9%EF%BC%92%EF%BC%92%EF%BC%96%E8%99%9F,23.380612,121.3245
玉里鎮,0305,三民社區活動中心,花蓮縣玉里鎮三民里13鄰三民131之2號,三民里,http://maps.google.com.tw/maps?q=%E8%8A%B1%E8%93%AE%E7%B8%A3%E7%8E%89%E9%87%8C%E9%8E%AE%E4%B8%89%E6%B0%91%E9%87%8C%E4%B8%89%E6%B0%91%EF%BC%91%EF%BC%93%EF%BC%91%E4%B9%8B%EF%BC%92%E8%99%9F,23.43088,121.347474
玉里鎮,0306,源城社區發展協會長壽俱樂部,花蓮縣玉里鎮源城里5鄰客城69之1號,源城里1-8鄰,http://maps.google.com.tw/maps?q=%E8%8A%B1%E8%93%AE%E7%B8%A3%E7%8E%89%E9%87%8C%E9%8E%AE%E6%BA%90%E5%9F%8E%E9%87%8C%E5%AE%A2%E5%9F%8E%EF%BC%96%EF%BC%99%E4%B9%8B%EF%BC%91%E8%99%9F,23.317251,121.308701
玉里鎮,0307,源城里活動中心,花蓮縣玉里鎮源城里12鄰水源57之2號,源城里9-23鄰,http://maps.google.com.tw/maps?q=%E8%8A%B1%E8%93%AE%E7%B8%A3%E7%8E%89%E9%87%8C%E9%8E%AE%E6%BA%90%E5%9F%8E%E9%87%8C%E6%B0%B4%E6%BA%90%EF%BC%95%EF%BC%97%E4%B9%8B%EF%BC%92%E8%99%9F,23.33162,121.303082
玉里鎮,0308,長良社區活動中心暨原住民文化聚會所,花蓮縣玉里鎮長良里8鄰長良143之1號,長良里,http://maps.google.com.tw/maps?q=%E8%8A%B1%E8%93%AE%E7%B8%A3%E7%8E%89%E9%87%8C%E9%8E%AE%E9%95%B7%E8%89%AF%E9%87%8C%E9%95%B7%E8%89%AF%EF%BC%91%EF%BC%94%EF%BC%93%E4%B9%8B%EF%BC%91%E8%99%9F,23.276717,121.28763
玉里鎮,0309,樂合社區活動中心,花蓮縣玉里鎮樂合里13鄰樂合65之5號,樂合里,http://maps.google.com.tw/maps?q=%E8%8A%B1%E8%93%AE%E7%B8%A3%E7%8E%89%E9%87%8C%E9%8E%AE%E6%A8%82%E5%90%88%E9%87%8C%E6%A8%82%E5%90%88%EF%BC%96%EF%BC%95%E4%B9%8B%EF%BC%95%E8%99%9F,23.319821,121.344915
玉里鎮,0310,東豐阿婆樂餐廳,花蓮縣玉里鎮東豐里1鄰石崗11之1號,東豐里,http://maps.google.com.tw/maps?q=%E8%8A%B1%E8%93%AE%E7%B8%A3%E7%8E%89%E9%87%8C%E9%8E%AE%E6%9D%B1%E8%B1%90%E9%87%8C%E7%9F%B3%E5%B4%97%EF%BC%91%EF%BC%91%E4%B9%8B%EF%BC%91%E8%99%9F,23.3359099,121.3397179
玉里鎮,0311,高寮國小學生活動中心,花蓮縣玉里鎮觀音里4鄰高寮92號,觀音里1-14鄰,http://maps.google.com.tw/maps?q=%E8%8A%B1%E8%93%AE%E7%B8%A3%E7%8E%89%E9%87%8C%E9%8E%AE%E8%A7%80%E9%9F%B3%E9%87%8C%E9%AB%98%E5%AF%AE%EF%BC%99%EF%BC%92%E8%99%9F,23.3829887,121.3589776
玉里鎮,0312,觀音社區活動中心,花蓮縣玉里鎮觀音里16鄰觀音9之1號,觀音里15-27鄰,http://maps.google.com.tw/maps?q=%E8%8A%B1%E8%93%AE%E7%B8%A3%E7%8E%89%E9%87%8C%E9%8E%AE%E8%A7%80%E9%9F%B3%E9%87%8C%E8%A7%80%E9%9F%B3%EF%BC%99%E4%B9%8B%EF%BC%91%E8%99%9F,23.3950726,121.356556
玉里鎮,0313,玉東國中會議室,花蓮縣玉里鎮松浦里2鄰松浦39號,松浦里1-7鄰,http://maps.google.com.tw/maps?q=%E8%8A%B1%E8%93%AE%E7%B8%A3%E7%8E%89%E9%87%8C%E9%8E%AE%E6%9D%BE%E6%B5%A6%E9%87%8C%E6%9D%BE%E6%B5%A6%EF%BC%93%EF%BC%99%E8%99%9F,23.428071,121.373428
玉里鎮,0314,松浦社區活動中心,花蓮縣玉里鎮松浦里12鄰松浦214之3號,松浦里8-25鄰,http://maps.google.com.tw/maps?q=%E8%8A%B1%E8%93%AE%E7%B8%A3%E7%8E%89%E9%87%8C%E9%8E%AE%E6%9D%BE%E6%B5%A6%E9%87%8C%E6%9D%BE%E6%B5%A6%EF%BC%92%EF%BC%91%EF%BC%94%E4%B9%8B%EF%BC%93%E8%99%9F,23.428071,121.373428
玉里鎮,0315,春日里活動中心,花蓮縣玉里鎮春日里11鄰神農75之1號,春日里,http://maps.google.com.tw/maps?q=%E8%8A%B1%E8%93%AE%E7%B8%A3%E7%8E%89%E9%87%8C%E9%8E%AE%E6%98%A5%E6%97%A5%E9%87%8C%E7%A5%9E%E8%BE%B2%EF%BC%97%EF%BC%95%E4%B9%8B%EF%BC%91%E8%99%9F,23.459209,121.388689
玉里鎮,0316,德武里原住民活動中心,花蓮縣玉里鎮德武里5鄰能雅79號,德武里,http://maps.google.com.tw/maps?q=%E8%8A%B1%E8%93%AE%E7%B8%A3%E7%8E%89%E9%87%8C%E9%8E%AE%E5%BE%B7%E6%AD%A6%E9%87%8C%E8%83%BD%E9%9B%85%EF%BC%97%EF%BC%99%E8%99%9F,23.468275,121.403183
新城鄉,0094,興田社區活動中心,花蓮縣新城鄉新城村18鄰新興一街62號,新城村18-24鄰,http://maps.google.com.tw/maps?q=%E8%8A%B1%E8%93%AE%E7%B8%A3%E6%96%B0%E5%9F%8E%E9%84%89%E6%96%B0%E5%9F%8E%E6%9D%91%E6%96%B0%E8%88%88%E4%B8%80%E8%A1%97%EF%BC%96%EF%BC%92%E8%99%9F,24.1301503,121.6451824
新城鄉,0095,新城活動中心,花蓮縣新城鄉新城村4鄰博愛路66號,"新城村1-17,25-30鄰",http://maps.google.com.tw/maps?q=%E8%8A%B1%E8%93%AE%E7%B8%A3%E6%96%B0%E5%9F%8E%E9%84%89%E6%96%B0%E5%9F%8E%E6%9D%91%E5%8D%9A%E6%84%9B%E8%B7%AF%EF%BC%96%EF%BC%96%E8%99%9F,24.1286942,121.6501318
新城鄉,0096,順安活動中心,花蓮縣新城鄉順安村12鄰草林84之1號,順安村6-16鄰,http://maps.google.com.tw/maps?q=%E8%8A%B1%E8%93%AE%E7%B8%A3%E6%96%B0%E5%9F%8E%E9%84%89%E9%A0%86%E5%AE%89%E6%9D%91%E8%8D%89%E6%9E%97%EF%BC%98%EF%BC%94%E4%B9%8B%EF%BC%91%E8%99%9F,24.1165839,121.638022
新城鄉,0097,北三棧活動中心,花蓮縣新城鄉順安村北三棧52之2號,順安村1-5鄰,http://maps.google.com.tw/maps?q=%E8%8A%B1%E8%93%AE%E7%B8%A3%E6%96%B0%E5%9F%8E%E9%84%89%E9%A0%86%E5%AE%89%E6%9D%91%E5%8C%97%E4%B8%89%E6%A3%A7%EF%BC%95%EF%BC%92%E4%B9%8B%EF%BC%92%E8%99%9F,24.106005,121.619492
新城鄉,0098,康樂國小風雨教室,花蓮縣新城鄉康樂村36鄰康樂一街38號,"康樂村1,13-18,25-26,28-29,33,35鄰",http://maps.google.com.tw/maps?q=%E8%8A%B1%E8%93%AE%E7%B8%A3%E6%96%B0%E5%9F%8E%E9%84%89%E5%BA%B7%E6%A8%82%E6%9D%91%E5%BA%B7%E6%A8%82%E4%B8%80%E8%A1%97%EF%BC%93%EF%BC%98%E8%99%9F,24.0520949,121.6078072
新城鄉,0099,康樂老人會館,花蓮縣新城鄉康樂村6鄰廣安一街112號,"康樂村5-12,21-22,32,36鄰",http://maps.google.com.tw/maps?q=%E8%8A%B1%E8%93%AE%E7%B8%A3%E6%96%B0%E5%9F%8E%E9%84%89%E5%BA%B7%E6%A8%82%E6%9D%91%E5%BB%A3%E5%AE%89%E4%B8%80%E8%A1%97%EF%BC%91%EF%BC%91%EF%BC%92%E8%99%9F,24.053209,121.6097416
新城鄉,0100,康樂村活動中心,花蓮縣新城鄉康樂村2鄰大漢街390號,"康樂村2-4,19-20,23-24,27,30-31,34鄰",http://maps.google.com.tw/maps?q=%E8%8A%B1%E8%93%AE%E7%B8%A3%E6%96%B0%E5%9F%8E%E9%84%89%E5%BA%B7%E6%A8%82%E6%9D%91%E5%A4%A7%E6%BC%A2%E8%A1%97%EF%BC%93%EF%BC%99%EF%BC%90%E8%99%9F,24.049529,121.6083761
新城鄉,0101,新城鄉原住民多功能活動中心,花蓮縣新城鄉大漢村32鄰大安街1號,大漢村20-34鄰,http://maps.google.com.tw/maps?q=%E8%8A%B1%E8%93%AE%E7%B8%A3%E6%96%B0%E5%9F%8E%E9%84%89%E5%A4%A7%E6%BC%A2%E6%9D%91%E5%A4%A7%E5%AE%89%E8%A1%97%EF%BC%91%E8%99%9F,24.0395339,121.6039996
新城鄉,0102,大漢活動中心,花蓮縣新城鄉大漢村19鄰民有街101號,大漢村7-19鄰,http://maps.google.com.tw/maps?q=%E8%8A%B1%E8%93%AE%E7%B8%A3%E6%96%B0%E5%9F%8E%E9%84%89%E5%A4%A7%E6%BC%A2%E6%9D%91%E6%B0%91%E6%9C%89%E8%A1%97%EF%BC%91%EF%BC%90%EF%BC%91%E8%99%9F,24.0367838,121.6099816
新城鄉,0103,七星潭活動中心,花蓮縣新城鄉大漢村4鄰明潭街27號,大漢村1-6鄰,http://maps.google.com.tw/maps?q=%E8%8A%B1%E8%93%AE%E7%B8%A3%E6%96%B0%E5%9F%8E%E9%84%89%E5%A4%A7%E6%BC%A2%E6%9D%91%E6%98%8E%E6%BD%AD%E8%A1%97%EF%BC%92%EF%BC%97%E8%99%9F,24.0269321,121.6301942
新城鄉,0104,青年安心成家住宅交誼廳,花蓮縣新城鄉新秀村1鄰光復路489號,新秀村1-9鄰,http://maps.google.com.tw/maps?q=%E8%8A%B1%E8%93%AE%E7%B8%A3%E6%96%B0%E5%9F%8E%E9%84%89%E6%96%B0%E7%A7%80%E6%9D%91%E5%85%89%E5%BE%A9%E8%B7%AF%EF%BC%94%EF%BC%98%EF%BC%99%E8%99%9F,24.0371433,121.6041058
新城鄉,0105,樹林腳活動中心,花蓮縣新城鄉新秀村12鄰樹林街57巷9號,新秀村10-16鄰,http://maps.google.com.tw/maps?q=%E8%8A%B1%E8%93%AE%E7%B8%A3%E6%96%B0%E5%9F%8E%E9%84%89%E6%96%B0%E7%A7%80%E6%9D%91%E6%A8%B9%E6%9E%97%E8%A1%97%EF%BC%95%EF%BC%97%E5%B7%B7%EF%BC%99%E8%99%9F,24.0404523,121.5993548
新城鄉,0106,北埔活動中心,花蓮縣新城鄉北埔村25鄰北埔路259號,"北埔村12,21-25,28-30鄰",http://maps.google.com.tw/maps?q=%E8%8A%B1%E8%93%AE%E7%B8%A3%E6%96%B0%E5%9F%8E%E9%84%89%E5%8C%97%E5%9F%94%E6%9D%91%E5%8C%97%E5%9F%94%E8%B7%AF%EF%BC%92%EF%BC%95%EF%BC%99%E8%99%9F,24.0339872,121.6032954
新城鄉,0107,新城國中體育館,花蓮縣新城鄉北埔村16鄰北埔路143號,"北埔村1-11,19鄰",http://maps.google.com.tw/maps?q=%E8%8A%B1%E8%93%AE%E7%B8%A3%E6%96%B0%E5%9F%8E%E9%84%89%E5%8C%97%E5%9F%94%E6%9D%91%E5%8C%97%E5%9F%94%E8%B7%AF%EF%BC%91%EF%BC%94%EF%BC%93%E8%99%9F,24.0342594,121.60197
新城鄉,0108,北埔國小體育館,花蓮縣新城鄉北埔村9鄰北埔路170號,"北埔村13-18,20,26-27鄰",http://maps.google.com.tw/maps?q=%E8%8A%B1%E8%93%AE%E7%B8%A3%E6%96%B0%E5%9F%8E%E9%84%89%E5%8C%97%E5%9F%94%E6%9D%91%E5%8C%97%E5%9F%94%E8%B7%AF%EF%BC%91%EF%BC%97%EF%BC%90%E8%99%9F,24.0317943,121.6047798
新城鄉,0109,佳林活動中心,花蓮縣新城鄉佳林村8鄰民有二街29號,佳林村,http://maps.google.com.tw/maps?q=%E8%8A%B1%E8%93%AE%E7%B8%A3%E6%96%B0%E5%9F%8E%E9%84%89%E4%BD%B3%E6%9E%97%E6%9D%91%E6%B0%91%E6%9C%89%E4%BA%8C%E8%A1%97%EF%BC%92%EF%BC%99%E8%99%9F,24.021136,121.6023021
新城鄉,0110,嘉里活動中心,花蓮縣新城鄉嘉里村嘉里二街31巷20號,"嘉里村19-26,39-42鄰",http://maps.google.com.tw/maps?q=%E8%8A%B1%E8%93%AE%E7%B8%A3%E6%96%B0%E5%9F%8E%E9%84%89%E5%98%89%E9%87%8C%E6%9D%91%E5%98%89%E9%87%8C%E4%BA%8C%E8%A1%97%EF%BC%93%EF%BC%91%E5%B7%B7%EF%BC%92%EF%BC%90%E8%99%9F,24.0172944,121.6081
新城鄉,0111,嘉里國小專科教室1,花蓮縣新城鄉嘉里村3鄰嘉里三街28號,嘉里村1-8鄰,http://maps.google.com.tw/maps?q=%E8%8A%B1%E8%93%AE%E7%B8%A3%E6%96%B0%E5%9F%8E%E9%84%89%E5%98%89%E9%87%8C%E6%9D%91%E5%98%89%E9%87%8C%E4%B8%89%E8%A1%97%EF%BC%92%EF%BC%98%E8%99%9F,24.0149237,121.6092336
新城鄉,0112,嘉里國小專科教室3,花蓮縣新城鄉嘉里村3鄰嘉里三街28號,"嘉里村9-18,27-31鄰",http://maps.google.com.tw/maps?q=%E8%8A%B1%E8%93%AE%E7%B8%A3%E6%96%B0%E5%9F%8E%E9%84%89%E5%98%89%E9%87%8C%E6%9D%91%E5%98%89%E9%87%8C%E4%B8%89%E8%A1%97%EF%BC%92%EF%BC%98%E8%99%9F,24.0149237,121.6092336
新城鄉,0113,卡來萬教會,花蓮縣新城鄉嘉里村21鄰嘉里二街74號,嘉里村32-38鄰,http://maps.google.com.tw/maps?q=%E8%8A%B1%E8%93%AE%E7%B8%A3%E6%96%B0%E5%9F%8E%E9%84%89%E5%98%89%E9%87%8C%E6%9D%91%E5%98%89%E9%87%8C%E4%BA%8C%E8%A1%97%EF%BC%97%EF%BC%94%E8%99%9F,24.0186869,121.6084743
新城鄉,0114,海星中學東1-9教室,花蓮縣新城鄉嘉新村10鄰嘉新路36號,嘉新村8-22鄰,http://maps.google.com.tw/maps?q=%E8%8A%B1%E8%93%AE%E7%B8%A3%E6%96%B0%E5%9F%8E%E9%84%89%E5%98%89%E6%96%B0%E6%9D%91%E5%98%89%E6%96%B0%E8%B7%AF%EF%BC%93%EF%BC%96%E8%99%9F,24.0079457,121.613301
新城鄉,0115,嘉新活動中心,花蓮縣新城鄉嘉新村6鄰嘉南一街43巷5號,嘉新村1-7鄰,http://maps.google.com.tw/maps?q=%E8%8A%B1%E8%93%AE%E7%B8%A3%E6%96%B0%E5%9F%8E%E9%84%89%E5%98%89%E6%96%B0%E6%9D%91%E5%98%89%E5%8D%97%E4%B8%80%E8%A1%97%EF%BC%94%EF%BC%93%E5%B7%B7%EF%BC%95%E8%99%9F,24.0051177,121.6122869
吉安鄉,0137,太昌國小(特教班2),花蓮縣吉安鄉太昌村11鄰明義五街1號,太昌村1-8鄰,http://maps.google.com.tw/maps?q=%E8%8A%B1%E8%93%AE%E7%B8%A3%E5%90%89%E5%AE%89%E9%84%89%E5%A4%AA%E6%98%8C%E6%9D%91%E6%98%8E%E7%BE%A9%E4%BA%94%E8%A1%97%EF%BC%91%E8%99%9F,23.9950365,121.5646366
吉安鄉,0138,太昌村活動中心,花蓮縣吉安鄉太昌村11鄰太昌路488號,太昌村9-18鄰,http://maps.google.com.tw/maps?q=%E8%8A%B1%E8%93%AE%E7%B8%A3%E5%90%89%E5%AE%89%E9%84%89%E5%A4%AA%E6%98%8C%E6%9D%91%E5%A4%AA%E6%98%8C%E8%B7%AF%EF%BC%94%EF%BC%98%EF%BC%98%E8%99%9F,23.9935166,121.5639922
吉安鄉,0139,太昌村原住民多功能活動中心,花蓮縣吉安鄉太昌村20鄰明仁三街825巷10號,太昌村19-27鄰,http://maps.google.com.tw/maps?q=%E8%8A%B1%E8%93%AE%E7%B8%A3%E5%90%89%E5%AE%89%E9%84%89%E5%A4%AA%E6%98%8C%E6%9D%91%E6%98%8E%E4%BB%81%E4%B8%89%E8%A1%97%EF%BC%98%EF%BC%92%EF%BC%95%E5%B7%B7%EF%BC%91%EF%BC%90%E8%99%9F,23.9922587,121.5574543
吉安鄉,0140,吉安鄉立幼兒園(1)保健室,花蓮縣吉安鄉永安村20鄰太昌路204號,"永安村1-7,9,30-31鄰",http://maps.google.com.tw/maps?q=%E8%8A%B1%E8%93%AE%E7%B8%A3%E5%90%89%E5%AE%89%E9%84%89%E6%B0%B8%E5%AE%89%E6%9D%91%E5%A4%AA%E6%98%8C%E8%B7%AF%EF%BC%92%EF%BC%90%EF%BC%94%E8%99%9F,23.988978,121.5730001
吉安鄉,0141,吉安鄉立幼兒園(2)蘋果班,花蓮縣吉安鄉永安村20鄰太昌路204號,永安村10-16鄰,http://maps.google.com.tw/maps?q=%E8%8A%B1%E8%93%AE%E7%B8%A3%E5%90%89%E5%AE%89%E9%84%89%E6%B0%B8%E5%AE%89%E6%9D%91%E5%A4%AA%E6%98%8C%E8%B7%AF%EF%BC%92%EF%BC%90%EF%BC%94%E8%99%9F,23.988978,121.5730001
吉安鄉,0142,吉安鄉立幼兒園(3)櫻桃班,花蓮縣吉安鄉永安村20鄰太昌路204號,"永安村17-23,32-33鄰",http://maps.google.com.tw/maps?q=%E8%8A%B1%E8%93%AE%E7%B8%A3%E5%90%89%E5%AE%89%E9%84%89%E6%B0%B8%E5%AE%89%E6%9D%91%E5%A4%AA%E6%98%8C%E8%B7%AF%EF%BC%92%EF%BC%90%EF%BC%94%E8%99%9F,23.988978,121.5730001
吉安鄉,0143,永安社區活動中心,花蓮縣吉安鄉永安村22鄰太昌路202號,"永安村8,24-29,34-35鄰",http://maps.google.com.tw/maps?q=%E8%8A%B1%E8%93%AE%E7%B8%A3%E5%90%89%E5%AE%89%E9%84%89%E6%B0%B8%E5%AE%89%E6%9D%91%E5%A4%AA%E6%98%8C%E8%B7%AF%EF%BC%92%EF%BC%90%EF%BC%92%E8%99%9F,23.9891315,121.5731004
吉安鄉,0144,北昌社區活動中心(1),花蓮縣吉安鄉北昌村16鄰建昌路45號,"北昌村1,3-5,14,21-22,40-41,43-44鄰",http://maps.google.com.tw/maps?q=%E8%8A%B1%E8%93%AE%E7%B8%A3%E5%90%89%E5%AE%89%E9%84%89%E5%8C%97%E6%98%8C%E6%9D%91%E5%BB%BA%E6%98%8C%E8%B7%AF%EF%BC%94%EF%BC%95%E8%99%9F,23.9871293,121.5950977
吉安鄉,0145,北昌社區活動中心(2),花蓮縣吉安鄉北昌村16鄰建昌路45號,"北昌村6-7,11-13,15-16,19,24鄰",http://maps.google.com.tw/maps?q=%E8%8A%B1%E8%93%AE%E7%B8%A3%E5%90%89%E5%AE%89%E9%84%89%E5%8C%97%E6%98%8C%E6%9D%91%E5%BB%BA%E6%98%8C%E8%B7%AF%EF%BC%94%EF%BC%95%E8%99%9F,23.9871293,121.5950977
吉安鄉,0146,北昌國小(1)二年忠班,花蓮縣吉安鄉北昌村39鄰自強路533號,"北昌村17-18,25-26,29,42,45鄰",http://maps.google.com.tw/maps?q=%E8%8A%B1%E8%93%AE%E7%B8%A3%E5%90%89%E5%AE%89%E9%84%89%E5%8C%97%E6%98%8C%E6%9D%91%E8%87%AA%E5%BC%B7%E8%B7%AF%EF%BC%95%EF%BC%93%EF%BC%93%E8%99%9F,23.9874631,121.5914025
吉安鄉,0147,北昌國小(2)二年孝班,花蓮縣吉安鄉北昌村39鄰自強路533號,"北昌村8-10,20,23,27-28,36,48鄰",http://maps.google.com.tw/maps?q=%E8%8A%B1%E8%93%AE%E7%B8%A3%E5%90%89%E5%AE%89%E9%84%89%E5%8C%97%E6%98%8C%E6%9D%91%E8%87%AA%E5%BC%B7%E8%B7%AF%EF%BC%95%EF%BC%93%EF%BC%93%E8%99%9F,23.9874631,121.5914025
吉安鄉,0148,北昌國小(3)二年仁班,花蓮縣吉安鄉北昌村39鄰自強路533號,"北昌村30-35,47鄰",http://maps.google.com.tw/maps?q=%E8%8A%B1%E8%93%AE%E7%B8%A3%E5%90%89%E5%AE%89%E9%84%89%E5%8C%97%E6%98%8C%E6%9D%91%E8%87%AA%E5%BC%B7%E8%B7%AF%EF%BC%95%EF%BC%93%EF%BC%93%E8%99%9F,23.9874631,121.5914025
吉安鄉,0149,北昌國小(4)二年愛班,花蓮縣吉安鄉北昌村39鄰自強路533號,"北昌村2,37-39,46,49,50鄰",http://maps.google.com.tw/maps?q=%E8%8A%B1%E8%93%AE%E7%B8%A3%E5%90%89%E5%AE%89%E9%84%89%E5%8C%97%E6%98%8C%E6%9D%91%E8%87%AA%E5%BC%B7%E8%B7%AF%EF%BC%95%EF%BC%93%EF%BC%93%E8%99%9F,23.9874631,121.5914025
吉安鄉,0150,北昌國小(5)一年忠班,花蓮縣吉安鄉北昌村39鄰自強路533號,吉昌村1-15鄰,http://maps.google.com.tw/maps?q=%E8%8A%B1%E8%93%AE%E7%B8%A3%E5%90%89%E5%AE%89%E9%84%89%E5%8C%97%E6%98%8C%E6%9D%91%E8%87%AA%E5%BC%B7%E8%B7%AF%EF%BC%95%EF%BC%93%EF%BC%93%E8%99%9F,23.9874631,121.5914025
吉安鄉,0151,勝安村活動中心(1),花蓮縣吉安鄉勝安村23鄰慈惠一街30號,"勝安村1-6,17-19鄰",http://maps.google.com.tw/maps?q=%E8%8A%B1%E8%93%AE%E7%B8%A3%E5%90%89%E5%AE%89%E9%84%89%E5%8B%9D%E5%AE%89%E6%9D%91%E6%85%88%E6%83%A0%E4%B8%80%E8%A1%97%EF%BC%93%EF%BC%90%E8%99%9F,23.9754388,121.586779
吉安鄉,0152,勝安村活動中心(2),花蓮縣吉安鄉勝安村23鄰慈惠一街30號,勝安村20-27鄰,http://maps.google.com.tw/maps?q=%E8%8A%B1%E8%93%AE%E7%B8%A3%E5%90%89%E5%AE%89%E9%84%89%E5%8B%9D%E5%AE%89%E6%9D%91%E6%85%88%E6%83%A0%E4%B8%80%E8%A1%97%EF%BC%93%EF%BC%90%E8%99%9F,23.9754388,121.586779
吉安鄉,0153,聖地慈惠堂(金母娘娘)後棟餐廳,花蓮縣吉安鄉勝安村19鄰慈惠三街136號,勝安村31-37鄰,http://maps.google.com.tw/maps?q=%E8%8A%B1%E8%93%AE%E7%B8%A3%E5%90%89%E5%AE%89%E9%84%89%E5%8B%9D%E5%AE%89%E6%9D%91%E6%85%88%E6%83%A0%E4%B8%89%E8%A1%97%EF%BC%91%EF%BC%93%EF%BC%96%E8%99%9F,23.9779366,121.585897
吉安鄉,0154,勝安宮研習教室,花蓮縣吉安鄉勝安村18鄰慈惠四街168號,勝安村7-14鄰,http://maps.google.com.tw/maps?q=%E8%8A%B1%E8%93%AE%E7%B8%A3%E5%90%89%E5%AE%89%E9%84%89%E5%8B%9D%E5%AE%89%E6%9D%91%E6%85%88%E6%83%A0%E5%9B%9B%E8%A1%97%EF%BC%91%EF%BC%96%EF%BC%98%E8%99%9F,23.978447,121.5870673
吉安鄉,0155,勝安宮文化教室,花蓮縣吉安鄉勝安村19鄰慈惠三街118號,"勝安村15-16,28-30鄰",http://maps.google.com.tw/maps?q=%E8%8A%B1%E8%93%AE%E7%B8%A3%E5%90%89%E5%AE%89%E9%84%89%E5%8B%9D%E5%AE%89%E6%9D%91%E6%85%88%E6%83%A0%E4%B8%89%E8%A1%97%EF%BC%91%EF%BC%91%EF%BC%98%E8%99%9F,23.9774811,121.5867297
吉安鄉,0156,宜昌國小(1)二年5班,花蓮縣吉安鄉宜昌村1鄰宜昌一街45號,"宜昌村1,3-6,15-16鄰",http://maps.google.com.tw/maps?q=%E8%8A%B1%E8%93%AE%E7%B8%A3%E5%90%89%E5%AE%89%E9%84%89%E5%AE%9C%E6%98%8C%E6%9D%91%E5%AE%9C%E6%98%8C%E4%B8%80%E8%A1%97%EF%BC%94%EF%BC%95%E8%99%9F,23.9708378,121.5856959
吉安鄉,0157,宜昌國小(2)資源教室C,花蓮縣吉安鄉宜昌村1鄰宜昌一街45號,"宜昌村2,7-13鄰",http://maps.google.com.tw/maps?q=%E8%8A%B1%E8%93%AE%E7%B8%A3%E5%90%89%E5%AE%89%E9%84%89%E5%AE%9C%E6%98%8C%E6%9D%91%E5%AE%9C%E6%98%8C%E4%B8%80%E8%A1%97%EF%BC%94%EF%BC%95%E8%99%9F,23.9708378,121.5856959
吉安鄉,0158,宜昌社區活動中心,花蓮縣吉安鄉宜昌村26鄰吉祥六街52巷9號,宜昌村23-29鄰,http://maps.google.com.tw/maps?q=%E8%8A%B1%E8%93%AE%E7%B8%A3%E5%90%89%E5%AE%89%E9%84%89%E5%AE%9C%E6%98%8C%E6%9D%91%E5%90%89%E7%A5%A5%E5%85%AD%E8%A1%97%EF%BC%95%EF%BC%92%E5%B7%B7%EF%BC%99%E8%99%9F,23.9756026,121.5831664
吉安鄉,0159,田埔天主堂(中和幼稚園旁),花蓮縣吉安鄉宜昌村20鄰中華路二段167號,"宜昌村14,17-22,30-32鄰",http://maps.google.com.tw/maps?q=%E8%8A%B1%E8%93%AE%E7%B8%A3%E5%90%89%E5%AE%89%E9%84%89%E5%AE%9C%E6%98%8C%E6%9D%91%E4%B8%AD%E8%8F%AF%E8%B7%AF%E4%BA%8C%E6%AE%B5%EF%BC%91%EF%BC%96%EF%BC%97%E8%99%9F,23.9734659,121.5823007
吉安鄉,0160,南昌社區活動中心,花蓮縣吉安鄉南昌村4鄰文化七街62之1號,南昌村1-7鄰,http://maps.google.com.tw/maps?q=%E8%8A%B1%E8%93%AE%E7%B8%A3%E5%90%89%E5%AE%89%E9%84%89%E5%8D%97%E6%98%8C%E6%9D%91%E6%96%87%E5%8C%96%E4%B8%83%E8%A1%97%EF%BC%96%EF%BC%92%E4%B9%8B%EF%BC%91%E8%99%9F,23.9705185,121.5798665
吉安鄉,0161,吉安鄉阿美族文化館,花蓮縣吉安鄉南昌村24鄰文化五街43號,南昌村8-14鄰,http://maps.google.com.tw/maps?q=%E8%8A%B1%E8%93%AE%E7%B8%A3%E5%90%89%E5%AE%89%E9%84%89%E5%8D%97%E6%98%8C%E6%9D%91%E6%96%87%E5%8C%96%E4%BA%94%E8%A1%97%EF%BC%94%EF%BC%93%E8%99%9F,23.9700061,121.5812244
吉安鄉,0162,花蓮特殊教育學校(1)分組教室2,花蓮縣吉安鄉宜昌村6鄰中山路二段2號,"南昌村15-16,18,24-25鄰",http://maps.google.com.tw/maps?q=%E8%8A%B1%E8%93%AE%E7%B8%A3%E5%90%89%E5%AE%89%E9%84%89%E5%AE%9C%E6%98%8C%E6%9D%91%E4%B8%AD%E5%B1%B1%E8%B7%AF%E4%BA%8C%E6%AE%B5%EF%BC%92%E8%99%9F,23.9711436,121.5834123
吉安鄉,0163,花蓮特殊教育學校(2)分組教室3,花蓮縣吉安鄉宜昌村6鄰中山路二段2號,"南昌村17,19-23,26鄰",http://maps.google.com.tw/maps?q=%E8%8A%B1%E8%93%AE%E7%B8%A3%E5%90%89%E5%AE%89%E9%84%89%E5%AE%9C%E6%98%8C%E6%9D%91%E4%B8%AD%E5%B1%B1%E8%B7%AF%E4%BA%8C%E6%AE%B5%EF%BC%92%E8%99%9F,23.9711436,121.5834123
吉安鄉,0164,好客藝術村(1)6號館,花蓮縣吉安鄉慶豐村57鄰中山路三段477號,"慶豐村1-10,51鄰",http://maps.google.com.tw/maps?q=%E8%8A%B1%E8%93%AE%E7%B8%A3%E5%90%89%E5%AE%89%E9%84%89%E6%85%B6%E8%B1%90%E6%9D%91%E4%B8%AD%E5%B1%B1%E8%B7%AF%E4%B8%89%E6%AE%B5%EF%BC%94%EF%BC%97%EF%BC%97%E8%99%9F,23.9808443,121.5649928
吉安鄉,0165,好客藝術村(2)客家生活館,花蓮縣吉安鄉慶豐村57鄰中山路三段477號,慶豐村11-21鄰,http://maps.google.com.tw/maps?q=%E8%8A%B1%E8%93%AE%E7%B8%A3%E5%90%89%E5%AE%89%E9%84%89%E6%85%B6%E8%B1%90%E6%9D%91%E4%B8%AD%E5%B1%B1%E8%B7%AF%E4%B8%89%E6%AE%B5%EF%BC%94%EF%BC%97%EF%BC%97%E8%99%9F,23.9808443,121.5649928
吉安鄉,0166,好客藝術村(3)視廳教室,花蓮縣吉安鄉慶豐村57鄰中山路三段477號,"慶豐村28-33,55-56鄰",http://maps.google.com.tw/maps?q=%E8%8A%B1%E8%93%AE%E7%B8%A3%E5%90%89%E5%AE%89%E9%84%89%E6%85%B6%E8%B1%90%E6%9D%91%E4%B8%AD%E5%B1%B1%E8%B7%AF%E4%B8%89%E6%AE%B5%EF%BC%94%EF%BC%97%EF%BC%97%E8%99%9F,23.9808443,121.5649928
吉安鄉,0167,慶豐社區活動中心,花蓮縣吉安鄉慶豐村39鄰慶北一街237號,"慶豐村22-27,52-54鄰",http://maps.google.com.tw/maps?q=%E8%8A%B1%E8%93%AE%E7%B8%A3%E5%90%89%E5%AE%89%E9%84%89%E6%85%B6%E8%B1%90%E6%9D%91%E6%85%B6%E5%8C%97%E4%B8%80%E8%A1%97%EF%BC%92%EF%BC%93%EF%BC%97%E8%99%9F,23.9825613,121.5632376
吉安鄉,0168,吉安國中(1)體育館,花蓮縣吉安鄉慶豐村43鄰中山路三段662號,"慶豐村34-41,57鄰",http://maps.google.com.tw/maps?q=%E8%8A%B1%E8%93%AE%E7%B8%A3%E5%90%89%E5%AE%89%E9%84%89%E6%85%B6%E8%B1%90%E6%9D%91%E4%B8%AD%E5%B1%B1%E8%B7%AF%E4%B8%89%E6%AE%B5%EF%BC%96%EF%BC%96%EF%BC%92%E8%99%9F,23.9834711,121.5616183
吉安鄉,0169,吉安國中(2)體育館,花蓮縣吉安鄉慶豐村43鄰中山路三段662號,"慶豐村42-50,58-59鄰",http://maps.google.com.tw/maps?q=%E8%8A%B1%E8%93%AE%E7%B8%A3%E5%90%89%E5%AE%89%E9%84%89%E6%85%B6%E8%B1%90%E6%9D%91%E4%B8%AD%E5%B1%B1%E8%B7%AF%E4%B8%89%E6%AE%B5%EF%BC%96%EF%BC%96%EF%BC%92%E8%99%9F,23.9834711,121.5616183
吉安鄉,0170,吉安鄉老人會館,花蓮縣吉安鄉吉安村6鄰中山路三段1號,吉安村1-5鄰,http://maps.google.com.tw/maps?q=%E8%8A%B1%E8%93%AE%E7%B8%A3%E5%90%89%E5%AE%89%E9%84%89%E5%90%89%E5%AE%89%E6%9D%91%E4%B8%AD%E5%B1%B1%E8%B7%AF%E4%B8%89%E6%AE%B5%EF%BC%91%E8%99%9F,23.9839592,121.5598375
吉安鄉,0171,吉安鄉立圖書館,花蓮縣吉安鄉吉安村7鄰中山路三段3號,"吉安村6-9,28鄰",http://maps.google.com.tw/maps?q=%E8%8A%B1%E8%93%AE%E7%B8%A3%E5%90%89%E5%AE%89%E9%84%89%E5%90%89%E5%AE%89%E6%9D%91%E4%B8%AD%E5%B1%B1%E8%B7%AF%E4%B8%89%E6%AE%B5%EF%BC%93%E8%99%9F,23.9734937,121.5781053
吉安鄉,0172,吉安社區活動中心,花蓮縣吉安鄉吉安村19鄰中興路355巷3之1號,吉安村10-15鄰,http://maps.google.com.tw/maps?q=%E8%8A%B1%E8%93%AE%E7%B8%A3%E5%90%89%E5%AE%89%E9%84%89%E5%90%89%E5%AE%89%E6%9D%91%E4%B8%AD%E8%88%88%E8%B7%AF%EF%BC%93%EF%BC%95%EF%BC%95%E5%B7%B7%EF%BC%93%E4%B9%8B%EF%BC%91%E8%99%9F,23.9734966,121.5639768
吉安鄉,0173,吉安國小(1)二年1班,花蓮縣吉安鄉吉安村27鄰吉安路二段97號,"吉安村16-17,23,29鄰",http://maps.google.com.tw/maps?q=%E8%8A%B1%E8%93%AE%E7%B8%A3%E5%90%89%E5%AE%89%E9%84%89%E5%90%89%E5%AE%89%E6%9D%91%E5%90%89%E5%AE%89%E8%B7%AF%E4%BA%8C%E6%AE%B5%EF%BC%99%EF%BC%97%E8%99%9F,23.9734716,121.5625101
吉安鄉,0174,吉安國小(2)一年1班,花蓮縣吉安鄉吉安村27鄰吉安路二段97號,"吉安村18-21,27鄰",http://maps.google.com.tw/maps?q=%E8%8A%B1%E8%93%AE%E7%B8%A3%E5%90%89%E5%AE%89%E9%84%89%E5%90%89%E5%AE%89%E6%9D%91%E5%90%89%E5%AE%89%E8%B7%AF%E4%BA%8C%E6%AE%B5%EF%BC%99%EF%BC%97%E8%99%9F,23.9734716,121.5625101
吉安鄉,0175,吉安國小(3)一年2班,花蓮縣吉安鄉吉安村27鄰吉安路二段97號,"吉安村22,24-26,30-31鄰",http://maps.google.com.tw/maps?q=%E8%8A%B1%E8%93%AE%E7%B8%A3%E5%90%89%E5%AE%89%E9%84%89%E5%90%89%E5%AE%89%E6%9D%91%E5%90%89%E5%AE%89%E8%B7%AF%E4%BA%8C%E6%AE%B5%EF%BC%99%EF%BC%97%E8%99%9F,23.9734716,121.5625101
吉安鄉,0176,福興舊社區活動中心,花蓮縣吉安鄉福興村9鄰吉安路三段90號,"福興村1-3,5,7,9,21-24鄰",http://maps.google.com.tw/maps?q=%E8%8A%B1%E8%93%AE%E7%B8%A3%E5%90%89%E5%AE%89%E9%84%89%E7%A6%8F%E8%88%88%E6%9D%91%E5%90%89%E5%AE%89%E8%B7%AF%E4%B8%89%E6%AE%B5%EF%BC%99%EF%BC%90%E8%99%9F,23.968341,121.5597807
吉安鄉,0177,福興社區活動中心,花蓮縣吉安鄉福興村4鄰福德街1號,"福興村4,6,8,10,13,15鄰",http://maps.google.com.tw/maps?q=%E8%8A%B1%E8%93%AE%E7%B8%A3%E5%90%89%E5%AE%89%E9%84%89%E7%A6%8F%E8%88%88%E6%9D%91%E7%A6%8F%E5%BE%B7%E8%A1%97%EF%BC%91%E8%99%9F,23.9692299,121.562453
吉安鄉,0178,吉安創客棧(買菸場),花蓮縣吉安鄉福興村12鄰吉安路三段165號,"福興村11-12,14,16-20鄰",http://maps.google.com.tw/maps?q=%E8%8A%B1%E8%93%AE%E7%B8%A3%E5%90%89%E5%AE%89%E9%84%89%E7%A6%8F%E8%88%88%E6%9D%91%E5%90%89%E5%AE%89%E8%B7%AF%E4%B8%89%E6%AE%B5%EF%BC%91%EF%BC%96%EF%BC%95%E8%99%9F,23.9664654,121.5588019
吉安鄉,0179,南華社區活動中心,花蓮縣吉安鄉南華村2鄰南華四街123號,南華村7-14鄰,http://maps.google.com.tw/maps?q=%E8%8A%B1%E8%93%AE%E7%B8%A3%E5%90%89%E5%AE%89%E9%84%89%E5%8D%97%E8%8F%AF%E6%9D%91%E5%8D%97%E8%8F%AF%E5%9B%9B%E8%A1%97%EF%BC%91%EF%BC%92%EF%BC%93%E8%99%9F,23.9532271,121.5510003
吉安鄉,0180,南華舊社區活動中心,花蓮縣吉安鄉南華村3鄰南華四街131巷40號,"南華村1-6,15-17鄰",http://maps.google.com.tw/maps?q=%E8%8A%B1%E8%93%AE%E7%B8%A3%E5%90%89%E5%AE%89%E9%84%89%E5%8D%97%E8%8F%AF%E6%9D%91%E5%8D%97%E8%8F%AF%E5%9B%9B%E8%A1%97%EF%BC%91%EF%BC%93%EF%BC%91%E5%B7%B7%EF%BC%94%EF%BC%90%E8%99%9F,23.9528153,121.5503601
吉安鄉,0181,干城社區活動中心,花蓮縣吉安鄉干城村2鄰干城一街97巷1號,干城村,http://maps.google.com.tw/maps?q=%E8%8A%B1%E8%93%AE%E7%B8%A3%E5%90%89%E5%AE%89%E9%84%89%E5%B9%B2%E5%9F%8E%E6%9D%91%E5%B9%B2%E5%9F%8E%E4%B8%80%E8%A1%97%EF%BC%99%EF%BC%97%E5%B7%B7%EF%BC%91%E8%99%9F,23.9477249,121.5451578
吉安鄉,0182,東昌社區活動中心,花蓮縣吉安鄉東昌村6鄰東海六街74號,東昌村1-9鄰,http://maps.google.com.tw/maps?q=%E8%8A%B1%E8%93%AE%E7%B8%A3%E5%90%89%E5%AE%89%E9%84%89%E6%9D%B1%E6%98%8C%E6%9D%91%E6%9D%B1%E6%B5%B7%E5%85%AD%E8%A1%97%EF%BC%97%EF%BC%94%E8%99%9F,23.9658643,121.5958491
吉安鄉,0183,化仁國小(1)一年乙班,花蓮縣吉安鄉東昌村18鄰東里十一街83號,東昌村10-17鄰,http://maps.google.com.tw/maps?q=%E8%8A%B1%E8%93%AE%E7%B8%A3%E5%90%89%E5%AE%89%E9%84%89%E6%9D%B1%E6%98%8C%E6%9D%91%E6%9D%B1%E9%87%8C%E5%8D%81%E4%B8%80%E8%A1%97%EF%BC%98%EF%BC%93%E8%99%9F,23.9627687,121.5965396
吉安鄉,0184,化仁國小(2)二年甲班,花蓮縣吉安鄉東昌村18鄰東里十一街83號,"東昌村18-23,42鄰",http://maps.google.com.tw/maps?q=%E8%8A%B1%E8%93%AE%E7%B8%A3%E5%90%89%E5%AE%89%E9%84%89%E6%9D%B1%E6%98%8C%E6%9D%91%E6%9D%B1%E9%87%8C%E5%8D%81%E4%B8%80%E8%A1%97%EF%BC%98%EF%BC%93%E8%99%9F,23.9627687,121.5965396
吉安鄉,0185,化仁國小(3)風雨教室,花蓮縣吉安鄉東昌村18鄰東里十一街83號,東昌村24-31鄰,http://maps.google.com.tw/maps?q=%E8%8A%B1%E8%93%AE%E7%B8%A3%E5%90%89%E5%AE%89%E9%84%89%E6%9D%B1%E6%98%8C%E6%9D%91%E6%9D%B1%E9%87%8C%E5%8D%81%E4%B8%80%E8%A1%97%EF%BC%98%EF%BC%93%E8%99%9F,23.9627687,121.5965396
吉安鄉,0186,化仁國小(4)一年甲班,花蓮縣吉安鄉東昌村18鄰東里十一街83號,"東昌村32-41,43鄰",http://maps.google.com.tw/maps?q=%E8%8A%B1%E8%93%AE%E7%B8%A3%E5%90%89%E5%AE%89%E9%84%89%E6%9D%B1%E6%98%8C%E6%9D%91%E6%9D%B1%E9%87%8C%E5%8D%81%E4%B8%80%E8%A1%97%EF%BC%98%EF%BC%93%E8%99%9F,23.9627687,121.5965396
吉安鄉,0187,化仁國小(5)二年乙班,花蓮縣吉安鄉東昌村18鄰東里十一街83號,仁安村1-11鄰,http://maps.google.com.tw/maps?q=%E8%8A%B1%E8%93%AE%E7%B8%A3%E5%90%89%E5%AE%89%E9%84%89%E6%9D%B1%E6%98%8C%E6%9D%91%E6%9D%B1%E9%87%8C%E5%8D%81%E4%B8%80%E8%A1%97%EF%BC%98%EF%BC%93%E8%99%9F,23.9627687,121.5965396
吉安鄉,0188,聖南宮貴賓室,花蓮縣吉安鄉仁安村12鄰南海四街102號,仁安村12-24鄰,http://maps.google.com.tw/maps?q=%E8%8A%B1%E8%93%AE%E7%B8%A3%E5%90%89%E5%AE%89%E9%84%89%E4%BB%81%E5%AE%89%E6%9D%91%E5%8D%97%E6%B5%B7%E5%9B%9B%E8%A1%97%EF%BC%91%EF%BC%90%EF%BC%92%E8%99%9F,23.9512905,121.5950175
吉安鄉,0189,仁和社區活動中心,花蓮縣吉安鄉仁和村7鄰南海三街314號,"仁和村3-8,37-38鄰",http://maps.google.com.tw/maps?q=%E8%8A%B1%E8%93%AE%E7%B8%A3%E5%90%89%E5%AE%89%E9%84%89%E4%BB%81%E5%92%8C%E6%9D%91%E5%8D%97%E6%B5%B7%E4%B8%89%E8%A1%97%EF%BC%93%EF%BC%91%EF%BC%94%E8%99%9F,23.9565087,121.5877241
吉安鄉,0190,仁里萬善廟研習教室(1),花蓮縣吉安鄉仁和村1鄰中正路二段66號,"仁和村1-2,9-12鄰",http://maps.google.com.tw/maps?q=%E8%8A%B1%E8%93%AE%E7%B8%A3%E5%90%89%E5%AE%89%E9%84%89%E4%BB%81%E5%92%8C%E6%9D%91%E4%B8%AD%E6%AD%A3%E8%B7%AF%E4%BA%8C%E6%AE%B5%EF%BC%96%EF%BC%96%E8%99%9F,23.9634,121.587876
吉安鄉,0191,仁里萬善廟研習教室(2),花蓮縣吉安鄉仁和村1鄰中正路二段66號,"仁和村13-15,19-20鄰",http://maps.google.com.tw/maps?q=%E8%8A%B1%E8%93%AE%E7%B8%A3%E5%90%89%E5%AE%89%E9%84%89%E4%BB%81%E5%92%8C%E6%9D%91%E4%B8%AD%E6%AD%A3%E8%B7%AF%E4%BA%8C%E6%AE%B5%EF%BC%96%EF%BC%96%E8%99%9F,23.9634,121.587876
吉安鄉,0192,客家文化館第一展覽室,花蓮縣吉安鄉仁和村1鄰中正路二段60號,"仁和村16-18,31-36鄰",http://maps.google.com.tw/maps?q=%E8%8A%B1%E8%93%AE%E7%B8%A3%E5%90%89%E5%AE%89%E9%84%89%E4%BB%81%E5%92%8C%E6%9D%91%E4%B8%AD%E6%AD%A3%E8%B7%AF%E4%BA%8C%E6%AE%B5%EF%BC%96%EF%BC%90%E8%99%9F,23.9638783,121.5885493
吉安鄉,0193,仁和舊社區活動中心,花蓮縣吉安鄉仁和村26鄰南海十一街268巷11號,仁和村21-30鄰,http://maps.google.com.tw/maps?q=%E8%8A%B1%E8%93%AE%E7%B8%A3%E5%90%89%E5%AE%89%E9%84%89%E4%BB%81%E5%92%8C%E6%9D%91%E5%8D%97%E6%B5%B7%E5%8D%81%E4%B8%80%E8%A1%97%EF%BC%92%EF%BC%96%EF%BC%98%E5%B7%B7%EF%BC%91%EF%BC%91%E8%99%9F,23.9403193,121.5844163
吉安鄉,0194,仁里社區活動中心(1),花蓮縣吉安鄉仁里村10鄰仁里五街1號,"仁里村5-13,29鄰",http://maps.google.com.tw/maps?q=%E8%8A%B1%E8%93%AE%E7%B8%A3%E5%90%89%E5%AE%89%E9%84%89%E4%BB%81%E9%87%8C%E6%9D%91%E4%BB%81%E9%87%8C%E4%BA%94%E8%A1%97%EF%BC%91%E8%99%9F,23.9683836,121.5924099
吉安鄉,0195,仁里社區活動中心(2),花蓮縣吉安鄉仁里村10鄰仁里五街1號,"仁里村21-23,26-27,41-42鄰",http://maps.google.com.tw/maps?q=%E8%8A%B1%E8%93%AE%E7%B8%A3%E5%90%89%E5%AE%89%E9%84%89%E4%BB%81%E9%87%8C%E6%9D%91%E4%BB%81%E9%87%8C%E4%BA%94%E8%A1%97%EF%BC%91%E8%99%9F,23.9683836,121.5924099
吉安鄉,0196,化仁國中多功能教室,花蓮縣吉安鄉東昌村3鄰東海十街3號,"仁里村1-4,14-15鄰",http://maps.google.com.tw/maps?q=%E8%8A%B1%E8%93%AE%E7%B8%A3%E5%90%89%E5%AE%89%E9%84%89%E6%9D%B1%E6%98%8C%E6%9D%91%E6%9D%B1%E6%B5%B7%E5%8D%81%E8%A1%97%EF%BC%93%E8%99%9F,23.9652621,121.5931913
吉安鄉,0197,化仁國中朝陽館(1),花蓮縣吉安鄉東昌村3鄰東海十街3號,"仁里村16,24-25,28,30-31,43鄰",http://maps.google.com.tw/maps?q=%E8%8A%B1%E8%93%AE%E7%B8%A3%E5%90%89%E5%AE%89%E9%84%89%E6%9D%B1%E6%98%8C%E6%9D%91%E6%9D%B1%E6%B5%B7%E5%8D%81%E8%A1%97%EF%BC%93%E8%99%9F,23.9652621,121.5931913
吉安鄉,0198,化仁國中朝陽館(2),花蓮縣吉安鄉東昌村3鄰東海十街3號,仁里村32-38鄰,http://maps.google.com.tw/maps?q=%E8%8A%B1%E8%93%AE%E7%B8%A3%E5%90%89%E5%AE%89%E9%84%89%E6%9D%B1%E6%98%8C%E6%9D%91%E6%9D%B1%E6%B5%B7%E5%8D%81%E8%A1%97%EF%BC%93%E8%99%9F,23.9652621,121.5931913
吉安鄉,0199,仁愛活動中心,花蓮縣吉安鄉仁里村17鄰仁愛新村21號,"仁里村17-20,39-40鄰",http://maps.google.com.tw/maps?q=%E8%8A%B1%E8%93%AE%E7%B8%A3%E5%90%89%E5%AE%89%E9%84%89%E4%BB%81%E9%87%8C%E6%9D%91%E4%BB%81%E6%84%9B%E6%96%B0%E6%9D%91%EF%BC%92%EF%BC%91%E8%99%9F,23.9660707,121.5869443
吉安鄉,0200,稻香國小(1)二年1班,花蓮縣吉安鄉稻香村14鄰稻香路99號,稻香村1-10鄰,http://maps.google.com.tw/maps?q=%E8%8A%B1%E8%93%AE%E7%B8%A3%E5%90%89%E5%AE%89%E9%84%89%E7%A8%BB%E9%A6%99%E6%9D%91%E7%A8%BB%E9%A6%99%E8%B7%AF%EF%BC%99%EF%BC%99%E8%99%9F,23.9626956,121.5687641
吉安鄉,0201,稻香國小(2)二年2班,花蓮縣吉安鄉稻香村14鄰稻香路99號,稻香村11-20鄰,http://maps.google.com.tw/maps?q=%E8%8A%B1%E8%93%AE%E7%B8%A3%E5%90%89%E5%AE%89%E9%84%89%E7%A8%BB%E9%A6%99%E6%9D%91%E7%A8%BB%E9%A6%99%E8%B7%AF%EF%BC%99%EF%BC%99%E8%99%9F,23.9626956,121.5687641
吉安鄉,0202,稻香社區活動中心,花蓮縣吉安鄉稻香村24鄰廣豐路79號,稻香村21-31鄰,http://maps.google.com.tw/maps?q=%E8%8A%B1%E8%93%AE%E7%B8%A3%E5%90%89%E5%AE%89%E9%84%89%E7%A8%BB%E9%A6%99%E6%9D%91%E5%BB%A3%E8%B1%90%E8%B7%AF%EF%BC%97%EF%BC%99%E8%99%9F,23.9546868,121.5765873
吉安鄉,0203,永興社區活動中心(1),花蓮縣吉安鄉永興村4鄰永興七街86號,永興村1-7鄰,http://maps.google.com.tw/maps?q=%E8%8A%B1%E8%93%AE%E7%B8%A3%E5%90%89%E5%AE%89%E9%84%89%E6%B0%B8%E8%88%88%E6%9D%91%E6%B0%B8%E8%88%88%E4%B8%83%E8%A1%97%EF%BC%98%EF%BC%96%E8%99%9F,23.9551655,121.5683158
吉安鄉,0204,永興社區活動中心(2),花蓮縣吉安鄉永興村4鄰永興七街86號,"永興村8-14,20鄰",http://maps.google.com.tw/maps?q=%E8%8A%B1%E8%93%AE%E7%B8%A3%E5%90%89%E5%AE%89%E9%84%89%E6%B0%B8%E8%88%88%E6%9D%91%E6%B0%B8%E8%88%88%E4%B8%83%E8%A1%97%EF%BC%98%EF%BC%96%E8%99%9F,23.9551655,121.5683158
吉安鄉,0205,全民住宅管理中心,花蓮縣吉安鄉永興村15鄰全民街25號,永興村15-19鄰,http://maps.google.com.tw/maps?q=%E8%8A%B1%E8%93%AE%E7%B8%A3%E5%90%89%E5%AE%89%E9%84%89%E6%B0%B8%E8%88%88%E6%9D%91%E5%85%A8%E6%B0%91%E8%A1%97%EF%BC%92%EF%BC%95%E8%99%9F,23.9382165,121.5715157
吉安鄉,0206,光華社區活動中心,花蓮縣吉安鄉光華村9鄰光華二街200號,光華村1-9鄰,http://maps.google.com.tw/maps?q=%E8%8A%B1%E8%93%AE%E7%B8%A3%E5%90%89%E5%AE%89%E9%84%89%E5%85%89%E8%8F%AF%E6%9D%91%E5%85%89%E8%8F%AF%E4%BA%8C%E8%A1%97%EF%BC%92%EF%BC%90%EF%BC%90%E8%99%9F,23.9340303,121.5785433
吉安鄉,0207,光華國小三年甲班,花蓮縣吉安鄉光華村9鄰光華二街180號,光華村10-18鄰,http://maps.google.com.tw/maps?q=%E8%8A%B1%E8%93%AE%E7%B8%A3%E5%90%89%E5%AE%89%E9%84%89%E5%85%89%E8%8F%AF%E6%9D%91%E5%85%89%E8%8F%AF%E4%BA%8C%E8%A1%97%EF%BC%91%EF%BC%98%EF%BC%90%E8%99%9F,23.9355745,121.5785301
壽豐鄉,0208,溪口社區活動中心,花蓮縣壽豐鄉溪口村9鄰溪口路103巷3號,溪口村,http://maps.google.com.tw/maps?q=%E8%8A%B1%E8%93%AE%E7%B8%A3%E5%A3%BD%E8%B1%90%E9%84%89%E6%BA%AA%E5%8F%A3%E6%9D%91%E6%BA%AA%E5%8F%A3%E8%B7%AF%EF%BC%91%EF%BC%90%EF%BC%93%E5%B7%B7%EF%BC%93%E8%99%9F,23.819808,121.4739708
壽豐鄉,0209,樹湖社區活動中心(新),花蓮縣壽豐鄉樹湖村4鄰大樹脚93之3號,樹湖村,http://maps.google.com.tw/maps?q=%E8%8A%B1%E8%93%AE%E7%B8%A3%E5%A3%BD%E8%B1%90%E9%84%89%E6%A8%B9%E6%B9%96%E6%9D%91%E5%A4%A7%E6%A8%B9%E8%84%9A%EF%BC%99%EF%BC%93%E4%B9%8B%EF%BC%93%E8%99%9F,23.8361365,121.4793283
壽豐鄉,0210,豐山社區活動中心,花蓮縣壽豐鄉豐山村24鄰中山路127巷15號,豐山村1-13鄰,http://maps.google.com.tw/maps?q=%E8%8A%B1%E8%93%AE%E7%B8%A3%E5%A3%BD%E8%B1%90%E9%84%89%E8%B1%90%E5%B1%B1%E6%9D%91%E4%B8%AD%E5%B1%B1%E8%B7%AF%EF%BC%91%EF%BC%92%EF%BC%97%E5%B7%B7%EF%BC%91%EF%BC%95%E8%99%9F,23.8479038,121.49375
壽豐鄉,0211,豐山國小學生活動中心,花蓮縣壽豐鄉豐山村25鄰中山路41號,豐山村14-29鄰,http://maps.google.com.tw/maps?q=%E8%8A%B1%E8%93%AE%E7%B8%A3%E5%A3%BD%E8%B1%90%E9%84%89%E8%B1%90%E5%B1%B1%E6%9D%91%E4%B8%AD%E5%B1%B1%E8%B7%AF%EF%BC%94%EF%BC%91%E8%99%9F,23.8469113,121.4916134
壽豐鄉,0212,壽豐國中(一年禮班教室),花蓮縣壽豐鄉豐裡村9鄰中山路132號,"豐裡村5,8-9,12鄰",http://maps.google.com.tw/maps?q=%E8%8A%B1%E8%93%AE%E7%B8%A3%E5%A3%BD%E8%B1%90%E9%84%89%E8%B1%90%E8%A3%A1%E6%9D%91%E4%B8%AD%E5%B1%B1%E8%B7%AF%EF%BC%91%EF%BC%93%EF%BC%92%E8%99%9F,23.8452882,121.5008687
壽豐鄉,0213,豐裡社區活動中心,花蓮縣壽豐鄉豐裡村4鄰中山路257號,"豐裡村1-4,6-7,10-11鄰",http://maps.google.com.tw/maps?q=%E8%8A%B1%E8%93%AE%E7%B8%A3%E5%A3%BD%E8%B1%90%E9%84%89%E8%B1%90%E8%A3%A1%E6%9D%91%E4%B8%AD%E5%B1%B1%E8%B7%AF%EF%BC%92%EF%BC%95%EF%BC%97%E8%99%9F,23.842914,121.506026
壽豐鄉,0214,豐坪社區活動中心,花蓮縣壽豐鄉豐坪村7鄰豐坪路二段73號,豐坪村,http://maps.google.com.tw/maps?q=%E8%8A%B1%E8%93%AE%E7%B8%A3%E5%A3%BD%E8%B1%90%E9%84%89%E8%B1%90%E5%9D%AA%E6%9D%91%E8%B1%90%E5%9D%AA%E8%B7%AF%E4%BA%8C%E6%AE%B5%EF%BC%97%EF%BC%93%E8%99%9F,23.8350187,121.5095119
壽豐鄉,0215,原住民多功能活動中心,花蓮縣壽豐鄉壽豐村10鄰公園路28巷3號,壽豐村1-10鄰,http://maps.google.com.tw/maps?q=%E8%8A%B1%E8%93%AE%E7%B8%A3%E5%A3%BD%E8%B1%90%E9%84%89%E5%A3%BD%E8%B1%90%E6%9D%91%E5%85%AC%E5%9C%92%E8%B7%AF%EF%BC%92%EF%BC%98%E5%B7%B7%EF%BC%93%E8%99%9F,23.8692284,121.5067506
壽豐鄉,0216,壽豐鄉立文化中心,花蓮縣壽豐鄉壽豐村10鄰公園路30號,壽豐村11-22鄰,http://maps.google.com.tw/maps?q=%E8%8A%B1%E8%93%AE%E7%B8%A3%E5%A3%BD%E8%B1%90%E9%84%89%E5%A3%BD%E8%B1%90%E6%9D%91%E5%85%AC%E5%9C%92%E8%B7%AF%EF%BC%93%EF%BC%90%E8%99%9F,23.8692882,121.5066312
壽豐鄉,0217,共和社區活動中心,花蓮縣壽豐鄉共和村6鄰農墾二街39號,共和村,http://maps.google.com.tw/maps?q=%E8%8A%B1%E8%93%AE%E7%B8%A3%E5%A3%BD%E8%B1%90%E9%84%89%E5%85%B1%E5%92%8C%E6%9D%91%E8%BE%B2%E5%A2%BE%E4%BA%8C%E8%A1%97%EF%BC%93%EF%BC%99%E8%99%9F,23.8675349,121.5121317
壽豐鄉,0218,光榮社區活動中心,花蓮縣壽豐鄉光榮村2鄰光榮一街26之1號,光榮村,http://maps.google.com.tw/maps?q=%E8%8A%B1%E8%93%AE%E7%B8%A3%E5%A3%BD%E8%B1%90%E9%84%89%E5%85%89%E6%A6%AE%E6%9D%91%E5%85%89%E6%A6%AE%E4%B8%80%E8%A1%97%EF%BC%92%EF%BC%96%E4%B9%8B%EF%BC%91%E8%99%9F,23.8817422,121.5142522
壽豐鄉,0219,池南村民活動中心,花蓮縣壽豐鄉池南村3鄰池南路二段17號,池南村,http://maps.google.com.tw/maps?q=%E8%8A%B1%E8%93%AE%E7%B8%A3%E5%A3%BD%E8%B1%90%E9%84%89%E6%B1%A0%E5%8D%97%E6%9D%91%E6%B1%A0%E5%8D%97%E8%B7%AF%E4%BA%8C%E6%AE%B5%EF%BC%91%EF%BC%97%E8%99%9F,23.9207626,121.5061999
壽豐鄉,0220,平和社區活動中心,花蓮縣壽豐鄉平和村9鄰平和路32號,平和村1-19鄰,http://maps.google.com.tw/maps?q=%E8%8A%B1%E8%93%AE%E7%B8%A3%E5%A3%BD%E8%B1%90%E9%84%89%E5%B9%B3%E5%92%8C%E6%9D%91%E5%B9%B3%E5%92%8C%E8%B7%AF%EF%BC%93%EF%BC%92%E8%99%9F,23.8837416,121.5196985
壽豐鄉,0221,吳全社區舊活動中心,花蓮縣壽豐鄉平和村23鄰吳全86號,平和村20-25鄰,http://maps.google.com.tw/maps?q=%E8%8A%B1%E8%93%AE%E7%B8%A3%E5%A3%BD%E8%B1%90%E9%84%89%E5%B9%B3%E5%92%8C%E6%9D%91%E5%90%B3%E5%85%A8%EF%BC%98%EF%BC%96%E8%99%9F,23.889628,121.5526139
壽豐鄉,0222,志學社區活動中心,花蓮縣壽豐鄉志學村5鄰中正路120巷13號,"志學村4-6,16,24-32鄰",http://maps.google.com.tw/maps?q=%E8%8A%B1%E8%93%AE%E7%B8%A3%E5%A3%BD%E8%B1%90%E9%84%89%E5%BF%97%E5%AD%B8%E6%9D%91%E4%B8%AD%E6%AD%A3%E8%B7%AF%EF%BC%91%EF%BC%92%EF%BC%90%E5%B7%B7%EF%BC%91%EF%BC%93%E8%99%9F,23.9053326,121.5322054
壽豐鄉,0223,志學老人文康中心,花蓮縣壽豐鄉志學村10鄰中山路三段66巷7號,"志學村1-3,7-12,15,21-23鄰",http://maps.google.com.tw/maps?q=%E8%8A%B1%E8%93%AE%E7%B8%A3%E5%A3%BD%E8%B1%90%E9%84%89%E5%BF%97%E5%AD%B8%E6%9D%91%E4%B8%AD%E5%B1%B1%E8%B7%AF%E4%B8%89%E6%AE%B5%EF%BC%96%EF%BC%96%E5%B7%B7%EF%BC%97%E8%99%9F,23.9086718,121.5314124
壽豐鄉,0224,忠孝新村托兒所,花蓮縣壽豐鄉志學村17鄰忠孝1號,"志學村13-14,17鄰",http://maps.google.com.tw/maps?q=%E8%8A%B1%E8%93%AE%E7%B8%A3%E5%A3%BD%E8%B1%90%E9%84%89%E5%BF%97%E5%AD%B8%E6%9D%91%E5%BF%A0%E5%AD%9D%EF%BC%91%E8%99%9F,23.9110614,121.5427093
壽豐鄉,0225,米棧社區活動中心(新),花蓮縣壽豐鄉米棧村5鄰米棧一段52號,米棧村,http://maps.google.com.tw/maps?q=%E8%8A%B1%E8%93%AE%E7%B8%A3%E5%A3%BD%E8%B1%90%E9%84%89%E7%B1%B3%E6%A3%A7%E6%9D%91%E7%B1%B3%E6%A3%A7%E4%B8%80%E6%AE%B5%EF%BC%95%EF%BC%92%E8%99%9F,23.799976,121.522849
壽豐鄉,0226,月眉國小(多功能教室),花蓮縣壽豐鄉月眉村8鄰月眉三段24號,月眉村,http://maps.google.com.tw/maps?q=%E8%8A%B1%E8%93%AE%E7%B8%A3%E5%A3%BD%E8%B1%90%E9%84%89%E6%9C%88%E7%9C%89%E6%9D%91%E6%9C%88%E7%9C%89%E4%B8%89%E6%AE%B5%EF%BC%92%EF%BC%94%E8%99%9F,23.870208,121.55411
壽豐鄉,0227,鹽寮村辦公處,花蓮縣壽豐鄉鹽寮村4鄰塩寮165號,鹽寮村,http://maps.google.com.tw/maps?q=%E8%8A%B1%E8%93%AE%E7%B8%A3%E5%A3%BD%E8%B1%90%E9%84%89%E9%B9%BD%E5%AF%AE%E6%9D%91%E5%A1%A9%E5%AF%AE%EF%BC%91%EF%BC%96%EF%BC%95%E8%99%9F,23.8687925,121.5883709
壽豐鄉,0228,水璉社區活動中心,花蓮縣壽豐鄉水璉村4鄰水璉二街21號,水璉村,http://maps.google.com.tw/maps?q=%E8%8A%B1%E8%93%AE%E7%B8%A3%E5%A3%BD%E8%B1%90%E9%84%89%E6%B0%B4%E7%92%89%E6%9D%91%E6%B0%B4%E7%92%89%E4%BA%8C%E8%A1%97%EF%BC%92%EF%BC%91%E8%99%9F,23.7823607,121.5645563
光復鄉,0244,大華社區活動中心,花蓮縣光復鄉大華村8鄰光復路24號,大華村,http://maps.google.com.tw/maps?q=%E8%8A%B1%E8%93%AE%E7%B8%A3%E5%85%89%E5%BE%A9%E9%84%89%E5%A4%A7%E8%8F%AF%E6%9D%91%E5%85%89%E5%BE%A9%E8%B7%AF%EF%BC%92%EF%BC%94%E8%99%9F,23.6686867,121.4241211
光復鄉,0245,大安社區活動中心,花蓮縣光復鄉大安村19鄰忠孝路23巷11號,大安村,http://maps.google.com.tw/maps?q=%E8%8A%B1%E8%93%AE%E7%B8%A3%E5%85%89%E5%BE%A9%E9%84%89%E5%A4%A7%E5%AE%89%E6%9D%91%E5%BF%A0%E5%AD%9D%E8%B7%AF%EF%BC%92%EF%BC%93%E5%B7%B7%EF%BC%91%EF%BC%91%E8%99%9F,23.6636474,121.4236894
光復鄉,0246,大馬太鞍社區活動中心,花蓮縣光復鄉大同村11鄰中山路三段84號,大平村,http://maps.google.com.tw/maps?q=%E8%8A%B1%E8%93%AE%E7%B8%A3%E5%85%89%E5%BE%A9%E9%84%89%E5%A4%A7%E5%90%8C%E6%9D%91%E4%B8%AD%E5%B1%B1%E8%B7%AF%E4%B8%89%E6%AE%B5%EF%BC%98%EF%BC%94%E8%99%9F,23.6713841,121.4264789
光復鄉,0247,光復國中學生活動中心兼體育館,花蓮縣光復鄉大馬村7鄰林森路200號,大馬村,http://maps.google.com.tw/maps?q=%E8%8A%B1%E8%93%AE%E7%B8%A3%E5%85%89%E5%BE%A9%E9%84%89%E5%A4%A7%E9%A6%AC%E6%9D%91%E6%9E%97%E6%A3%AE%E8%B7%AF%EF%BC%92%EF%BC%90%EF%BC%90%E8%99%9F,23.6707486,121.4252612
光復鄉,0248,大同社區活動中心,花蓮縣光復鄉大同村4鄰中正路一段370號,大同村,http://maps.google.com.tw/maps?q=%E8%8A%B1%E8%93%AE%E7%B8%A3%E5%85%89%E5%BE%A9%E9%84%89%E5%A4%A7%E5%90%8C%E6%9D%91%E4%B8%AD%E6%AD%A3%E8%B7%AF%E4%B8%80%E6%AE%B5%EF%BC%93%EF%BC%97%EF%BC%90%E8%99%9F,23.6632436,121.4309574
光復鄉,0249,太巴塱國小東邊教室(餐廳),花蓮縣光復鄉北富村1鄰中正路二段23號,東富村1-16鄰,http://maps.google.com.tw/maps?q=%E8%8A%B1%E8%93%AE%E7%B8%A3%E5%85%89%E5%BE%A9%E9%84%89%E5%8C%97%E5%AF%8C%E6%9D%91%E4%B8%AD%E6%AD%A3%E8%B7%AF%E4%BA%8C%E6%AE%B5%EF%BC%92%EF%BC%93%E8%99%9F,23.6601661,121.447939
光復鄉,0250,加里洞社區活動中心,花蓮縣光復鄉東富村20鄰東富路92巷2之1號,東富村17-21鄰,http://maps.google.com.tw/maps?q=%E8%8A%B1%E8%93%AE%E7%B8%A3%E5%85%89%E5%BE%A9%E9%84%89%E6%9D%B1%E5%AF%8C%E6%9D%91%E6%9D%B1%E5%AF%8C%E8%B7%AF%EF%BC%99%EF%BC%92%E5%B7%B7%EF%BC%92%E4%B9%8B%EF%BC%91%E8%99%9F,23.6950103,121.4878137
光復鄉,0251,西南社區活動中心,花蓮縣光復鄉西富村1鄰中正路二段72巷5號,西富村1-8鄰,http://maps.google.com.tw/maps?q=%E8%8A%B1%E8%93%AE%E7%B8%A3%E5%85%89%E5%BE%A9%E9%84%89%E8%A5%BF%E5%AF%8C%E6%9D%91%E4%B8%AD%E6%AD%A3%E8%B7%AF%E4%BA%8C%E6%AE%B5%EF%BC%97%EF%BC%92%E5%B7%B7%EF%BC%95%E8%99%9F,23.6589176,121.4498736
光復鄉,0252,西富國小桌球教室,花蓮縣光復鄉西富村13鄰民有街51巷3號,西富村9-18鄰,http://maps.google.com.tw/maps?q=%E8%8A%B1%E8%93%AE%E7%B8%A3%E5%85%89%E5%BE%A9%E9%84%89%E8%A5%BF%E5%AF%8C%E6%9D%91%E6%B0%91%E6%9C%89%E8%A1%97%EF%BC%95%EF%BC%91%E5%B7%B7%EF%BC%93%E8%99%9F,23.6366536,121.4297241
光復鄉,0253,砂荖社區活動中心,花蓮縣光復鄉南富村10鄰建國路二段39號,南富村,http://maps.google.com.tw/maps?q=%E8%8A%B1%E8%93%AE%E7%B8%A3%E5%85%89%E5%BE%A9%E9%84%89%E5%8D%97%E5%AF%8C%E6%9D%91%E5%BB%BA%E5%9C%8B%E8%B7%AF%E4%BA%8C%E6%AE%B5%EF%BC%93%EF%BC%99%E8%99%9F,23.6418681,121.4511915
光復鄉,0254,太巴塱國小活動中心,花蓮縣光復鄉北富村1鄰中正路二段23號,北富村,http://maps.google.com.tw/maps?q=%E8%8A%B1%E8%93%AE%E7%B8%A3%E5%85%89%E5%BE%A9%E9%84%89%E5%8C%97%E5%AF%8C%E6%9D%91%E4%B8%AD%E6%AD%A3%E8%B7%AF%E4%BA%8C%E6%AE%B5%EF%BC%92%EF%BC%93%E8%99%9F,23.6601661,121.447939
光復鄉,0255,大進社區活動中心,花蓮縣光復鄉大進村1鄰糖廠街2號,大進村,http://maps.google.com.tw/maps?q=%E8%8A%B1%E8%93%AE%E7%B8%A3%E5%85%89%E5%BE%A9%E9%84%89%E5%A4%A7%E9%80%B2%E6%9D%91%E7%B3%96%E5%BB%A0%E8%A1%97%EF%BC%92%E8%99%9F,23.6548897,121.419149
光復鄉,0256,大全社區活動中心,花蓮縣光復鄉大全村5鄰中山路一段216巷9號,大全村1-11鄰,http://maps.google.com.tw/maps?q=%E8%8A%B1%E8%93%AE%E7%B8%A3%E5%85%89%E5%BE%A9%E9%84%89%E5%A4%A7%E5%85%A8%E6%9D%91%E4%B8%AD%E5%B1%B1%E8%B7%AF%E4%B8%80%E6%AE%B5%EF%BC%92%EF%BC%91%EF%BC%96%E5%B7%B7%EF%BC%99%E8%99%9F,23.6514112,121.4178635
光復鄉,0257,仁壽宮,花蓮縣光復鄉大全村15鄰建國路一段27號,大全村12-15鄰,http://maps.google.com.tw/maps?q=%E8%8A%B1%E8%93%AE%E7%B8%A3%E5%85%89%E5%BE%A9%E9%84%89%E5%A4%A7%E5%85%A8%E6%9D%91%E5%BB%BA%E5%9C%8B%E8%B7%AF%E4%B8%80%E6%AE%B5%EF%BC%92%EF%BC%97%E8%99%9F,23.6157606,121.4281843
光復鄉,0258,大興國小圖書室,花蓮縣光復鄉大興村4鄰民權街17號,大興村,http://maps.google.com.tw/maps?q=%E8%8A%B1%E8%93%AE%E7%B8%A3%E5%85%89%E5%BE%A9%E9%84%89%E5%A4%A7%E8%88%88%E6%9D%91%E6%B0%91%E6%AC%8A%E8%A1%97%EF%BC%91%EF%BC%97%E8%99%9F,23.6320721,121.3982919
光復鄉,0259,富安宮餐廳,花蓮縣光復鄉大富村2鄰明德路58巷1號,大富村,http://maps.google.com.tw/maps?q=%E8%8A%B1%E8%93%AE%E7%B8%A3%E5%85%89%E5%BE%A9%E9%84%89%E5%A4%A7%E5%AF%8C%E6%9D%91%E6%98%8E%E5%BE%B7%E8%B7%AF%EF%BC%95%EF%BC%98%E5%B7%B7%EF%BC%91%E8%99%9F,23.6055405,121.3910935
光復鄉,0260,大豐社區活動中心,花蓮縣光復鄉大豐村3鄰尚德街31號,大豐村,http://maps.google.com.tw/maps?q=%E8%8A%B1%E8%93%AE%E7%B8%A3%E5%85%89%E5%BE%A9%E9%84%89%E5%A4%A7%E8%B1%90%E6%9D%91%E5%B0%9A%E5%BE%B7%E8%A1%97%EF%BC%93%EF%BC%91%E8%99%9F,23.6039288,121.3875877
豐濱鄉,0261,靜浦活動中心,花蓮縣豐濱鄉靜浦村7鄰靜浦247號,靜浦村,http://maps.google.com.tw/maps?q=%E8%8A%B1%E8%93%AE%E7%B8%A3%E8%B1%90%E6%BF%B1%E9%84%89%E9%9D%9C%E6%B5%A6%E6%9D%91%E9%9D%9C%E6%B5%A6%EF%BC%92%EF%BC%94%EF%BC%97%E8%99%9F,23.459475,121.498358
豐濱鄉,0262,港口活動中心,花蓮縣豐濱鄉港口村7鄰港口118號,港口村,http://maps.google.com.tw/maps?q=%E8%8A%B1%E8%93%AE%E7%B8%A3%E8%B1%90%E6%BF%B1%E9%84%89%E6%B8%AF%E5%8F%A3%E6%9D%91%E6%B8%AF%E5%8F%A3%EF%BC%91%EF%BC%91%EF%BC%98%E8%99%9F,23.476419,121.502856
豐濱鄉,0263,豐濱國小活動中心,花蓮縣豐濱鄉豐濱村6鄰民族街5號,豐濱村3-12鄰,http://maps.google.com.tw/maps?q=%E8%8A%B1%E8%93%AE%E7%B8%A3%E8%B1%90%E6%BF%B1%E9%84%89%E8%B1%90%E6%BF%B1%E6%9D%91%E6%B0%91%E6%97%8F%E8%A1%97%EF%BC%95%E8%99%9F,23.5975123,121.520752
豐濱鄉,0264,豐濱國中體育館,花蓮縣豐濱鄉豐濱村31鄰光豐路26號,"豐濱村1,2,13-20,31鄰",http://maps.google.com.tw/maps?q=%E8%8A%B1%E8%93%AE%E7%B8%A3%E8%B1%90%E6%BF%B1%E9%84%89%E8%B1%90%E6%BF%B1%E6%9D%91%E5%85%89%E8%B1%90%E8%B7%AF%EF%BC%92%EF%BC%96%E8%99%9F,23.60075,121.5214776
豐濱鄉,0265,豐富文化健康站,花蓮縣豐濱鄉豐濱村25鄰豐富71號,豐濱村21-30鄰,http://maps.google.com.tw/maps?q=%E8%8A%B1%E8%93%AE%E7%B8%A3%E8%B1%90%E6%BF%B1%E9%84%89%E8%B1%90%E6%BF%B1%E6%9D%91%E8%B1%90%E5%AF%8C%EF%BC%97%EF%BC%91%E8%99%9F,23.6060909,121.5095908
豐濱鄉,0266,新社社區活動中心,花蓮縣豐濱鄉新社村7鄰新社145號,新社村,http://maps.google.com.tw/maps?q=%E8%8A%B1%E8%93%AE%E7%B8%A3%E8%B1%90%E6%BF%B1%E9%84%89%E6%96%B0%E7%A4%BE%E6%9D%91%E6%96%B0%E7%A4%BE%EF%BC%91%EF%BC%94%EF%BC%95%E8%99%9F,23.653338,121.536929
豐濱鄉,0267,磯崎活動中心,花蓮縣豐濱鄉磯崎村5鄰磯崎71號,磯崎村,http://maps.google.com.tw/maps?q=%E8%8A%B1%E8%93%AE%E7%B8%A3%E8%B1%90%E6%BF%B1%E9%84%89%E7%A3%AF%E5%B4%8E%E6%9D%91%E7%A3%AF%E5%B4%8E%EF%BC%97%EF%BC%91%E8%99%9F,23.707453,121.547643
瑞穗鄉,0275,瑞穗鄉老人文康活動中心,花蓮縣瑞穗鄉瑞穗村14鄰民生街63巷38號,瑞穗村1-13鄰,http://maps.google.com.tw/maps?q=%E8%8A%B1%E8%93%AE%E7%B8%A3%E7%91%9E%E7%A9%97%E9%84%89%E7%91%9E%E7%A9%97%E6%9D%91%E6%B0%91%E7%94%9F%E8%A1%97%EF%BC%96%EF%BC%93%E5%B7%B7%EF%BC%93%EF%BC%98%E8%99%9F,23.4987183,121.378654
瑞穗鄉,0276,瑞穗社區活動中心,花蓮縣瑞穗鄉瑞穗村14鄰民生街41號,瑞穗村14-21鄰,http://maps.google.com.tw/maps?q=%E8%8A%B1%E8%93%AE%E7%B8%A3%E7%91%9E%E7%A9%97%E9%84%89%E7%91%9E%E7%A9%97%E6%9D%91%E6%B0%91%E7%94%9F%E8%A1%97%EF%BC%94%EF%BC%91%E8%99%9F,23.4997383,121.3787495
瑞穗鄉,0277,瑞美社區活動中心,花蓮縣瑞穗鄉瑞美村13鄰中山路二段387號,瑞美村1-10鄰,http://maps.google.com.tw/maps?q=%E8%8A%B1%E8%93%AE%E7%B8%A3%E7%91%9E%E7%A9%97%E9%84%89%E7%91%9E%E7%BE%8E%E6%9D%91%E4%B8%AD%E5%B1%B1%E8%B7%AF%E4%BA%8C%E6%AE%B5%EF%BC%93%EF%BC%98%EF%BC%97%E8%99%9F,23.4936344,121.3911567
瑞穗鄉,0278,瑞美國小風雨教室,花蓮縣瑞穗鄉瑞美村13鄰中山路二段389號,瑞美村11-20鄰,http://maps.google.com.tw/maps?q=%E8%8A%B1%E8%93%AE%E7%B8%A3%E7%91%9E%E7%A9%97%E9%84%89%E7%91%9E%E7%BE%8E%E6%9D%91%E4%B8%AD%E5%B1%B1%E8%B7%AF%E4%BA%8C%E6%AE%B5%EF%BC%93%EF%BC%98%EF%BC%99%E8%99%9F,23.4928908,121.391504
瑞穗鄉,0279,瑞良社區活動中心,花蓮縣瑞穗鄉瑞良村10鄰信義路3號,瑞良村,http://maps.google.com.tw/maps?q=%E8%8A%B1%E8%93%AE%E7%B8%A3%E7%91%9E%E7%A9%97%E9%84%89%E7%91%9E%E8%89%AF%E6%9D%91%E4%BF%A1%E7%BE%A9%E8%B7%AF%EF%BC%93%E8%99%9F,23.4924392,121.3940199
瑞穗鄉,0280,瑞祥社區活動中心,花蓮縣瑞穗鄉瑞祥村4鄰祥北路二段127號,瑞祥村,http://maps.google.com.tw/maps?q=%E8%8A%B1%E8%93%AE%E7%B8%A3%E7%91%9E%E7%A9%97%E9%84%89%E7%91%9E%E7%A5%A5%E6%9D%91%E7%A5%A5%E5%8C%97%E8%B7%AF%E4%BA%8C%E6%AE%B5%EF%BC%91%EF%BC%92%EF%BC%97%E8%99%9F,23.4998857,121.3587795
瑞穗鄉,0281,瑞北社區活動中心,花蓮縣瑞穗鄉瑞北村4鄰祥北路一段54之1號,瑞北村,http://maps.google.com.tw/maps?q=%E8%8A%B1%E8%93%AE%E7%B8%A3%E7%91%9E%E7%A9%97%E9%84%89%E7%91%9E%E5%8C%97%E6%9D%91%E7%A5%A5%E5%8C%97%E8%B7%AF%E4%B8%80%E6%AE%B5%EF%BC%95%EF%BC%94%E4%B9%8B%EF%BC%91%E8%99%9F,23.5265434,121.3767365
瑞穗鄉,0282,掃叭頂社區活動中心,花蓮縣瑞穗鄉舞鶴村14鄰中正南路二段278號,舞鶴村,http://maps.google.com.tw/maps?q=%E8%8A%B1%E8%93%AE%E7%B8%A3%E7%91%9E%E7%A9%97%E9%84%89%E8%88%9E%E9%B6%B4%E6%9D%91%E4%B8%AD%E6%AD%A3%E5%8D%97%E8%B7%AF%E4%BA%8C%E6%AE%B5%EF%BC%92%EF%BC%97%EF%BC%98%E8%99%9F,23.4523455,121.3532919
瑞穗鄉,0283,鶴岡社區活動中心,花蓮縣瑞穗鄉鶴岡村14鄰興鶴路一段85之6號,鶴岡村,http://maps.google.com.tw/maps?q=%E8%8A%B1%E8%93%AE%E7%B8%A3%E7%91%9E%E7%A9%97%E9%84%89%E9%B6%B4%E5%B2%A1%E6%9D%91%E8%88%88%E9%B6%B4%E8%B7%AF%E4%B8%80%E6%AE%B5%EF%BC%98%EF%BC%95%E4%B9%8B%EF%BC%96%E8%99%9F,23.5106158,121.3914006
瑞穗鄉,0284,奇美社區活動中心,花蓮縣瑞穗鄉奇美村3鄰奇美16號,奇美村,http://maps.google.com.tw/maps?q=%E8%8A%B1%E8%93%AE%E7%B8%A3%E7%91%9E%E7%A9%97%E9%84%89%E5%A5%87%E7%BE%8E%E6%9D%91%E5%A5%87%E7%BE%8E%EF%BC%91%EF%BC%96%E8%99%9F,23.4613537,121.499037
瑞穗鄉,0285,富源社區活動中心,花蓮縣瑞穗鄉富源村10鄰學士路31號,富源村,http://maps.google.com.tw/maps?q=%E8%8A%B1%E8%93%AE%E7%B8%A3%E7%91%9E%E7%A9%97%E9%84%89%E5%AF%8C%E6%BA%90%E6%9D%91%E5%AD%B8%E5%A3%AB%E8%B7%AF%EF%BC%93%EF%BC%91%E8%99%9F,23.5784457,121.3758253
瑞穗鄉,0286,富民社區活動中心,花蓮縣瑞穗鄉富民村2鄰中正路一段208之1號,富民村,http://maps.google.com.tw/maps?q=%E8%8A%B1%E8%93%AE%E7%B8%A3%E7%91%9E%E7%A9%97%E9%84%89%E5%AF%8C%E6%B0%91%E6%9D%91%E4%B8%AD%E6%AD%A3%E8%B7%AF%E4%B8%80%E6%AE%B5%EF%BC%92%EF%BC%90%EF%BC%98%E4%B9%8B%EF%BC%91%E8%99%9F,23.574206,121.374099
瑞穗鄉,0287,富興社區活動中心,花蓮縣瑞穗鄉富興村13鄰東興路123之1號,富興村,http://maps.google.com.tw/maps?q=%E8%8A%B1%E8%93%AE%E7%B8%A3%E7%91%9E%E7%A9%97%E9%84%89%E5%AF%8C%E8%88%88%E6%9D%91%E6%9D%B1%E8%88%88%E8%B7%AF%EF%BC%91%EF%BC%92%EF%BC%93%E4%B9%8B%EF%BC%91%E8%99%9F,23.5697334,121.4056153
富里鄉,0317,吳江社區活動中心,花蓮縣富里鄉吳江村6鄰吳江65之3號,吳江村,http://maps.google.com.tw/maps?q=%E8%8A%B1%E8%93%AE%E7%B8%A3%E5%AF%8C%E9%87%8C%E9%84%89%E5%90%B3%E6%B1%9F%E6%9D%91%E5%90%B3%E6%B1%9F%EF%BC%96%EF%BC%95%E4%B9%8B%EF%BC%93%E8%99%9F,23.26105,121.336749
富里鄉,0318,東里活動中心,花蓮縣富里鄉東里村3鄰大莊路141號,東里村,http://maps.google.com.tw/maps?q=%E8%8A%B1%E8%93%AE%E7%B8%A3%E5%AF%8C%E9%87%8C%E9%84%89%E6%9D%B1%E9%87%8C%E6%9D%91%E5%A4%A7%E8%8E%8A%E8%B7%AF%EF%BC%91%EF%BC%94%EF%BC%91%E8%99%9F,23.2698309,121.3058871
富里鄉,0319,萬寧社區活動中心,花蓮縣富里鄉萬寧村7鄰鎮寧100號,萬寧村,http://maps.google.com.tw/maps?q=%E8%8A%B1%E8%93%AE%E7%B8%A3%E5%AF%8C%E9%87%8C%E9%84%89%E8%90%AC%E5%AF%A7%E6%9D%91%E9%8E%AE%E5%AF%A7%EF%BC%91%EF%BC%90%EF%BC%90%E8%99%9F,23.238678,121.3141291
富里鄉,0320,新興竹田聯合村辦公處,花蓮縣富里鄉竹田村1鄰東竹10號,新興村,http://maps.google.com.tw/maps?q=%E8%8A%B1%E8%93%AE%E7%B8%A3%E5%AF%8C%E9%87%8C%E9%84%89%E7%AB%B9%E7%94%B0%E6%9D%91%E6%9D%B1%E7%AB%B9%EF%BC%91%EF%BC%90%E8%99%9F,23.222035,121.284044
富里鄉,0321,東竹國小樂齡教室,花蓮縣富里鄉竹田村17鄰富田3號,竹田村,http://maps.google.com.tw/maps?q=%E8%8A%B1%E8%93%AE%E7%B8%A3%E5%AF%8C%E9%87%8C%E9%84%89%E7%AB%B9%E7%94%B0%E6%9D%91%E5%AF%8C%E7%94%B0%EF%BC%93%E8%99%9F,23.2146512,121.2794359
富里鄉,0322,羅山村客家產業交流中心,花蓮縣富里鄉羅山村9鄰東湖15之1號,羅山村,http://maps.google.com.tw/maps?q=%E8%8A%B1%E8%93%AE%E7%B8%A3%E5%AF%8C%E9%87%8C%E9%84%89%E7%BE%85%E5%B1%B1%E6%9D%91%E6%9D%B1%E6%B9%96%EF%BC%91%EF%BC%95%E4%B9%8B%EF%BC%91%E8%99%9F,23.1838646,121.2969674
富里鄉,0323,石牌社區活動中心,花蓮縣富里鄉石牌村8鄰富北51之2號,石牌村,http://maps.google.com.tw/maps?q=%E8%8A%B1%E8%93%AE%E7%B8%A3%E5%AF%8C%E9%87%8C%E9%84%89%E7%9F%B3%E7%89%8C%E6%9D%91%E5%AF%8C%E5%8C%97%EF%BC%95%EF%BC%91%E4%B9%8B%EF%BC%92%E8%99%9F,23.2251453,121.2798538
富里鄉,0324,明里社區活動中心,花蓮縣富里鄉明里村3鄰明里37號,明里村,http://maps.google.com.tw/maps?q=%E8%8A%B1%E8%93%AE%E7%B8%A3%E5%AF%8C%E9%87%8C%E9%84%89%E6%98%8E%E9%87%8C%E6%9D%91%E6%98%8E%E9%87%8C%EF%BC%93%EF%BC%97%E8%99%9F,23.2005495,121.252487
富里鄉,0325,富里鄉老人文康中心,花蓮縣富里鄉富里村33鄰中山路205號,富里村,http://maps.google.com.tw/maps?q=%E8%8A%B1%E8%93%AE%E7%B8%A3%E5%AF%8C%E9%87%8C%E9%84%89%E5%AF%8C%E9%87%8C%E6%9D%91%E4%B8%AD%E5%B1%B1%E8%B7%AF%EF%BC%92%EF%BC%90%EF%BC%95%E8%99%9F,23.1759054,121.2483291
富里鄉,0326,永豐社區活動中心,花蓮縣富里鄉永豐村10鄰永豐20之1號,永豐村,http://maps.google.com.tw/maps?q=%E8%8A%B1%E8%93%AE%E7%B8%A3%E5%AF%8C%E9%87%8C%E9%84%89%E6%B0%B8%E8%B1%90%E6%9D%91%E6%B0%B8%E8%B1%90%EF%BC%92%EF%BC%90%E4%B9%8B%EF%BC%91%E8%99%9F,23.1635144,121.2683591
富里鄉,0327,豐南社區活動中心,花蓮縣富里鄉豐南村7鄰新富12之3號,豐南村,http://maps.google.com.tw/maps?q=%E8%8A%B1%E8%93%AE%E7%B8%A3%E5%AF%8C%E9%87%8C%E9%84%89%E8%B1%90%E5%8D%97%E6%9D%91%E6%96%B0%E5%AF%8C%EF%BC%91%EF%BC%92%E4%B9%8B%EF%BC%93%E8%99%9F,23.1412473,121.2969674
富里鄉,0328,舊富南社區活動中心,花蓮縣富里鄉富南村7鄰富南80號,富南村,http://maps.google.com.tw/maps?q=%E8%8A%B1%E8%93%AE%E7%B8%A3%E5%AF%8C%E9%87%8C%E9%84%89%E5%AF%8C%E5%8D%97%E6%9D%91%E5%AF%8C%E5%8D%97%EF%BC%98%EF%BC%90%E8%99%9F,23.147223,121.2454674
富里鄉,0329,學田社區活動中心,花蓮縣富里鄉學田村2鄰復興路14之1號,學田村,http://maps.google.com.tw/maps?q=%E8%8A%B1%E8%93%AE%E7%B8%A3%E5%AF%8C%E9%87%8C%E9%84%89%E5%AD%B8%E7%94%B0%E6%9D%91%E5%BE%A9%E8%88%88%E8%B7%AF%EF%BC%91%EF%BC%94%E4%B9%8B%EF%BC%91%E8%99%9F,23.148156,121.228816
秀林鄉,0116,和平村社區活動中心,花蓮縣秀林鄉和平村3鄰和平108號,和平村1-8鄰,http://maps.google.com.tw/maps?q=%E8%8A%B1%E8%93%AE%E7%B8%A3%E7%A7%80%E6%9E%97%E9%84%89%E5%92%8C%E5%B9%B3%E6%9D%91%E5%92%8C%E5%B9%B3%EF%BC%91%EF%BC%90%EF%BC%98%E8%99%9F,24.3082602,121.7482706
秀林鄉,0117,和中社區活動中心,花蓮縣秀林鄉和平村9鄰和中1之1號,和平村9-16鄰,http://maps.google.com.tw/maps?q=%E8%8A%B1%E8%93%AE%E7%B8%A3%E7%A7%80%E6%9E%97%E9%84%89%E5%92%8C%E5%B9%B3%E6%9D%91%E5%92%8C%E4%B8%AD%EF%BC%91%E4%B9%8B%EF%BC%91%E8%99%9F,24.278675,121.7444643
秀林鄉,0118,秀林鄉崇德老人館,花蓮縣秀林鄉崇德村1鄰海濱70號,崇德村1-7鄰,http://maps.google.com.tw/maps?q=%E8%8A%B1%E8%93%AE%E7%B8%A3%E7%A7%80%E6%9E%97%E9%84%89%E5%B4%87%E5%BE%B7%E6%9D%91%E6%B5%B7%E6%BF%B1%EF%BC%97%EF%BC%90%E8%99%9F,24.2128474,121.6397184
秀林鄉,0119,崇德村社區活動中心,花蓮縣秀林鄉崇德村6鄰崇德85號,崇德村8-13鄰,http://maps.google.com.tw/maps?q=%E8%8A%B1%E8%93%AE%E7%B8%A3%E7%A7%80%E6%9E%97%E9%84%89%E5%B4%87%E5%BE%B7%E6%9D%91%E5%B4%87%E5%BE%B7%EF%BC%98%EF%BC%95%E8%99%9F,24.164149,121.65093
秀林鄉,0120,富世國小(薪傳館),花蓮縣秀林鄉富世村8鄰富世127號,富世村1-6鄰,http://maps.google.com.tw/maps?q=%E8%8A%B1%E8%93%AE%E7%B8%A3%E7%A7%80%E6%9E%97%E9%84%89%E5%AF%8C%E4%B8%96%E6%9D%91%E5%AF%8C%E4%B8%96%EF%BC%91%EF%BC%92%EF%BC%97%E8%99%9F,24.1938259,121.4913182
秀林鄉,0121,富世村社區活動中心,花蓮縣秀林鄉富世村6鄰富世97之5號,富世村7-12鄰,http://maps.google.com.tw/maps?q=%E8%8A%B1%E8%93%AE%E7%B8%A3%E7%A7%80%E6%9E%97%E9%84%89%E5%AF%8C%E4%B8%96%E6%9D%91%E5%AF%8C%E4%B8%96%EF%BC%99%EF%BC%97%E4%B9%8B%EF%BC%95%E8%99%9F,24.1938259,121.4913182
秀林鄉,0122,天祥青年活動中心,花蓮縣秀林鄉富世村13鄰天祥30號,富世村13-19鄰,http://maps.google.com.tw/maps?q=%E8%8A%B1%E8%93%AE%E7%B8%A3%E7%A7%80%E6%9E%97%E9%84%89%E5%AF%8C%E4%B8%96%E6%9D%91%E5%A4%A9%E7%A5%A5%EF%BC%93%EF%BC%90%E8%99%9F,24.1856987,121.4933277
秀林鄉,0123,民有社區活動中心,花蓮縣秀林鄉秀林村3鄰民有64號,秀林村1-3鄰,http://maps.google.com.tw/maps?q=%E8%8A%B1%E8%93%AE%E7%B8%A3%E7%A7%80%E6%9E%97%E9%84%89%E7%A7%80%E6%9E%97%E6%9D%91%E6%B0%91%E6%9C%89%EF%BC%96%EF%BC%94%E8%99%9F,24.1237672,121.5883709
秀林鄉,0124,秀林村社區活動中心,花蓮縣秀林鄉秀林村12鄰秀林75號,秀林村4-8鄰,http://maps.google.com.tw/maps?q=%E8%8A%B1%E8%93%AE%E7%B8%A3%E7%A7%80%E6%9E%97%E9%84%89%E7%A7%80%E6%9E%97%E6%9D%91%E7%A7%80%E6%9E%97%EF%BC%97%EF%BC%95%E8%99%9F,24.119621,121.623847
秀林鄉,0125,秀林國小(自然教室),花蓮縣秀林鄉秀林村12鄰秀林76號,秀林村9-14鄰,http://maps.google.com.tw/maps?q=%E8%8A%B1%E8%93%AE%E7%B8%A3%E7%A7%80%E6%9E%97%E9%84%89%E7%A7%80%E6%9E%97%E6%9D%91%E7%A7%80%E6%9E%97%EF%BC%97%EF%BC%96%E8%99%9F,24.119621,121.623847
秀林鄉,0126,景美多功能集會所(文健站),花蓮縣秀林鄉景美村6鄰加灣106號,景美村1-5鄰,http://maps.google.com.tw/maps?q=%E8%8A%B1%E8%93%AE%E7%B8%A3%E7%A7%80%E6%9E%97%E9%84%89%E6%99%AF%E7%BE%8E%E6%9D%91%E5%8A%A0%E7%81%A3%EF%BC%91%EF%BC%90%EF%BC%96%E8%99%9F,24.081777,121.611114
秀林鄉,0127,景美村加灣多功能集會所,花蓮縣秀林鄉景美村6鄰加灣117之11號,景美村6-9鄰,http://maps.google.com.tw/maps?q=%E8%8A%B1%E8%93%AE%E7%B8%A3%E7%A7%80%E6%9E%97%E9%84%89%E6%99%AF%E7%BE%8E%E6%9D%91%E5%8A%A0%E7%81%A3%EF%BC%91%EF%BC%91%EF%BC%97%E4%B9%8B%EF%BC%91%EF%BC%91%E8%99%9F,24.081777,121.611114
秀林鄉,0128,三棧活動中心,花蓮縣秀林鄉景美村15鄰三棧98之2號,景美村10-15鄰,http://maps.google.com.tw/maps?q=%E8%8A%B1%E8%93%AE%E7%B8%A3%E7%A7%80%E6%9E%97%E9%84%89%E6%99%AF%E7%BE%8E%E6%9D%91%E4%B8%89%E6%A3%A7%EF%BC%99%EF%BC%98%E4%B9%8B%EF%BC%92%E8%99%9F,24.104145,121.603686
秀林鄉,0129,佳民活動中心,花蓮縣秀林鄉佳民村3鄰佳民48之2號,佳民村1-4鄰,http://maps.google.com.tw/maps?q=%E8%8A%B1%E8%93%AE%E7%B8%A3%E7%A7%80%E6%9E%97%E9%84%89%E4%BD%B3%E6%B0%91%E6%9D%91%E4%BD%B3%E6%B0%91%EF%BC%94%EF%BC%98%E4%B9%8B%EF%BC%92%E8%99%9F,24.0560405,121.5961927
秀林鄉,0130,佳民國小(風雨教室),花蓮縣秀林鄉佳民村8鄰佳民119號,佳民村5-8鄰,http://maps.google.com.tw/maps?q=%E8%8A%B1%E8%93%AE%E7%B8%A3%E7%A7%80%E6%9E%97%E9%84%89%E4%BD%B3%E6%B0%91%E6%9D%91%E4%BD%B3%E6%B0%91%EF%BC%91%EF%BC%91%EF%BC%99%E8%99%9F,24.0540531,121.599464
秀林鄉,0131,水源社區活動中心,花蓮縣秀林鄉水源村9鄰水源98號,水源村1-5鄰,http://maps.google.com.tw/maps?q=%E8%8A%B1%E8%93%AE%E7%B8%A3%E7%A7%80%E6%9E%97%E9%84%89%E6%B0%B4%E6%BA%90%E6%9D%91%E6%B0%B4%E6%BA%90%EF%BC%99%EF%BC%98%E8%99%9F,24.004545,121.553427
秀林鄉,0132,水源國小(禮堂),花蓮縣秀林鄉水源村9鄰水源111號,水源村6-11鄰,http://maps.google.com.tw/maps?q=%E8%8A%B1%E8%93%AE%E7%B8%A3%E7%A7%80%E6%9E%97%E9%84%89%E6%B0%B4%E6%BA%90%E6%9D%91%E6%B0%B4%E6%BA%90%EF%BC%91%EF%BC%91%EF%BC%91%E8%99%9F,24.004545,121.553427
秀林鄉,0133,榕樹活動中心,花蓮縣秀林鄉銅門村6鄰榕樹56之2號,銅門村1-6鄰,http://maps.google.com.tw/maps?q=%E8%8A%B1%E8%93%AE%E7%B8%A3%E7%A7%80%E6%9E%97%E9%84%89%E9%8A%85%E9%96%80%E6%9D%91%E6%A6%95%E6%A8%B9%EF%BC%95%EF%BC%96%E4%B9%8B%EF%BC%92%E8%99%9F,23.9615534,121.5030043
秀林鄉,0134,銅門社區活動中心,花蓮縣秀林鄉銅門村9鄰銅門56號,銅門村7-12鄰,http://maps.google.com.tw/maps?q=%E8%8A%B1%E8%93%AE%E7%B8%A3%E7%A7%80%E6%9E%97%E9%84%89%E9%8A%85%E9%96%80%E6%9D%91%E9%8A%85%E9%96%80%EF%BC%95%EF%BC%96%E8%99%9F,23.9652535,121.494752
秀林鄉,0135,文蘭活動中心2樓,花蓮縣秀林鄉文蘭村6鄰文蘭79之1號,文蘭村1-7鄰,http://maps.google.com.tw/maps?q=%E8%8A%B1%E8%93%AE%E7%B8%A3%E7%A7%80%E6%9E%97%E9%84%89%E6%96%87%E8%98%AD%E6%9D%91%E6%96%87%E8%98%AD%EF%BC%97%EF%BC%99%E4%B9%8B%EF%BC%91%E8%99%9F,23.9482368,121.5073197
秀林鄉,0136,重光社區活動中心,花蓮縣秀林鄉文蘭村9鄰重光48號,文蘭村8-12鄰,http://maps.google.com.tw/maps?q=%E8%8A%B1%E8%93%AE%E7%B8%A3%E7%A7%80%E6%9E%97%E9%84%89%E6%96%87%E8%98%AD%E6%9D%91%E9%87%8D%E5%85%89%EF%BC%94%EF%BC%98%E8%99%9F,23.891819,121.508693
萬榮鄉,0268,西林國小舒揚館,花蓮縣萬榮鄉西林村8鄰114號,西林村,http://maps.google.com.tw/maps?q=%E8%8A%B1%E8%93%AE%E7%B8%A3%E8%90%AC%E6%A6%AE%E9%84%89%E8%A5%BF%E6%9E%97%E6%9D%91%EF%BC%91%EF%BC%91%EF%BC%94%E8%99%9F,23.8552781,121.3427262
萬榮鄉,0269,見晴活動中心,花蓮縣萬榮鄉見晴村7鄰75號,見晴村,http://maps.google.com.tw/maps?q=%E8%8A%B1%E8%93%AE%E7%B8%A3%E8%90%AC%E6%A6%AE%E9%84%89%E8%A6%8B%E6%99%B4%E6%9D%91%EF%BC%97%EF%BC%95%E8%99%9F,23.7759655,121.4113308
萬榮鄉,0270,萬榮國小學生活動中心,花蓮縣萬榮鄉萬榮村2鄰31號,萬榮村,http://maps.google.com.tw/maps?q=%E8%8A%B1%E8%93%AE%E7%B8%A3%E8%90%AC%E6%A6%AE%E9%84%89%E8%90%AC%E6%A6%AE%E6%9D%91%EF%BC%93%EF%BC%91%E8%99%9F,23.7936028,121.2855249
萬榮鄉,0271,明利活動中心,花蓮縣萬榮鄉明利村2鄰34之8號,明利村,http://maps.google.com.tw/maps?q=%E8%8A%B1%E8%93%AE%E7%B8%A3%E8%90%AC%E6%A6%AE%E9%84%89%E6%98%8E%E5%88%A9%E6%9D%91%EF%BC%93%EF%BC%94%E4%B9%8B%EF%BC%98%E8%99%9F,23.7216085,121.2740813
萬榮鄉,0272,馬遠活動中心,花蓮縣萬榮鄉馬遠村1鄰5號,馬遠村1-4鄰,http://maps.google.com.tw/maps?q=%E8%8A%B1%E8%93%AE%E7%B8%A3%E8%90%AC%E6%A6%AE%E9%84%89%E9%A6%AC%E9%81%A0%E6%9D%91%EF%BC%95%E8%99%9F,23.6231842,121.2855249
萬榮鄉,0273,東光活動中心,花蓮縣萬榮鄉馬遠村9鄰208之1號,馬遠村5-9鄰,http://maps.google.com.tw/maps?q=%E8%8A%B1%E8%93%AE%E7%B8%A3%E8%90%AC%E6%A6%AE%E9%84%89%E9%A6%AC%E9%81%A0%E6%9D%91%EF%BC%92%EF%BC%90%EF%BC%98%E4%B9%8B%EF%BC%91%E8%99%9F,23.6231842,121.2855249
萬榮鄉,0274,紅葉活動中心,花蓮縣萬榮鄉紅葉村1鄰11之2號,紅葉村,http://maps.google.com.tw/maps?q=%E8%8A%B1%E8%93%AE%E7%B8%A3%E8%90%AC%E6%A6%AE%E9%84%89%E7%B4%85%E8%91%89%E6%9D%91%EF%BC%91%EF%BC%91%E4%B9%8B%EF%BC%92%E8%99%9F,23.5105284,121.3370074
卓溪鄉,0330,崙山社區活動中心,花蓮縣卓溪鄉崙山村1鄰崙山11之1號,崙山村,http://maps.google.com.tw/maps?q=%E8%8A%B1%E8%93%AE%E7%B8%A3%E5%8D%93%E6%BA%AA%E9%84%89%E5%B4%99%E5%B1%B1%E6%9D%91%E5%B4%99%E5%B1%B1%EF%BC%91%EF%BC%91%E4%B9%8B%EF%BC%91%E8%99%9F,23.438975,121.341544
卓溪鄉,0331,立山社區活動中心,花蓮縣卓溪鄉立山村6鄰立山58號,立山村1-10鄰,http://maps.google.com.tw/maps?q=%E8%8A%B1%E8%93%AE%E7%B8%A3%E5%8D%93%E6%BA%AA%E9%84%89%E7%AB%8B%E5%B1%B1%E6%9D%91%E7%AB%8B%E5%B1%B1%EF%BC%95%EF%BC%98%E8%99%9F,23.5156702,121.193945
卓溪鄉,0332,山里社區活動中心,花蓮縣卓溪鄉立山村13鄰山里31之5號,立山村11-19鄰,http://maps.google.com.tw/maps?q=%E8%8A%B1%E8%93%AE%E7%B8%A3%E5%8D%93%E6%BA%AA%E9%84%89%E7%AB%8B%E5%B1%B1%E6%9D%91%E5%B1%B1%E9%87%8C%EF%BC%93%EF%BC%91%E4%B9%8B%EF%BC%95%E8%99%9F,23.430692,121.312184
卓溪鄉,0333,太平社區活動中心,花蓮縣卓溪鄉太平村6鄰太平79之1號,太平村,http://maps.google.com.tw/maps?q=%E8%8A%B1%E8%93%AE%E7%B8%A3%E5%8D%93%E6%BA%AA%E9%84%89%E5%A4%AA%E5%B9%B3%E6%9D%91%E5%A4%AA%E5%B9%B3%EF%BC%97%EF%BC%99%E4%B9%8B%EF%BC%91%E8%99%9F,23.4303862,121.193945
卓溪鄉,0334,卓溪多功能活動中心,花蓮縣卓溪鄉卓溪村6鄰中正66之4號,卓溪村,http://maps.google.com.tw/maps?q=%E8%8A%B1%E8%93%AE%E7%B8%A3%E5%8D%93%E6%BA%AA%E9%84%89%E5%8D%93%E6%BA%AA%E6%9D%91%E4%B8%AD%E6%AD%A3%EF%BC%96%EF%BC%96%E4%B9%8B%EF%BC%94%E8%99%9F,23.3445992,121.3033011
卓溪鄉,0335,卓清社區活動中心,花蓮縣卓溪鄉卓清村12鄰卓樂18號,卓清村9-20鄰,http://maps.google.com.tw/maps?q=%E8%8A%B1%E8%93%AE%E7%B8%A3%E5%8D%93%E6%BA%AA%E9%84%89%E5%8D%93%E6%B8%85%E6%9D%91%E5%8D%93%E6%A8%82%EF%BC%91%EF%BC%98%E8%99%9F,23.295893,121.269751
卓溪鄉,0336,清水社區活動中心,花蓮縣卓溪鄉卓清村1鄰清水13號,卓清村1-8鄰,http://maps.google.com.tw/maps?q=%E8%8A%B1%E8%93%AE%E7%B8%A3%E5%8D%93%E6%BA%AA%E9%84%89%E5%8D%93%E6%B8%85%E6%9D%91%E6%B8%85%E6%B0%B4%EF%BC%91%EF%BC%93%E8%99%9F,23.3652571,121.1022942
卓溪鄉,0337,古風社區活動中心,花蓮縣卓溪鄉古風村12鄰古楓4號,古風村12-21鄰,http://maps.google.com.tw/maps?q=%E8%8A%B1%E8%93%AE%E7%B8%A3%E5%8D%93%E6%BA%AA%E9%84%89%E5%8F%A4%E9%A2%A8%E6%9D%91%E5%8F%A4%E6%A5%93%EF%BC%94%E8%99%9F,23.245247,121.271564
卓溪鄉,0338,崙天社區活動中心,花蓮縣卓溪鄉古風村1鄰崙天20號,古風村1-11鄰,http://maps.google.com.tw/maps?q=%E8%8A%B1%E8%93%AE%E7%B8%A3%E5%8D%93%E6%BA%AA%E9%84%89%E5%8F%A4%E9%A2%A8%E6%9D%91%E5%B4%99%E5%A4%A9%EF%BC%92%EF%BC%90%E8%99%9F,23.2186865,121.265205
卓溪鄉,0339,石平社區活動中心,花蓮縣卓溪鄉古風村23鄰石平16之1號,古風村22-26鄰,http://maps.google.com.tw/maps?q=%E8%8A%B1%E8%93%AE%E7%B8%A3%E5%8D%93%E6%BA%AA%E9%84%89%E5%8F%A4%E9%A2%A8%E6%9D%91%E7%9F%B3%E5%B9%B3%EF%BC%91%EF%BC%96%E4%B9%8B%EF%BC%91%E8%99%9F,23.2799068,121.1022942
