polling_station_id,address,longitude,latitude,area_name
1,花蓮縣花蓮市民勤里4鄰府前路32號,121.6214686,23.9866702,民德里
2,花蓮縣花蓮市民勤里4鄰府前路32號,121.6214686,23.9866702,民德里
3,花蓮縣花蓮市民勤里15鄰永安街100號,121.6225698,23.9909971,民勤里
4,花蓮縣花蓮市民勤里28鄰新興路200號,121.6171649,23.9911467,民勤里
5,花蓮縣花蓮市民勤里15鄰永安街100號,121.6225698,23.9909971,民勤里
6,花蓮縣花蓮市民意里41鄰民光483之1號,121.6171885,24.0037589,民意里
7,花蓮縣花蓮市民意里42鄰府前路27號,121.6193961,23.9988237,民意里
8,花蓮縣花蓮市民意里7鄰民光71之1號,121.61718,24.004471,民意里
9,花蓮縣花蓮市民心里1鄰府前路682號,121.6188613,24.0070781,民心里
10,花蓮縣花蓮市民心里1鄰府前路682號,121.6188613,24.0070781,民享里
11,花蓮縣花蓮市民心里1鄰府前路682號,121.6188613,24.0070781,民享里
12,花蓮縣花蓮市民心里1鄰府前路682號,121.6188613,24.0070781,民享里
13,花蓮縣花蓮市民孝里1鄰化道路40巷1號,121.6286664,23.9980304,民孝里
14,花蓮縣花蓮市民孝里17鄰林園一街16號,121.6309785,24.0021762,民孝里
15,花蓮縣花蓮市民孝里21鄰東興二街147號,121.6299086,24.0036195,民孝里
16,花蓮縣花蓮市民樂里16鄰中興路31號,121.6322265,23.9922278,民運里
17,花蓮縣花蓮市民立里8鄰中興路75號,121.629502,23.9930162,民運里
18,花蓮縣花蓮市民政里1鄰永興路20號,121.6253867,23.9926142,民政里
19,花蓮縣花蓮市民政里1鄰永興路20號,121.6253867,23.9926142,民政里
20,花蓮縣花蓮市民政里1鄰永興路20號,121.6253867,23.9926142,民政里
21,花蓮縣花蓮市民政里1鄰永興路20號,121.6253867,23.9926142,民政里
22,花蓮縣花蓮市民立里6鄰民權路42號,121.6253572,23.98687,民立里
23,花蓮縣花蓮市民立里6鄰民權路42號,121.6253572,23.98687,民立里
24,花蓮縣花蓮市民立里9鄰中興路41號,121.6309838,23.99136,民樂里
25,花蓮縣花蓮市民有里1鄰海濱街57號,121.6152697,23.9739689,民有里
26,花蓮縣花蓮市民主里9鄰北濱街4號,121.6131903,23.9726683,民主里
27,花蓮縣花蓮市民權里1鄰菁華街2號,121.6158304,23.9790594,民族里
28,花蓮縣花蓮市民權里1鄰菁華街2號,121.6158304,23.9790594,民生里
29,花蓮縣花蓮市民權里1鄰菁華街2號,121.6158304,23.9790594,民權里
30,花蓮縣花蓮市國風里2鄰明義街107號,121.6031714,23.9787988,主商里
31,花蓮縣花蓮市國風里2鄰明義街107號,121.6031714,23.9787988,主勤里
32,花蓮縣花蓮市國風里2鄰明義街107號,121.6031714,23.9787988,主工里
33,花蓮縣花蓮市主信里11鄰忠孝街81號,121.6055272,23.9751176,主信里
34,花蓮縣花蓮市主計里12鄰成功街212號,121.6059429,23.9730693,主義里
35,花蓮縣花蓮市主計里14鄰信義街1號,121.6062917,23.9711977,主睦里
36,花蓮縣花蓮市主計里14鄰信義街1號,121.6062917,23.9711977,主計里
37,花蓮縣花蓮市主和里1鄰廣東街146號,121.6051366,23.9707771,主和里
38,花蓮縣花蓮市主學里17鄰中正路210號,121.600675,23.9710697,主和里
39,花蓮縣花蓮市主學里17鄰中正路210號,121.600675,23.9710697,主和里
40,花蓮縣花蓮市主學里17鄰中正路210號,121.600675,23.9710697,主學里
41,花蓮縣花蓮市主學里17鄰中正路210號,121.600675,23.9710697,主學里
42,花蓮縣花蓮市主農里5鄰福建街84號,121.59936,23.967822,主農里
43,花蓮縣花蓮市主農里11鄰中順街77號,121.596797,23.9687802,主農里
44,花蓮縣花蓮市主農里11鄰中順街77號,121.596797,23.9687802,主農里
45,花蓮縣花蓮市主權里11鄰中原路531號,121.596435,23.9720404,主農里
46,花蓮縣花蓮市主學里17鄰中正路210號,121.600675,23.9710697,主安里
47,花蓮縣花蓮市主學里17鄰中正路210號,121.600675,23.9710697,主安里
48,花蓮縣花蓮市主權里11鄰中原路531號,121.596435,23.9720404,主權里
49,花蓮縣花蓮市主權里11鄰中原路531號,121.596435,23.9720404,主權里
50,花蓮縣花蓮市主權里11鄰中原路531號,121.596435,23.9720404,主權里
51,花蓮縣花蓮市主權里3鄰中華路512號,121.5904197,23.974483,主權里
52,花蓮縣花蓮市主權里6鄰中原路666號,121.593681,23.9756658,主權里
53,花蓮縣花蓮市主力里6鄰中華路298號,121.5985353,23.9758742,主力里
54,花蓮縣花蓮市主力里6鄰中華路298號,121.5985353,23.9758742,主力里
55,花蓮縣花蓮市主力里6鄰中華路298號,121.5985353,23.9758742,主力里
56,花蓮縣花蓮市國風里9鄰林榮街45號,121.5973633,23.9785468,國風里
57,花蓮縣花蓮市國風里2鄰明義街107號,121.6031714,23.9787988,國風里
58,花蓮縣花蓮市國風里6鄰林政街7號,121.5957218,23.9781451,國風里
59,花蓮縣花蓮市國治里1鄰明禮路6號,121.6104233,23.9806485,國威里
60,花蓮縣花蓮市國風里2鄰明義街107號,121.6031714,23.9787988,國威里
61,花蓮縣花蓮市國治里1鄰明禮路6號,121.6104233,23.9806485,國治里
62,花蓮縣花蓮市國安里15鄰中山路418號,121.6037063,23.9871418,國安里
63,花蓮縣花蓮市國光里13鄰林森路437號,121.6077089,23.9830948,國光里
64,花蓮縣花蓮市國防里10鄰進豐街115號,121.6054084,23.9875515,國防里
65,花蓮縣花蓮市國風里2鄰明義街107號,121.6031714,23.9787988,國華里
66,花蓮縣花蓮市國魂里15鄰建國路161號,121.5976437,23.9828835,國華里
67,花蓮縣花蓮市國安里15鄰中山路418號,121.6037063,23.9871418,國魂里
68,花蓮縣花蓮市國魂里15鄰建國路161號,121.5976437,23.9828835,國魂里
69,花蓮縣花蓮市國盛里21鄰國盛二街22號,121.6072723,23.9923019,國聯里
70,花蓮縣花蓮市國聯里12鄰國興五街167號,121.6020205,23.987716,國聯里
71,花蓮縣花蓮市國安里15鄰中山路418號,121.6037063,23.9871418,國聯里
72,花蓮縣花蓮市國盛里21鄰國盛二街22號,121.6072723,23.9923019,國盛里
73,花蓮縣花蓮市國盛里21鄰國盛二街22號,121.6072723,23.9923019,國盛里
74,花蓮縣花蓮市國盛里21鄰國盛二街22號,121.6072723,23.9923019,國盛里
75,花蓮縣花蓮市國盛里21鄰國盛二街22號,121.6072723,23.9923019,國盛里
76,花蓮縣花蓮市國裕里27鄰裕祥路89號,121.5993702,23.9974094,國強里
77,花蓮縣花蓮市國強里6鄰豐村78之2號,121.6062192,24.0115711,國強里
78,花蓮縣花蓮市國富里41鄰中山路903號,121.5946123,23.9950295,富里村
78,花蓮縣花蓮市國富里41鄰中山路903號,121.5946123,23.9950295,國富里
79,花蓮縣花蓮市國富里41鄰中山路903號,121.5946123,23.9950295,富里村
79,花蓮縣花蓮市國富里41鄰中山路903號,121.5946123,23.9950295,國富里
80,花蓮縣花蓮市國富里40鄰富祥街12號,121.5942471,23.9938555,富里村
80,花蓮縣花蓮市國富里40鄰富祥街12號,121.5942471,23.9938555,國富里
81,花蓮縣花蓮市國富里41鄰中山路903號,121.5946123,23.9950295,富里村
81,花蓮縣花蓮市國富里41鄰中山路903號,121.5946123,23.9950295,國富里
82,花蓮縣花蓮市國富里41鄰中山路903號,121.5946123,23.9950295,富里村
82,花蓮縣花蓮市國富里41鄰中山路903號,121.5946123,23.9950295,國富里
83,花蓮縣花蓮市國裕里27鄰裕祥路89號,121.5993702,23.9974094,國裕里
84,花蓮縣花蓮市國裕里27鄰裕祥路89號,121.5993702,23.9974094,國裕里
85,花蓮縣花蓮市國裕里27鄰裕祥路89號,121.5993702,23.9974094,國裕里
86,花蓮縣花蓮市國裕里27鄰裕祥路89號,121.5993702,23.9974094,國裕里
87,花蓮縣花蓮市國慶里10鄰中山路一段25號,121.5932192,23.9972671,國慶里
88,花蓮縣花蓮市國興里17鄰介仁街67號,121.5719634,23.999373,國興里
89,花蓮縣花蓮市國興里17鄰介禮街46號,121.5730676,23.99748,國興里
90,花蓮縣花蓮市國興里17鄰介仁街67號,121.5719634,23.999373,國興里
91,花蓮縣花蓮市國興里17鄰介仁街67號,121.5719634,23.999373,國興里
92,花蓮縣花蓮市國福里6鄰中山路二段1號,121.5830127,24.0101137,國福里
93,花蓮縣花蓮市國福里6鄰沙基拉雅街111號,121.581827,24.0103762,國福里
229,花蓮縣鳳林鎮鳳仁里3鄰公園路70號,121.6123404,23.9774988,鳳仁里
229,花蓮縣鳳林鎮鳳仁里3鄰公園路70號,121.6123404,23.9774988,仁里村
230,花蓮縣鳳林鎮鳳義里6鄰水源路36號,121.4412634,23.7481414,鳳義里
231,花蓮縣鳳林鎮鳳智里1鄰大同街7號之1,121.4514096,23.7458539,鳳禮里
232,花蓮縣鳳林鎮鳳智里1鄰公正街8號,121.4520679,23.7451529,鳳智里
233,花蓮縣鳳林鎮鳳信里2鄰中正路一段120巷24號,121.4387364,23.7274545,鳳信里
234,花蓮縣鳳林鎮鳳智里25鄰中正路二段1號,121.4466892,23.7430618,鳳信里
235,花蓮縣鳳林鎮山興里6鄰山文路5號,121.6015714,23.9871589,山興里
236,花蓮縣鳳林鎮山興里15鄰中興路82號,121.6015714,23.9871589,山興里
237,花蓮縣鳳林鎮大榮里10鄰復興路69號,121.467772,23.7523647,大榮里
238,花蓮縣鳳林鎮大榮里18鄰大榮二路44號,121.4572652,23.7454419,大榮里
239,花蓮縣鳳林鎮北林里6鄰民和路1號,121.4710203,23.7672373,北林里
240,花蓮縣鳳林鎮南平里7鄰自強路368之1號,121.4589597,23.7823136,南平里
241,花蓮縣鳳林鎮林榮里10鄰永康路10號,121.4520922,23.8024055,林榮里
242,花蓮縣鳳林鎮長橋里14鄰長橋路6號,121.4195614,23.7098607,長橋里
243,花蓮縣鳳林鎮森榮里7鄰林森路99巷98號,121.3989548,23.7180886,森榮里
288,花蓮縣玉里鎮中城里11鄰中山路一段1號,121.3171679,23.3247225,中城里
289,花蓮縣玉里鎮中城里4鄰忠智路72號,121.3199118,23.3286375,中城里
290,花蓮縣玉里鎮中城里4鄰忠智路43號,121.3194064,23.3289912,中城里
291,花蓮縣玉里鎮中城里4鄰忠智路43號,121.3194064,23.3289912,中城里
292,花蓮縣玉里鎮中城里11鄰中山路一段1號,121.3171679,23.3247225,中城里
293,花蓮縣玉里鎮中城里11鄰中山路一段1號,121.3171679,23.3247225,中城里
294,花蓮縣玉里鎮中城里11鄰大同路2號,121.317182,23.325401,中城里
295,花蓮縣玉里鎮啟模里27鄰民權街50號,121.316061,23.3356307,國武里
296,花蓮縣玉里鎮泰昌里1鄰中正路144號,121.3069787,23.3374623,國武里
297,花蓮縣玉里鎮啟模里27鄰五權街1號,121.3160651,23.3362869,啟模里
298,花蓮縣玉里鎮啟模里27鄰民權街50號,121.316061,23.3356307,啟模里
299,花蓮縣玉里鎮泰昌里7鄰民族街30號,121.3129105,23.3353266,泰昌里
300,花蓮縣玉里鎮泰昌里7鄰民族街30號,121.3129105,23.3353266,泰昌里
301,花蓮縣玉里鎮永昌里11鄰莊敬路18號,121.3182377,23.3414731,永昌里
302,花蓮縣玉里鎮永昌里13鄰中華路424號,121.3189553,23.3459632,永昌里
303,花蓮縣玉里鎮大禹里4鄰酸柑88之1號,121.324116,23.363609,大禹里
304,花蓮縣玉里鎮大禹里21鄰大禹226號,121.3245,23.380612,大禹里
305,花蓮縣玉里鎮三民里13鄰三民131之2號,121.347474,23.43088,三民里
306,花蓮縣玉里鎮源城里5鄰客城69之1號,121.308701,23.317251,源城里
307,花蓮縣玉里鎮源城里12鄰水源57之2號,121.303082,23.33162,源城里
308,花蓮縣玉里鎮長良里8鄰長良143之1號,121.28763,23.276717,長良里
309,花蓮縣玉里鎮樂合里13鄰樂合65之5號,121.344915,23.319821,樂合里
310,花蓮縣玉里鎮東豐里1鄰石崗11之1號,121.3397179,23.3359099,東豐里
311,花蓮縣玉里鎮觀音里4鄰高寮92號,121.3589776,23.3829887,觀音里
312,花蓮縣玉里鎮觀音里16鄰觀音9之1號,121.356556,23.3950726,觀音里
313,花蓮縣玉里鎮松浦里2鄰松浦39號,121.373428,23.428071,松浦里
314,花蓮縣玉里鎮松浦里12鄰松浦214之3號,121.373428,23.428071,松浦里
315,花蓮縣玉里鎮春日里11鄰神農75之1號,121.388689,23.459209,春日里
316,花蓮縣玉里鎮德武里5鄰能雅79號,121.403183,23.468275,德武里
94,花蓮縣新城鄉新城村18鄰新興一街62號,121.6451824,24.1301503,新城村
95,花蓮縣新城鄉新城村4鄰博愛路66號,121.6501318,24.1286942,新城村
96,花蓮縣新城鄉順安村12鄰草林84之1號,121.638022,24.1165839,順安村
97,花蓮縣新城鄉順安村北三棧52之2號,121.619492,24.106005,順安村
98,花蓮縣新城鄉康樂村36鄰康樂一街38號,121.6078072,24.0520949,康樂村
99,花蓮縣新城鄉康樂村6鄰廣安一街112號,121.6097416,24.053209,康樂村
100,花蓮縣新城鄉康樂村2鄰大漢街390號,121.6083761,24.049529,康樂村
101,花蓮縣新城鄉大漢村32鄰大安街1號,121.6039996,24.0395339,大漢村
102,花蓮縣新城鄉大漢村19鄰民有街101號,121.6099816,24.0367838,大漢村
103,花蓮縣新城鄉大漢村4鄰明潭街27號,121.6301942,24.0269321,大漢村
104,花蓮縣新城鄉新秀村1鄰光復路489號,121.6041058,24.0371433,新秀村
105,花蓮縣新城鄉新秀村12鄰樹林街57巷9號,121.5993548,24.0404523,新秀村
106,花蓮縣新城鄉北埔村25鄰北埔路259號,121.6032954,24.0339872,北埔村
107,花蓮縣新城鄉北埔村16鄰北埔路143號,121.60197,24.0342594,北埔村
108,花蓮縣新城鄉北埔村9鄰北埔路170號,121.6047798,24.0317943,北埔村
109,花蓮縣新城鄉佳林村8鄰民有二街29號,121.6023021,24.021136,佳林村
110,花蓮縣新城鄉嘉里村嘉里二街31巷20號,121.6081,24.0172944,嘉里村
111,花蓮縣新城鄉嘉里村3鄰嘉里三街28號,121.6092336,24.0149237,嘉里村
112,花蓮縣新城鄉嘉里村3鄰嘉里三街28號,121.6092336,24.0149237,嘉里村
113,花蓮縣新城鄉嘉里村21鄰嘉里二街74號,121.6084743,24.0186869,嘉里村
114,花蓮縣新城鄉嘉新村10鄰嘉新路36號,121.613301,24.0079457,嘉新村
115,花蓮縣新城鄉嘉新村6鄰嘉南一街43巷5號,121.6122869,24.0051177,嘉新村
137,花蓮縣吉安鄉太昌村11鄰明義五街1號,121.5646366,23.9950365,太昌村
138,花蓮縣吉安鄉太昌村11鄰太昌路488號,121.5639922,23.9935166,太昌村
139,花蓮縣吉安鄉太昌村20鄰明仁三街825巷10號,121.5574543,23.9922587,太昌村
140,花蓮縣吉安鄉永安村20鄰太昌路204號,121.5730001,23.988978,永安村
141,花蓮縣吉安鄉永安村20鄰太昌路204號,121.5730001,23.988978,永安村
142,花蓮縣吉安鄉永安村20鄰太昌路204號,121.5730001,23.988978,永安村
143,花蓮縣吉安鄉永安村22鄰太昌路202號,121.5731004,23.9891315,永安村
144,花蓮縣吉安鄉北昌村16鄰建昌路45號,121.5950977,23.9871293,北昌村
145,花蓮縣吉安鄉北昌村16鄰建昌路45號,121.5950977,23.9871293,北昌村
146,花蓮縣吉安鄉北昌村39鄰自強路533號,121.5914025,23.9874631,北昌村
147,花蓮縣吉安鄉北昌村39鄰自強路533號,121.5914025,23.9874631,北昌村
148,花蓮縣吉安鄉北昌村39鄰自強路533號,121.5914025,23.9874631,北昌村
149,花蓮縣吉安鄉北昌村39鄰自強路533號,121.5914025,23.9874631,北昌村
150,花蓮縣吉安鄉北昌村39鄰自強路533號,121.5914025,23.9874631,北昌村
151,花蓮縣吉安鄉勝安村23鄰慈惠一街30號,121.586779,23.9754388,勝安村
152,花蓮縣吉安鄉勝安村23鄰慈惠一街30號,121.586779,23.9754388,勝安村
153,花蓮縣吉安鄉勝安村19鄰慈惠三街136號,121.585897,23.9779366,勝安村
154,花蓮縣吉安鄉勝安村18鄰慈惠四街168號,121.5870673,23.978447,勝安村
155,花蓮縣吉安鄉勝安村19鄰慈惠三街118號,121.5867297,23.9774811,勝安村
156,花蓮縣吉安鄉宜昌村1鄰宜昌一街45號,121.5856959,23.9708378,宜昌村
157,花蓮縣吉安鄉宜昌村1鄰宜昌一街45號,121.5856959,23.9708378,宜昌村
158,花蓮縣吉安鄉宜昌村26鄰吉祥六街52巷9號,121.5831664,23.9756026,宜昌村
159,花蓮縣吉安鄉宜昌村20鄰中華路二段167號,121.5823007,23.9734659,宜昌村
160,花蓮縣吉安鄉南昌村4鄰文化七街62之1號,121.5798665,23.9705185,南昌村
161,花蓮縣吉安鄉南昌村24鄰文化五街43號,121.5812244,23.9700061,南昌村
162,花蓮縣吉安鄉宜昌村6鄰中山路二段2號,121.5834123,23.9711436,南昌村
163,花蓮縣吉安鄉宜昌村6鄰中山路二段2號,121.5834123,23.9711436,南昌村
164,花蓮縣吉安鄉慶豐村57鄰中山路三段477號,121.5649928,23.9808443,慶豐村
165,花蓮縣吉安鄉慶豐村57鄰中山路三段477號,121.5649928,23.9808443,慶豐村
166,花蓮縣吉安鄉慶豐村57鄰中山路三段477號,121.5649928,23.9808443,慶豐村
167,花蓮縣吉安鄉慶豐村39鄰慶北一街237號,121.5632376,23.9825613,慶豐村
168,花蓮縣吉安鄉慶豐村43鄰中山路三段662號,121.5616183,23.9834711,慶豐村
169,花蓮縣吉安鄉慶豐村43鄰中山路三段662號,121.5616183,23.9834711,慶豐村
170,花蓮縣吉安鄉吉安村6鄰中山路三段1號,121.5598375,23.9839592,吉安村
171,花蓮縣吉安鄉吉安村7鄰中山路三段3號,121.5781053,23.9734937,吉安村
172,花蓮縣吉安鄉吉安村19鄰中興路355巷3之1號,121.5639768,23.9734966,吉安村
173,花蓮縣吉安鄉吉安村27鄰吉安路二段97號,121.5625101,23.9734716,吉安村
174,花蓮縣吉安鄉吉安村27鄰吉安路二段97號,121.5625101,23.9734716,吉安村
175,花蓮縣吉安鄉吉安村27鄰吉安路二段97號,121.5625101,23.9734716,吉安村
176,花蓮縣吉安鄉福興村9鄰吉安路三段90號,121.5597807,23.968341,福興村
177,花蓮縣吉安鄉福興村4鄰福德街1號,121.562453,23.9692299,福興村
178,花蓮縣吉安鄉福興村12鄰吉安路三段165號,121.5588019,23.9664654,福興村
179,花蓮縣吉安鄉南華村2鄰南華四街123號,121.5510003,23.9532271,南華村
180,花蓮縣吉安鄉南華村3鄰南華四街131巷40號,121.5503601,23.9528153,南華村
181,花蓮縣吉安鄉干城村2鄰干城一街97巷1號,121.5451578,23.9477249,干城村
182,花蓮縣吉安鄉東昌村6鄰東海六街74號,121.5958491,23.9658643,東昌村
183,花蓮縣吉安鄉東昌村18鄰東里十一街83號,121.5965396,23.9627687,東昌村
184,花蓮縣吉安鄉東昌村18鄰東里十一街83號,121.5965396,23.9627687,東昌村
185,花蓮縣吉安鄉東昌村18鄰東里十一街83號,121.5965396,23.9627687,東昌村
186,花蓮縣吉安鄉東昌村18鄰東里十一街83號,121.5965396,23.9627687,東昌村
187,花蓮縣吉安鄉東昌村18鄰東里十一街83號,121.5965396,23.9627687,仁安村
188,花蓮縣吉安鄉仁安村12鄰南海四街102號,121.5950175,23.9512905,仁安村
189,花蓮縣吉安鄉仁和村7鄰南海三街314號,121.5877241,23.9565087,仁和村
190,花蓮縣吉安鄉仁和村1鄰中正路二段66號,121.587876,23.9634,仁和村
191,花蓮縣吉安鄉仁和村1鄰中正路二段66號,121.587876,23.9634,仁和村
192,花蓮縣吉安鄉仁和村1鄰中正路二段60號,121.5885493,23.9638783,仁和村
193,花蓮縣吉安鄉仁和村26鄰南海十一街268巷11號,121.5844163,23.9403193,仁和村
194,花蓮縣吉安鄉仁里村10鄰仁里五街1號,121.5924099,23.9683836,仁里村
195,花蓮縣吉安鄉仁里村10鄰仁里五街1號,121.5924099,23.9683836,仁里村
196,花蓮縣吉安鄉東昌村3鄰東海十街3號,121.5931913,23.9652621,仁里村
197,花蓮縣吉安鄉東昌村3鄰東海十街3號,121.5931913,23.9652621,仁里村
198,花蓮縣吉安鄉東昌村3鄰東海十街3號,121.5931913,23.9652621,仁里村
199,花蓮縣吉安鄉仁里村17鄰仁愛新村21號,121.5869443,23.9660707,仁里村
200,花蓮縣吉安鄉稻香村14鄰稻香路99號,121.5687641,23.9626956,稻香村
201,花蓮縣吉安鄉稻香村14鄰稻香路99號,121.5687641,23.9626956,稻香村
202,花蓮縣吉安鄉稻香村24鄰廣豐路79號,121.5765873,23.9546868,稻香村
203,花蓮縣吉安鄉永興村4鄰永興七街86號,121.5683158,23.9551655,永興村
204,花蓮縣吉安鄉永興村4鄰永興七街86號,121.5683158,23.9551655,永興村
205,花蓮縣吉安鄉永興村15鄰全民街25號,121.5715157,23.9382165,永興村
206,花蓮縣吉安鄉光華村9鄰光華二街200號,121.5785433,23.9340303,光華村
207,花蓮縣吉安鄉光華村9鄰光華二街180號,121.5785301,23.9355745,光華村
208,花蓮縣壽豐鄉溪口村9鄰溪口路103巷3號,121.4739708,23.819808,溪口村
209,花蓮縣壽豐鄉樹湖村4鄰大樹脚93之3號,121.4793283,23.8361365,樹湖村
210,花蓮縣壽豐鄉豐山村24鄰中山路127巷15號,121.49375,23.8479038,豐山村
211,花蓮縣壽豐鄉豐山村25鄰中山路41號,121.4916134,23.8469113,豐山村
212,花蓮縣壽豐鄉豐裡村9鄰中山路132號,121.5008687,23.8452882,豐裡村
213,花蓮縣壽豐鄉豐裡村4鄰中山路257號,121.506026,23.842914,豐裡村
214,花蓮縣壽豐鄉豐坪村7鄰豐坪路二段73號,121.5095119,23.8350187,豐坪村
215,花蓮縣壽豐鄉壽豐村10鄰公園路28巷3號,121.5067506,23.8692284,壽豐村
216,花蓮縣壽豐鄉壽豐村10鄰公園路30號,121.5066312,23.8692882,壽豐村
217,花蓮縣壽豐鄉共和村6鄰農墾二街39號,121.5121317,23.8675349,共和村
218,花蓮縣壽豐鄉光榮村2鄰光榮一街26之1號,121.5142522,23.8817422,光榮村
219,花蓮縣壽豐鄉池南村3鄰池南路二段17號,121.5061999,23.9207626,池南村
220,花蓮縣壽豐鄉平和村9鄰平和路32號,121.5196985,23.8837416,平和村
221,花蓮縣壽豐鄉平和村23鄰吳全86號,121.5526139,23.889628,平和村
222,花蓮縣壽豐鄉志學村5鄰中正路120巷13號,121.5322054,23.9053326,志學新邨
222,花蓮縣壽豐鄉志學村5鄰中正路120巷13號,121.5322054,23.9053326,志學村
223,花蓮縣壽豐鄉志學村10鄰中山路三段66巷7號,121.5314124,23.9086718,志學新邨
223,花蓮縣壽豐鄉志學村10鄰中山路三段66巷7號,121.5314124,23.9086718,志學村
224,花蓮縣壽豐鄉志學村17鄰忠孝1號,121.5427093,23.9110614,志學新邨
224,花蓮縣壽豐鄉志學村17鄰忠孝1號,121.5427093,23.9110614,志學村
225,花蓮縣壽豐鄉米棧村5鄰米棧一段52號,121.522849,23.799976,米棧村
226,花蓮縣壽豐鄉月眉村8鄰月眉三段24號,121.55411,23.870208,月眉村
227,花蓮縣壽豐鄉鹽寮村4鄰塩寮165號,121.5883709,23.8687925,鹽寮村
228,花蓮縣壽豐鄉水璉村4鄰水璉二街21號,121.5645563,23.7823607,水璉村
244,花蓮縣光復鄉大華村8鄰光復路24號,121.4241211,23.6686867,大華村
245,花蓮縣光復鄉大安村19鄰忠孝路23巷11號,121.4236894,23.6636474,大安村
246,花蓮縣光復鄉大同村11鄰中山路三段84號,121.4264789,23.6713841,大平村
247,花蓮縣光復鄉大馬村7鄰林森路200號,121.4252612,23.6707486,大馬村
248,花蓮縣光復鄉大同村4鄰中正路一段370號,121.4309574,23.6632436,大同村
249,花蓮縣光復鄉北富村1鄰中正路二段23號,121.447939,23.6601661,東富村
250,花蓮縣光復鄉東富村20鄰東富路92巷2之1號,121.4878137,23.6950103,東富村
251,花蓮縣光復鄉西富村1鄰中正路二段72巷5號,121.4498736,23.6589176,西富村
252,花蓮縣光復鄉西富村13鄰民有街51巷3號,121.4297241,23.6366536,西富村
253,花蓮縣光復鄉南富村10鄰建國路二段39號,121.4511915,23.6418681,南富村
254,花蓮縣光復鄉北富村1鄰中正路二段23號,121.447939,23.6601661,北富村
255,花蓮縣光復鄉大進村1鄰糖廠街2號,121.419149,23.6548897,大進村
256,花蓮縣光復鄉大全村5鄰中山路一段216巷9號,121.4178635,23.6514112,大全村
257,花蓮縣光復鄉大全村15鄰建國路一段27號,121.4281843,23.6157606,大全村
258,花蓮縣光復鄉大興村4鄰民權街17號,121.3982919,23.6320721,大興村
259,花蓮縣光復鄉大富村2鄰明德路58巷1號,121.3910935,23.6055405,大富村
260,花蓮縣光復鄉大豐村3鄰尚德街31號,121.3875877,23.6039288,大豐村
261,花蓮縣豐濱鄉靜浦村7鄰靜浦247號,121.498358,23.459475,靜浦村
262,花蓮縣豐濱鄉港口村7鄰港口118號,121.502856,23.476419,港口村
263,花蓮縣豐濱鄉豐濱村6鄰民族街5號,121.520752,23.5975123,豐濱村
264,花蓮縣豐濱鄉豐濱村31鄰光豐路26號,121.5214776,23.60075,豐濱村
265,花蓮縣豐濱鄉豐濱村25鄰豐富71號,121.5095908,23.6060909,豐濱村
266,花蓮縣豐濱鄉新社村7鄰新社145號,121.536929,23.653338,新社村
267,花蓮縣豐濱鄉磯崎村5鄰磯崎71號,121.547643,23.707453,磯崎村
275,花蓮縣瑞穗鄉瑞穗村14鄰民生街63巷38號,121.378654,23.4987183,瑞穗村
276,花蓮縣瑞穗鄉瑞穗村14鄰民生街41號,121.3787495,23.4997383,瑞穗村
277,花蓮縣瑞穗鄉瑞美村13鄰中山路二段387號,121.3911567,23.4936344,瑞美村
278,花蓮縣瑞穗鄉瑞美村13鄰中山路二段389號,121.391504,23.4928908,瑞美村
279,花蓮縣瑞穗鄉瑞良村10鄰信義路3號,121.3940199,23.4924392,瑞良村
280,花蓮縣瑞穗鄉瑞祥村4鄰祥北路二段127號,121.3587795,23.4998857,瑞祥村
281,花蓮縣瑞穗鄉瑞北村4鄰祥北路一段54之1號,121.3767365,23.5265434,瑞北村
282,花蓮縣瑞穗鄉舞鶴村14鄰中正南路二段278號,121.3532919,23.4523455,舞鶴村
283,花蓮縣瑞穗鄉鶴岡村14鄰興鶴路一段85之6號,121.3914006,23.5106158,鶴岡村
284,花蓮縣瑞穗鄉奇美村3鄰奇美16號,121.499037,23.4613537,奇美村
285,花蓮縣瑞穗鄉富源村10鄰學士路31號,121.3758253,23.5784457,富源村
286,花蓮縣瑞穗鄉富民村2鄰中正路一段208之1號,121.374099,23.574206,富民村
287,花蓮縣瑞穗鄉富興村13鄰東興路123之1號,121.4056153,23.5697334,富興村
317,花蓮縣富里鄉吳江村6鄰吳江65之3號,121.336749,23.26105,吳江村
318,花蓮縣富里鄉東里村3鄰大莊路141號,121.3058871,23.2698309,東里村
319,花蓮縣富里鄉萬寧村7鄰鎮寧100號,121.3141291,23.238678,萬寧村
320,花蓮縣富里鄉竹田村1鄰東竹10號,121.284044,23.222035,新興村
321,花蓮縣富里鄉竹田村17鄰富田3號,121.2794359,23.2146512,竹田村
322,花蓮縣富里鄉羅山村9鄰東湖15之1號,121.2969674,23.1838646,羅山村
323,花蓮縣富里鄉石牌村8鄰富北51之2號,121.2798538,23.2251453,石牌村
324,花蓮縣富里鄉明里村3鄰明里37號,121.252487,23.2005495,明里村
325,花蓮縣富里鄉富里村33鄰中山路205號,121.2483291,23.1759054,富里村
326,花蓮縣富里鄉永豐村10鄰永豐20之1號,121.2683591,23.1635144,永豐村
327,花蓮縣富里鄉豐南村7鄰新富12之3號,121.2969674,23.1412473,豐南村
328,花蓮縣富里鄉富南村7鄰富南80號,121.2454674,23.147223,富南村
329,花蓮縣富里鄉學田村2鄰復興路14之1號,121.228816,23.148156,學田村
116,花蓮縣秀林鄉和平村3鄰和平108號,121.7482706,24.3082602,和平村
117,花蓮縣秀林鄉和平村9鄰和中1之1號,121.7444643,24.278675,和平村
118,花蓮縣秀林鄉崇德村1鄰海濱70號,121.6397184,24.2128474,崇德村
119,花蓮縣秀林鄉崇德村6鄰崇德85號,121.65093,24.164149,崇德村
120,花蓮縣秀林鄉富世村8鄰富世127號,121.4913182,24.1938259,富世村
121,花蓮縣秀林鄉富世村6鄰富世97之5號,121.4913182,24.1938259,富世村
122,花蓮縣秀林鄉富世村13鄰天祥30號,121.4933277,24.1856987,富世村
123,花蓮縣秀林鄉秀林村3鄰民有64號,121.5883709,24.1237672,秀林村
124,花蓮縣秀林鄉秀林村12鄰秀林75號,121.623847,24.119621,秀林村
125,花蓮縣秀林鄉秀林村12鄰秀林76號,121.623847,24.119621,秀林村
126,花蓮縣秀林鄉景美村6鄰加灣106號,121.611114,24.081777,景美村
127,花蓮縣秀林鄉景美村6鄰加灣117之11號,121.611114,24.081777,景美村
128,花蓮縣秀林鄉景美村15鄰三棧98之2號,121.603686,24.104145,景美村
129,花蓮縣秀林鄉佳民村3鄰佳民48之2號,121.5961927,24.0560405,佳民村
130,花蓮縣秀林鄉佳民村8鄰佳民119號,121.599464,24.0540531,佳民村
131,花蓮縣秀林鄉水源村9鄰水源98號,121.553427,24.004545,水源村
132,花蓮縣秀林鄉水源村9鄰水源111號,121.553427,24.004545,水源村
133,花蓮縣秀林鄉銅門村6鄰榕樹56之2號,121.5030043,23.9615534,銅門村
134,花蓮縣秀林鄉銅門村9鄰銅門56號,121.494752,23.9652535,銅門村
135,花蓮縣秀林鄉文蘭村6鄰文蘭79之1號,121.5073197,23.9482368,文蘭村
136,花蓮縣秀林鄉文蘭村9鄰重光48號,121.508693,23.891819,文蘭村
268,花蓮縣萬榮鄉西林村8鄰114號,121.3427262,23.8552781,西林村
269,花蓮縣萬榮鄉見晴村7鄰75號,121.4113308,23.7759655,見晴村
270,花蓮縣萬榮鄉萬榮村2鄰31號,121.2855249,23.7936028,萬榮飛行傘基地
270,花蓮縣萬榮鄉萬榮村2鄰31號,121.2855249,23.7936028,萬榮村
271,花蓮縣萬榮鄉明利村2鄰34之8號,121.2740813,23.7216085,明利村
272,花蓮縣萬榮鄉馬遠村1鄰5號,121.2855249,23.6231842,馬遠村
273,花蓮縣萬榮鄉馬遠村9鄰208之1號,121.2855249,23.6231842,馬遠村
274,花蓮縣萬榮鄉紅葉村1鄰11之2號,121.3370074,23.5105284,紅葉村
330,花蓮縣卓溪鄉崙山村1鄰崙山11之1號,121.341544,23.438975,崙山村
331,花蓮縣卓溪鄉立山村6鄰立山58號,121.193945,23.5156702,立山村
332,花蓮縣卓溪鄉立山村13鄰山里31之5號,121.312184,23.430692,立山村
333,花蓮縣卓溪鄉太平村6鄰太平79之1號,121.193945,23.4303862,太平村
334,花蓮縣卓溪鄉卓溪村6鄰中正66之4號,121.3033011,23.3445992,卓溪村
335,花蓮縣卓溪鄉卓清村12鄰卓樂18號,121.269751,23.295893,卓清村
336,花蓮縣卓溪鄉卓清村1鄰清水13號,121.1022942,23.3652571,卓清村
337,花蓮縣卓溪鄉古風村12鄰古楓4號,121.271564,23.245247,古風村
338,花蓮縣卓溪鄉古風村1鄰崙天20號,121.265205,23.2186865,古風村
339,花蓮縣卓溪鄉古風村23鄰石平16之1號,121.1022942,23.2799068,古風村
